"","OBJECTID","FIPS","COUNTY","STATE","POP2020","SQMI","Shape__Area","Shape__Length","county_fips","zip","zip_54301","zip_54601","zip_54901"
"1",83844,55141011700,"Wood County","WI",4740,10.03,50755714.07,40683.07303,55141,54410,FALSE,TRUE,FALSE
"2",83843,55141011600,"Wood County","WI",5213,51.3,259397768.4,73824.75321,55141,54410,FALSE,TRUE,FALSE
"3",83842,55141011500,"Wood County","WI",6052,13.14,66595837.85,39704.53937,55141,54410,FALSE,TRUE,FALSE
"4",83841,55141011400,"Wood County","WI",5380,4.7,23809004.41,31761.31131,55141,54410,FALSE,TRUE,FALSE
"5",83840,55141011300,"Wood County","WI",4537,5.16,26172314.99,22914.49662,55141,54410,FALSE,TRUE,FALSE
"6",83839,55141011200,"Wood County","WI",3989,10.14,51424647.02,32875.29732,55141,54410,FALSE,TRUE,FALSE
"7",83838,55141011100,"Wood County","WI",3479,45.67,232211942.7,76929.2603,55141,54410,FALSE,TRUE,FALSE
"8",83837,55141011000,"Wood County","WI",5561,13.26,67305508.81,37511.87992,55141,54410,FALSE,TRUE,FALSE
"9",83836,55141010900,"Wood County","WI",3971,164.02,831912649.2,177966.8653,55141,54410,FALSE,TRUE,FALSE
"10",83835,55141010800,"Wood County","WI",2738,215.47,1092773282,152221.812,55141,54410,FALSE,TRUE,FALSE
"11",83834,55141010700,"Wood County","WI",5369,107.39,548456703.1,113169.4613,55141,54410,FALSE,TRUE,FALSE
"12",83833,55141010600,"Wood County","WI",4617,2,10233843.8,16295.90194,55141,54410,FALSE,TRUE,FALSE
"13",83832,55141010500,"Wood County","WI",3403,2.43,12450278.88,18216.50563,55141,54410,FALSE,TRUE,FALSE
"14",83831,55141010400,"Wood County","WI",3363,4.48,22927328.75,20293.43871,55141,54410,FALSE,TRUE,FALSE
"15",83830,55141010300,"Wood County","WI",2863,0.86,4408621.398,11042.93931,55141,54410,FALSE,TRUE,FALSE
"16",83829,55141010200,"Wood County","WI",5039,19.8,101332298.3,46406.33995,55141,54410,FALSE,TRUE,FALSE
"17",83828,55141010100,"Wood County","WI",4662,139.4,712143396.3,113697.0033,55141,54410,FALSE,TRUE,FALSE
"18",83964,55139003704,"Winnebago County","WI",NA,15.64,78631639.58,41204.66926,55139,54901,FALSE,TRUE,FALSE
"19",83963,55139003703,"Winnebago County","WI",NA,8.72,43904000.48,36777.96362,55139,54901,FALSE,TRUE,FALSE
"20",83962,55139002402,"Winnebago County","WI",NA,5.2,26216718.5,24241.98595,55139,54901,FALSE,TRUE,FALSE
"21",83961,55139002401,"Winnebago County","WI",NA,4.07,20544299.9,35677.69901,55139,54901,FALSE,TRUE,FALSE
"22",83960,55139002002,"Winnebago County","WI",NA,57.79,288989397.4,76982.95013,55139,54901,FALSE,TRUE,FALSE
"23",83959,55139002001,"Winnebago County","WI",NA,16.03,80405561.95,43704.52236,55139,54901,FALSE,TRUE,FALSE
"24",83958,55139000502,"Winnebago County","WI",NA,0.45,2248105.141,6871.586584,55139,54901,FALSE,TRUE,FALSE
"25",83957,55139000501,"Winnebago County","WI",NA,0.5,2487206.242,9187.003108,55139,54901,FALSE,TRUE,FALSE
"26",83827,55139003701,"Winnebago County","WI",4057,0.8,4048336.508,9830.281056,55139,54901,FALSE,TRUE,FALSE
"27",83826,55139003600,"Winnebago County","WI",4154,2.88,14499553.04,19396.39035,55139,54901,FALSE,TRUE,FALSE
"28",83825,55139003500,"Winnebago County","WI",3188,1.04,5229454.695,9363.088076,55139,54901,FALSE,TRUE,FALSE
"29",83824,55139003400,"Winnebago County","WI",4080,1.55,7800787.816,12449.98972,55139,54901,FALSE,TRUE,FALSE
"30",83823,55139003300,"Winnebago County","WI",2740,0.79,3969707.438,9644.329653,55139,54901,FALSE,TRUE,FALSE
"31",83822,55139003200,"Winnebago County","WI",2361,3.11,15642254.61,18729.05007,55139,54901,FALSE,TRUE,FALSE
"32",83821,55139003100,"Winnebago County","WI",2165,1.58,7945370.141,18068.14424,55139,54901,FALSE,TRUE,FALSE
"33",83820,55139003000,"Winnebago County","WI",1629,1.84,9262602.547,20175.91634,55139,54901,FALSE,TRUE,FALSE
"34",83819,55139002900,"Winnebago County","WI",2371,0.73,3683664.73,9285.59649,55139,54901,FALSE,TRUE,FALSE
"35",83818,55139002800,"Winnebago County","WI",4671,1.72,8658669.801,12879.53231,55139,54901,FALSE,TRUE,FALSE
"36",83817,55139002700,"Winnebago County","WI",2467,0.73,3692713.84,9961.222761,55139,54901,FALSE,TRUE,FALSE
"37",83816,55139002602,"Winnebago County","WI",4759,1.24,6279931.184,10442.0206,55139,54901,FALSE,TRUE,FALSE
"38",83815,55139002601,"Winnebago County","WI",3847,2.7,13636580.43,24921.67729,55139,54901,FALSE,TRUE,FALSE
"39",83814,55139002500,"Winnebago County","WI",5385,1.43,7228612.676,13300.67938,55139,54901,FALSE,TRUE,FALSE
"40",83813,55139002300,"Winnebago County","WI",5952,64.64,325433328.4,100486.0734,55139,54901,FALSE,TRUE,FALSE
"41",83812,55139002202,"Winnebago County","WI",3040,65.96,332510378.5,102505.6285,55139,54901,FALSE,TRUE,FALSE
"42",83811,55139002201,"Winnebago County","WI",5147,36.46,183208367.8,63127.24258,55139,54901,FALSE,TRUE,FALSE
"43",83810,55139002100,"Winnebago County","WI",3917,113.64,569540502.4,130481.6788,55139,54901,FALSE,TRUE,FALSE
"44",83809,55139001900,"Winnebago County","WI",5394,72.33,361363830.9,81022.47262,55139,54901,FALSE,TRUE,FALSE
"45",83808,55139001804,"Winnebago County","WI",4740,5.39,27050350.36,22329.18892,55139,54901,FALSE,TRUE,FALSE
"46",83807,55139001803,"Winnebago County","WI",6143,4.22,21161074.39,20590.0735,55139,54901,FALSE,TRUE,FALSE
"47",83806,55139001801,"Winnebago County","WI",5623,6.17,30877979.74,23050.0683,55139,54901,FALSE,TRUE,FALSE
"48",83805,55139001700,"Winnebago County","WI",5285,14.21,71309273.85,36548.4343,55139,54901,FALSE,TRUE,FALSE
"49",83804,55139001600,"Winnebago County","WI",4070,22.13,111061726.3,45175.88077,55139,54901,FALSE,TRUE,FALSE
"50",83803,55139001500,"Winnebago County","WI",3166,2.19,10941667.78,15983.75593,55139,54901,FALSE,TRUE,FALSE
"51",83802,55139001400,"Winnebago County","WI",3993,2.43,12176387.91,14523.14689,55139,54901,FALSE,TRUE,FALSE
"52",83801,55139001300,"Winnebago County","WI",2652,1.17,5840947.09,13086.01044,55139,54901,FALSE,TRUE,FALSE
"53",83800,55139001200,"Winnebago County","WI",2013,0.67,3372110.309,9149.600697,55139,54901,FALSE,TRUE,FALSE
"54",83799,55139001100,"Winnebago County","WI",4170,1.06,5314912.992,9988.839502,55139,54901,FALSE,TRUE,FALSE
"55",83798,55139001000,"Winnebago County","WI",2721,1.18,5913228.957,11281.68731,55139,54901,FALSE,TRUE,FALSE
"56",83797,55139000900,"Winnebago County","WI",3266,1.79,8960621.594,13535.76112,55139,54901,FALSE,TRUE,FALSE
"57",83796,55139000800,"Winnebago County","WI",3098,0.54,2719894.848,7373.011716,55139,54901,FALSE,TRUE,FALSE
"58",83795,55139000700,"Winnebago County","WI",5224,0.52,2600048.152,7250.14813,55139,54901,FALSE,TRUE,FALSE
"59",83794,55139000400,"Winnebago County","WI",2884,1.09,5464001.742,9936.01224,55139,54901,FALSE,TRUE,FALSE
"60",83793,55139000300,"Winnebago County","WI",4156,29.15,146017655.8,52133.25021,55139,54901,FALSE,TRUE,FALSE
"61",83792,55139000200,"Winnebago County","WI",2624,0.54,2707368.207,7652.765132,55139,54901,FALSE,TRUE,FALSE
"62",83791,55139000100,"Winnebago County","WI",2985,0.56,2794218.699,7077.754642,55139,54901,FALSE,TRUE,FALSE
"63",83956,55137960202,"Waushara County","WI",NA,73.85,371106865.6,99426.83645,55137,54930,FALSE,TRUE,FALSE
"64",83955,55137960201,"Waushara County","WI",NA,33.44,168544827.3,59372.90288,55137,54930,FALSE,TRUE,FALSE
"65",83790,55137960800,"Waushara County","WI",4574,67.29,337639659.7,97403.7597,55137,54930,FALSE,TRUE,FALSE
"66",83789,55137960700,"Waushara County","WI",4442,75.97,380686181.3,102087.3661,55137,54930,FALSE,TRUE,FALSE
"67",83788,55137960600,"Waushara County","WI",2060,32.88,164744407.9,62464.79399,55137,54930,FALSE,TRUE,FALSE
"68",83787,55137960400,"Waushara County","WI",3510,136.62,685574380.3,110214.0283,55137,54930,FALSE,TRUE,FALSE
"69",83786,55137960300,"Waushara County","WI",3370,107.88,543748354.5,110281.3614,55137,54930,FALSE,TRUE,FALSE
"70",83785,55137960100,"Waushara County","WI",2873,109.48,551236406.8,128423.3894,55137,54930,FALSE,TRUE,FALSE
"71",83784,55135101200,"Waupaca County","WI",3974,76.45,388142340.1,119824.4984,55135,54929,FALSE,TRUE,FALSE
"72",83783,55135101100,"Waupaca County","WI",4960,11.59,59278343.27,50063.49706,55135,54929,FALSE,TRUE,FALSE
"73",83782,55135101000,"Waupaca County","WI",6024,9.37,47481884.99,47158.76437,55135,54929,FALSE,TRUE,FALSE
"74",83781,55135100900,"Waupaca County","WI",5815,8.76,44464143.29,34218.45883,55135,54929,FALSE,TRUE,FALSE
"75",83780,55135100800,"Waupaca County","WI",4859,71.19,360080097.3,126898.4578,55135,54929,FALSE,TRUE,FALSE
"76",83779,55135100700,"Waupaca County","WI",3398,50.47,255544944.9,115505.6638,55135,54929,FALSE,TRUE,FALSE
"77",83778,55135100600,"Waupaca County","WI",5023,71.84,363189548.2,100451.7923,55135,54929,FALSE,TRUE,FALSE
"78",83777,55135100500,"Waupaca County","WI",3052,32.53,164934618.6,60503.38953,55135,54929,FALSE,TRUE,FALSE
"79",83776,55135100400,"Waupaca County","WI",4292,106.69,542965332.6,131501.444,55135,54929,FALSE,TRUE,FALSE
"80",83775,55135100300,"Waupaca County","WI",3770,77.74,395973886.3,95786.90926,55135,54929,FALSE,TRUE,FALSE
"81",83774,55135100200,"Waupaca County","WI",2876,165.32,844530802.5,192089.2422,55135,54929,FALSE,TRUE,FALSE
"82",83773,55135100100,"Waupaca County","WI",3909,83.2,425636347.8,156928.4077,55135,54929,FALSE,TRUE,FALSE
"83",83954,55133204504,"Waukesha County","WI",NA,4.15,20172059.5,26821.38021,55133,53005,TRUE,FALSE,FALSE
"84",83953,55133204503,"Waukesha County","WI",NA,3.11,15122316.94,17374.11971,55133,53005,TRUE,FALSE,FALSE
"85",83952,55133204202,"Waukesha County","WI",NA,4.45,21614574.34,22899.46292,55133,53005,TRUE,FALSE,FALSE
"86",83951,55133204201,"Waukesha County","WI",NA,0.89,4336467.164,10123.62039,55133,53005,TRUE,FALSE,FALSE
"87",83950,55133203806,"Waukesha County","WI",NA,11,53213491.41,37506.00028,55133,53005,TRUE,FALSE,FALSE
"88",83949,55133203805,"Waukesha County","WI",NA,9.61,46539697.54,33510.84599,55133,53005,TRUE,FALSE,FALSE
"89",83948,55133203502,"Waukesha County","WI",NA,7.59,36909708.7,33152.37792,55133,53005,TRUE,FALSE,FALSE
"90",83947,55133203501,"Waukesha County","WI",NA,16.74,81555455.2,38948.23199,55133,53005,TRUE,FALSE,FALSE
"91",83946,55133203308,"Waukesha County","WI",NA,2.65,12873698.06,17306.7433,55133,53005,TRUE,FALSE,FALSE
"92",83945,55133203307,"Waukesha County","WI",NA,3.34,16218946.21,17298.31283,55133,53005,TRUE,FALSE,FALSE
"93",83944,55133203107,"Waukesha County","WI",NA,2.32,11259224.77,15904.71445,55133,53005,TRUE,FALSE,FALSE
"94",83943,55133203106,"Waukesha County","WI",NA,1.07,5181213.07,10311.28675,55133,53005,TRUE,FALSE,FALSE
"95",83942,55133203105,"Waukesha County","WI",NA,1.44,6994533.504,12173.00574,55133,53005,TRUE,FALSE,FALSE
"96",83941,55133203104,"Waukesha County","WI",NA,0.81,3948562.059,8053.540008,55133,53005,TRUE,FALSE,FALSE
"97",83940,55133202304,"Waukesha County","WI",NA,0.53,2565958.707,6926.84163,55133,53005,TRUE,FALSE,FALSE
"98",83939,55133202303,"Waukesha County","WI",NA,1.63,7886547.586,12536.04509,55133,53005,TRUE,FALSE,FALSE
"99",83938,55133202204,"Waukesha County","WI",NA,0.73,3541939.945,9886.443961,55133,53005,TRUE,FALSE,FALSE
"100",83937,55133202203,"Waukesha County","WI",NA,0.5,2411079.418,9768.436604,55133,53005,TRUE,FALSE,FALSE
"101",83936,55133201508,"Waukesha County","WI",NA,0.68,3274814.504,7159.163497,55133,53005,TRUE,FALSE,FALSE
"102",83935,55133201507,"Waukesha County","WI",NA,1.32,6375865.34,10685.41435,55133,53005,TRUE,FALSE,FALSE
"103",83934,55133201205,"Waukesha County","WI",NA,2.29,11135538.04,16626.48897,55133,53005,TRUE,FALSE,FALSE
"104",83933,55133201204,"Waukesha County","WI",NA,1.51,7300474.5,12007.9288,55133,53005,TRUE,FALSE,FALSE
"105",83932,55133201002,"Waukesha County","WI",NA,2.15,10436431.38,16369.74414,55133,53005,TRUE,FALSE,FALSE
"106",83931,55133201001,"Waukesha County","WI",NA,1.2,5829614.152,11673.14457,55133,53005,TRUE,FALSE,FALSE
"107",83772,55133204501,"Waukesha County","WI",2725,24.14,117615741,46794.28879,55133,53005,TRUE,FALSE,FALSE
"108",83771,55133204400,"Waukesha County","WI",2207,4.32,21043398.61,19209.24111,55133,53005,TRUE,FALSE,FALSE
"109",83770,55133204302,"Waukesha County","WI",3845,2.44,11866756.75,15153.32226,55133,53005,TRUE,FALSE,FALSE
"110",83769,55133204301,"Waukesha County","WI",6196,4.94,24024159.67,19404.7778,55133,53005,TRUE,FALSE,FALSE
"111",83768,55133204100,"Waukesha County","WI",5538,26.85,130329725.3,53475.1337,55133,53005,TRUE,FALSE,FALSE
"112",83767,55133204004,"Waukesha County","WI",4546,30.89,149521734.8,59597.37747,55133,53005,TRUE,FALSE,FALSE
"113",83766,55133204003,"Waukesha County","WI",3826,13.37,64751941.48,35919.18975,55133,53005,TRUE,FALSE,FALSE
"114",83765,55133204002,"Waukesha County","WI",5605,36.46,175998117.6,57480.84933,55133,53005,TRUE,FALSE,FALSE
"115",83764,55133203902,"Waukesha County","WI",4435,4.26,20563611.88,25328.5544,55133,53005,TRUE,FALSE,FALSE
"116",83763,55133203901,"Waukesha County","WI",4974,5.93,28603506.67,24984.43518,55133,53005,TRUE,FALSE,FALSE
"117",83762,55133203803,"Waukesha County","WI",4096,12.15,58737181.89,40848.91701,55133,53005,TRUE,FALSE,FALSE
"118",83761,55133203802,"Waukesha County","WI",6231,24.74,119432006,60693.63772,55133,53005,TRUE,FALSE,FALSE
"119",83760,55133203704,"Waukesha County","WI",5119,7.49,36371697.79,36368.29167,55133,53005,TRUE,FALSE,FALSE
"120",83759,55133203703,"Waukesha County","WI",3996,5.35,26010500.7,26505.89368,55133,53005,TRUE,FALSE,FALSE
"121",83758,55133203702,"Waukesha County","WI",5017,15.15,73457947.73,40029.12868,55133,53005,TRUE,FALSE,FALSE
"122",83757,55133203602,"Waukesha County","WI",6254,3.02,14658137.52,15168.00285,55133,53005,TRUE,FALSE,FALSE
"123",83756,55133203601,"Waukesha County","WI",4171,3.36,16358409.24,24318.85146,55133,53005,TRUE,FALSE,FALSE
"124",83755,55133203406,"Waukesha County","WI",6849,19.48,94847555.91,49062.65923,55133,53005,TRUE,FALSE,FALSE
"125",83754,55133203405,"Waukesha County","WI",4485,5.28,25707578.93,23416.90846,55133,53005,TRUE,FALSE,FALSE
"126",83753,55133203404,"Waukesha County","WI",3667,3.25,15797531.8,22363.67875,55133,53005,TRUE,FALSE,FALSE
"127",83752,55133203403,"Waukesha County","WI",5894,5.64,27482427.98,25630.3269,55133,53005,TRUE,FALSE,FALSE
"128",83751,55133203402,"Waukesha County","WI",4105,2.58,12538247.39,14432.10111,55133,53005,TRUE,FALSE,FALSE
"129",83750,55133203305,"Waukesha County","WI",4639,4.54,22038570.14,21698.62023,55133,53005,TRUE,FALSE,FALSE
"130",83749,55133203304,"Waukesha County","WI",4860,6.86,33344694.88,26547.86804,55133,53005,TRUE,FALSE,FALSE
"131",83748,55133203303,"Waukesha County","WI",3925,4.83,23487384.06,23230.79151,55133,53005,TRUE,FALSE,FALSE
"132",83747,55133203200,"Waukesha County","WI",4210,8.05,39095243.8,30810.40095,55133,53005,TRUE,FALSE,FALSE
"133",83746,55133203103,"Waukesha County","WI",4600,0.86,4192428.477,9417.852461,55133,53005,TRUE,FALSE,FALSE
"134",83745,55133203000,"Waukesha County","WI",2649,3.7,17924385.2,20390.18908,55133,53005,TRUE,FALSE,FALSE
"135",83744,55133202902,"Waukesha County","WI",3592,1.85,8982599.809,12345.76496,55133,53005,TRUE,FALSE,FALSE
"136",83743,55133202901,"Waukesha County","WI",4418,2.06,9974653.652,13430.67437,55133,53005,TRUE,FALSE,FALSE
"137",83742,55133202800,"Waukesha County","WI",4291,1.09,5276778.453,11303.88134,55133,53005,TRUE,FALSE,FALSE
"138",83741,55133202700,"Waukesha County","WI",1866,0.22,1074303.926,4580.632848,55133,53005,TRUE,FALSE,FALSE
"139",83740,55133202600,"Waukesha County","WI",3746,0.48,2317167.863,7840.29476,55133,53005,TRUE,FALSE,FALSE
"140",83739,55133202500,"Waukesha County","WI",4109,1.6,7775782.746,12639.70029,55133,53005,TRUE,FALSE,FALSE
"141",83738,55133202400,"Waukesha County","WI",4945,1.28,6209960.164,10843.22524,55133,53005,TRUE,FALSE,FALSE
"142",83737,55133202301,"Waukesha County","WI",4770,2.82,13644928.63,19725.6173,55133,53005,TRUE,FALSE,FALSE
"143",83736,55133202201,"Waukesha County","WI",4371,2.1,10157599.8,13764.96388,55133,53005,TRUE,FALSE,FALSE
"144",83735,55133202103,"Waukesha County","WI",3517,5.67,27420058.11,24394.11716,55133,53005,TRUE,FALSE,FALSE
"145",83734,55133202102,"Waukesha County","WI",4851,7.43,35913613.23,37070.26509,55133,53005,TRUE,FALSE,FALSE
"146",83733,55133202101,"Waukesha County","WI",4321,6.69,32365026.79,34950.74363,55133,53005,TRUE,FALSE,FALSE
"147",83732,55133202002,"Waukesha County","WI",4033,14.94,72069572.38,36816.8187,55133,53005,TRUE,FALSE,FALSE
"148",83731,55133202001,"Waukesha County","WI",5202,21.15,102084356.5,52635.57352,55133,53005,TRUE,FALSE,FALSE
"149",83730,55133201900,"Waukesha County","WI",6174,17.94,86556188.5,39373.20081,55133,53005,TRUE,FALSE,FALSE
"150",83729,55133201800,"Waukesha County","WI",1649,1.93,9324016.477,18648.6802,55133,53005,TRUE,FALSE,FALSE
"151",83728,55133201704,"Waukesha County","WI",5380,9.09,43887286.99,31709.83413,55133,53005,TRUE,FALSE,FALSE
"152",83727,55133201703,"Waukesha County","WI",5883,2.64,12765707.3,20127.55711,55133,53005,TRUE,FALSE,FALSE
"153",83726,55133201701,"Waukesha County","WI",4789,2.61,12623164.78,14979.35782,55133,53005,TRUE,FALSE,FALSE
"154",83725,55133201600,"Waukesha County","WI",5235,13.17,63719342.39,34631.45718,55133,53005,TRUE,FALSE,FALSE
"155",83724,55133201506,"Waukesha County","WI",5202,4.89,23671929.15,25873.19423,55133,53005,TRUE,FALSE,FALSE
"156",83723,55133201505,"Waukesha County","WI",2917,2.39,11549180.2,15402.65039,55133,53005,TRUE,FALSE,FALSE
"157",83722,55133201504,"Waukesha County","WI",6399,2.58,12451193.66,18786.41045,55133,53005,TRUE,FALSE,FALSE
"158",83721,55133201404,"Waukesha County","WI",3794,2.91,14107264.61,15042.52749,55133,53005,TRUE,FALSE,FALSE
"159",83720,55133201403,"Waukesha County","WI",4227,1.93,9334376.699,13194.58395,55133,53005,TRUE,FALSE,FALSE
"160",83719,55133201402,"Waukesha County","WI",5000,2.04,9894196.863,13502.12957,55133,53005,TRUE,FALSE,FALSE
"161",83718,55133201300,"Waukesha County","WI",4888,7.88,38188606.99,26277.89134,55133,53005,TRUE,FALSE,FALSE
"162",83717,55133201203,"Waukesha County","WI",3407,2.36,11466230.94,15214.70016,55133,53005,TRUE,FALSE,FALSE
"163",83716,55133201201,"Waukesha County","WI",2236,2.4,11624676.58,16036.18226,55133,53005,TRUE,FALSE,FALSE
"164",83715,55133201102,"Waukesha County","WI",3345,1.92,9326265.648,14674.42781,55133,53005,TRUE,FALSE,FALSE
"165",83714,55133201101,"Waukesha County","WI",4741,3.88,18833620.15,21880.82291,55133,53005,TRUE,FALSE,FALSE
"166",83713,55133200902,"Waukesha County","WI",4002,3.02,14675120.47,17699.97071,55133,53005,TRUE,FALSE,FALSE
"167",83712,55133200901,"Waukesha County","WI",4427,3,14560325.52,17616.94899,55133,53005,TRUE,FALSE,FALSE
"168",83711,55133200804,"Waukesha County","WI",3904,2.67,12949461.28,19868.42575,55133,53005,TRUE,FALSE,FALSE
"169",83710,55133200803,"Waukesha County","WI",4794,3.53,17143915.94,20849.31188,55133,53005,TRUE,FALSE,FALSE
"170",83709,55133200801,"Waukesha County","WI",5248,5.41,26296561.49,29101.5049,55133,53005,TRUE,FALSE,FALSE
"171",83708,55133200700,"Waukesha County","WI",3806,2.89,14031380.77,18475.30301,55133,53005,TRUE,FALSE,FALSE
"172",83707,55133200600,"Waukesha County","WI",1853,0.79,3850669.746,9920.149858,55133,53005,TRUE,FALSE,FALSE
"173",83706,55133200500,"Waukesha County","WI",6048,2.97,14462153.23,17697.67565,55133,53005,TRUE,FALSE,FALSE
"174",83705,55133200400,"Waukesha County","WI",7328,7.5,36497658.49,26201.01975,55133,53005,TRUE,FALSE,FALSE
"175",83704,55133200300,"Waukesha County","WI",4848,13.61,66237171.37,39747.50659,55133,53005,TRUE,FALSE,FALSE
"176",83703,55133200202,"Waukesha County","WI",5010,3.93,19123817.73,25728.30229,55133,53005,TRUE,FALSE,FALSE
"177",83702,55133200201,"Waukesha County","WI",3650,2.28,11090500.07,13328.56835,55133,53005,TRUE,FALSE,FALSE
"178",83701,55133200103,"Waukesha County","WI",3106,2.11,10258853.05,14927.65371,55133,53005,TRUE,FALSE,FALSE
"179",83700,55133200102,"Waukesha County","WI",5620,1.54,7480902.07,11885.0743,55133,53005,TRUE,FALSE,FALSE
"180",83699,55133200101,"Waukesha County","WI",4686,1.72,8361871.953,13168.5276,55133,53005,TRUE,FALSE,FALSE
"181",83930,55131450108,"Washington County","WI",NA,14.03,68627299.47,33159.80695,55131,53002,TRUE,FALSE,FALSE
"182",83929,55131450107,"Washington County","WI",NA,6.87,33587345.11,27644.54767,55131,53002,TRUE,FALSE,FALSE
"183",83928,55131420108,"Washington County","WI",NA,8.92,43799397.2,28945.32686,55131,53002,TRUE,FALSE,FALSE
"184",83927,55131420107,"Washington County","WI",NA,8.48,41601847.88,29795.91343,55131,53002,TRUE,FALSE,FALSE
"185",83698,55131470204,"Washington County","WI",4523,4.01,19538558.9,17669.35543,55131,53002,TRUE,FALSE,FALSE
"186",83697,55131470203,"Washington County","WI",4596,3.48,16998051.66,19781.46173,55131,53002,TRUE,FALSE,FALSE
"187",83696,55131470202,"Washington County","WI",6262,1.98,9641842.223,13052.60112,55131,53002,TRUE,FALSE,FALSE
"188",83695,55131470100,"Washington County","WI",5485,26.77,130718639.2,56205.09577,55131,53002,TRUE,FALSE,FALSE
"189",83694,55131460102,"Washington County","WI",5443,12.05,58812866.29,31032.91692,55131,53002,TRUE,FALSE,FALSE
"190",83693,55131460101,"Washington County","WI",6501,24.34,118874291.7,53419.96978,55131,53002,TRUE,FALSE,FALSE
"191",83692,55131450106,"Washington County","WI",6086,15.6,76338969.57,47129.91245,55131,53002,TRUE,FALSE,FALSE
"192",83691,55131450105,"Washington County","WI",2926,15.11,74042757.95,40555.17115,55131,53002,TRUE,FALSE,FALSE
"193",83690,55131450103,"Washington County","WI",5723,21.5,105326021.4,45391.05323,55131,53002,TRUE,FALSE,FALSE
"194",83689,55131440200,"Washington County","WI",4080,0.96,4678419.348,12724.68668,55131,53002,TRUE,FALSE,FALSE
"195",83688,55131440106,"Washington County","WI",3984,36.15,176477311.6,53248.19042,55131,53002,TRUE,FALSE,FALSE
"196",83687,55131440105,"Washington County","WI",3760,15.99,78308978.2,48566.61332,55131,53002,TRUE,FALSE,FALSE
"197",83686,55131440104,"Washington County","WI",6476,7.97,38991410.7,31203.45899,55131,53002,TRUE,FALSE,FALSE
"198",83685,55131440103,"Washington County","WI",5205,11.28,55282527.29,36889.95046,55131,53002,TRUE,FALSE,FALSE
"199",83684,55131430100,"Washington County","WI",6131,71.85,353300339.2,79926.55797,55131,53002,TRUE,FALSE,FALSE
"200",83683,55131420402,"Washington County","WI",2145,0.67,3311661.211,8891.579286,55131,53002,TRUE,FALSE,FALSE
"201",83682,55131420401,"Washington County","WI",2241,0.51,2528418.887,7766.32625,55131,53002,TRUE,FALSE,FALSE
"202",83681,55131420300,"Washington County","WI",5959,1.87,9182462.914,13630.64215,55131,53002,TRUE,FALSE,FALSE
"203",83680,55131420200,"Washington County","WI",5689,2.05,10048110.7,15278.92622,55131,53002,TRUE,FALSE,FALSE
"204",83679,55131420106,"Washington County","WI",3706,2.2,10803909.73,13211.72439,55131,53002,TRUE,FALSE,FALSE
"205",83678,55131420105,"Washington County","WI",4958,2.68,13168200.74,18194.97873,55131,53002,TRUE,FALSE,FALSE
"206",83677,55131420104,"Washington County","WI",5112,20.92,102852731.4,59209.48833,55131,53002,TRUE,FALSE,FALSE
"207",83676,55131410100,"Washington County","WI",5414,24.36,119991950.2,44646.08995,55131,53002,TRUE,FALSE,FALSE
"208",83675,55131400104,"Washington County","WI",5994,32.61,160078605.9,58574.60882,55131,53002,TRUE,FALSE,FALSE
"209",83674,55131400103,"Washington County","WI",4114,36.8,181183244.7,53856.92734,55131,53002,TRUE,FALSE,FALSE
"210",83673,55131400102,"Washington County","WI",3949,3.65,17944607.36,18295.5838,55131,53002,TRUE,FALSE,FALSE
"211",83926,55129950502,"Washburn County","WI",NA,107.65,572127344,144031.579,55129,54801,FALSE,FALSE,TRUE
"212",83925,55129950501,"Washburn County","WI",NA,19.35,103217973.5,47678.30178,55129,54801,FALSE,FALSE,TRUE
"213",83672,55129950600,"Washburn County","WI",4537,143.92,765755448.9,150076.6958,55129,54801,FALSE,FALSE,TRUE
"214",83671,55129950300,"Washburn County","WI",2742,210.99,1125622765,185641.1795,55129,54801,FALSE,FALSE,TRUE
"215",83670,55129950200,"Washburn County","WI",1881,147.03,788087248,150860.99,55129,54801,FALSE,FALSE,TRUE
"216",83669,55129950100,"Washburn County","WI",2100,224.38,1207714322,187935.4295,55129,54801,FALSE,FALSE,TRUE
"217",83924,55127001608,"Walworth County","WI",NA,5.4,25761952.68,25726.80936,55127,53114,TRUE,FALSE,FALSE
"218",83923,55127001607,"Walworth County","WI",NA,6.96,33214093.64,30962.19482,55127,53114,TRUE,FALSE,FALSE
"219",83922,55127001606,"Walworth County","WI",NA,13.42,64135090.05,41411.46933,55127,53114,TRUE,FALSE,FALSE
"220",83921,55127001605,"Walworth County","WI",NA,3.32,15886281.69,18355.66445,55127,53114,TRUE,FALSE,FALSE
"221",83920,55127001504,"Walworth County","WI",NA,4.18,19985031.29,22074.73696,55127,53114,TRUE,FALSE,FALSE
"222",83919,55127001503,"Walworth County","WI",NA,2.08,9936052.039,14833.47185,55127,53114,TRUE,FALSE,FALSE
"223",83918,55127000802,"Walworth County","WI",NA,10.9,52133012.45,30218.69176,55127,53114,TRUE,FALSE,FALSE
"224",83917,55127000801,"Walworth County","WI",NA,13.27,63512372.66,42588.91288,55127,53114,TRUE,FALSE,FALSE
"225",83916,55127000304,"Walworth County","WI",NA,52.11,250083149.6,80007.59436,55127,53114,TRUE,FALSE,FALSE
"226",83915,55127000303,"Walworth County","WI",NA,10.64,51166157.64,28919.9398,55127,53114,TRUE,FALSE,FALSE
"227",83914,55127000202,"Walworth County","WI",NA,53.04,254553694.3,70454.79184,55127,53114,TRUE,FALSE,FALSE
"228",83913,55127000201,"Walworth County","WI",NA,53.18,255784425.7,68497.97898,55127,53114,TRUE,FALSE,FALSE
"229",83912,55127000104,"Walworth County","WI",NA,11.13,53622070.94,31749.34081,55127,53114,TRUE,FALSE,FALSE
"230",83911,55127000103,"Walworth County","WI",NA,2.32,11168307.83,14367.80643,55127,53114,TRUE,FALSE,FALSE
"231",83668,55127001702,"Walworth County","WI",5477,59.7,284863640.1,126090.8612,55127,53114,TRUE,FALSE,FALSE
"232",83667,55127001701,"Walworth County","WI",6355,18.84,89955694.73,40204.5316,55127,53114,TRUE,FALSE,FALSE
"233",83666,55127001603,"Walworth County","WI",2917,6.43,30716299.71,22840.04938,55127,53114,TRUE,FALSE,FALSE
"234",83665,55127001501,"Walworth County","WI",3299,7.02,33566959.31,29991.0848,55127,53114,TRUE,FALSE,FALSE
"235",83664,55127001000,"Walworth County","WI",5401,54.77,262216503.7,81550.96186,55127,53114,TRUE,FALSE,FALSE
"236",83663,55127000902,"Walworth County","WI",3679,2.3,11036580.24,19431.267,55127,53114,TRUE,FALSE,FALSE
"237",83662,55127000901,"Walworth County","WI",6124,9.56,45848871.04,28174.81439,55127,53114,TRUE,FALSE,FALSE
"238",83661,55127000702,"Walworth County","WI",4527,3.2,15340721.35,24891.87572,55127,53114,TRUE,FALSE,FALSE
"239",83660,55127000701,"Walworth County","WI",4156,4.92,23553739.56,28259.0116,55127,53114,TRUE,FALSE,FALSE
"240",83659,55127000600,"Walworth County","WI",5961,70.38,336382660,87068.0404,55127,53114,TRUE,FALSE,FALSE
"241",83658,55127000502,"Walworth County","WI",3663,3.3,15899852.75,19517.44302,55127,53114,TRUE,FALSE,FALSE
"242",83657,55127000501,"Walworth County","WI",3962,0.89,4312988.145,10507.89486,55127,53114,TRUE,FALSE,FALSE
"243",83656,55127000400,"Walworth County","WI",4054,3.49,16837842.71,16725.36362,55127,53114,TRUE,FALSE,FALSE
"244",83655,55127000301,"Walworth County","WI",3139,67.45,324546143.4,84358.58782,55127,53114,TRUE,FALSE,FALSE
"245",83654,55127000102,"Walworth County","WI",2555,22.39,107735149,46967.82667,55127,53114,TRUE,FALSE,FALSE
"246",83910,55125950602,"Vilas County","WI",NA,228.1,1229436973,228608.5912,55125,54512,FALSE,TRUE,FALSE
"247",83909,55125950601,"Vilas County","WI",NA,247.2,1332225668,245652.3092,55125,54512,FALSE,TRUE,FALSE
"248",83908,55125950502,"Vilas County","WI",NA,30.63,163763731.9,69334.54376,55125,54512,FALSE,TRUE,FALSE
"249",83907,55125950501,"Vilas County","WI",NA,54.67,292691756.5,89295.97729,55125,54512,FALSE,TRUE,FALSE
"250",83906,55125950202,"Vilas County","WI",NA,98.7,529657586.3,133833.8082,55125,54512,FALSE,TRUE,FALSE
"251",83905,55125950201,"Vilas County","WI",NA,147.21,791987076.2,177840.5028,55125,54512,FALSE,TRUE,FALSE
"252",83653,55125950700,"Vilas County","WI",4463,82.73,443079784.9,102330.0441,55125,54512,FALSE,TRUE,FALSE
"253",83652,55125940000,"Vilas County","WI",3538,128.48,688753736,118819.7739,55125,54512,FALSE,TRUE,FALSE
"254",83651,55123960700,"Vernon County","WI",4128,128.01,631890908.3,147289.4261,55123,54621,FALSE,FALSE,TRUE
"255",83650,55123960600,"Vernon County","WI",4690,155.54,769097546.4,157084.7492,55123,54621,FALSE,FALSE,TRUE
"256",83649,55123960500,"Vernon County","WI",3673,168.43,828890923.7,162059.2734,55123,54621,FALSE,FALSE,TRUE
"257",83648,55123960400,"Vernon County","WI",5071,18.51,91310412.25,66682.7577,55123,54621,FALSE,FALSE,TRUE
"258",83647,55123960300,"Vernon County","WI",4442,68.8,340441900,113014.0596,55123,54621,FALSE,FALSE,TRUE
"259",83646,55123960200,"Vernon County","WI",4528,138.91,687176705.2,141415.7659,55123,54621,FALSE,FALSE,TRUE
"260",83645,55123960100,"Vernon County","WI",4497,138.19,683656856.7,118797.1281,55123,54621,FALSE,FALSE,TRUE
"261",83644,55121100800,"Trempealeau County","WI",3814,81.36,409061315.2,106408.0234,55121,54612,FALSE,FALSE,TRUE
"262",83643,55121100700,"Trempealeau County","WI",5480,114.05,572484860,150307.0847,55121,54612,FALSE,FALSE,TRUE
"263",83642,55121100600,"Trempealeau County","WI",4316,75,378189324.9,124788.5582,55121,54612,FALSE,FALSE,TRUE
"264",83641,55121100500,"Trempealeau County","WI",3276,106.8,539198264.2,120298.6803,55121,54612,FALSE,FALSE,TRUE
"265",83640,55121100400,"Trempealeau County","WI",4053,86.38,438168724.5,125098.3962,55121,54612,FALSE,FALSE,TRUE
"266",83639,55121100300,"Trempealeau County","WI",2490,76.75,388662677.9,103726.1615,55121,54612,FALSE,FALSE,TRUE
"267",83638,55121100200,"Trempealeau County","WI",3395,112.24,571977854.8,121340.0004,55121,54612,FALSE,FALSE,TRUE
"268",83637,55121100100,"Trempealeau County","WI",3273,89.4,455232644.7,132048.1656,55121,54612,FALSE,FALSE,TRUE
"269",83636,55119960600,"Taylor County","WI",3402,105.93,550186809.1,108129.1075,55119,54433,FALSE,TRUE,FALSE
"270",83635,55119960500,"Taylor County","WI",2702,3.67,19123238.74,20447.98784,55119,54433,FALSE,TRUE,FALSE
"271",83634,55119960400,"Taylor County","WI",4923,74.68,389071166.2,104378.4888,55119,54433,FALSE,TRUE,FALSE
"272",83633,55119960300,"Taylor County","WI",3079,260.32,1355601335,185268.8924,55119,54433,FALSE,TRUE,FALSE
"273",83632,55119960200,"Taylor County","WI",2283,317.43,1660962848,239566.3247,55119,54433,FALSE,TRUE,FALSE
"274",83631,55119960100,"Taylor County","WI",4371,222.53,1162841426,144062.8327,55119,54433,FALSE,TRUE,FALSE
"275",83880,55109120906,"St. Croix County","WI",NA,26.81,138383486,50626.49366,55109,54002,TRUE,FALSE,FALSE
"276",83879,55109120905,"St. Croix County","WI",NA,4.2,21737022.97,21671.07925,55109,54002,TRUE,FALSE,FALSE
"277",83878,55109120802,"St. Croix County","WI",NA,105,543738093.9,122804.6638,55109,54002,TRUE,FALSE,FALSE
"278",83877,55109120801,"St. Croix County","WI",NA,2.87,14839056.32,16992.63061,55109,54002,TRUE,FALSE,FALSE
"279",83876,55109120602,"St. Croix County","WI",NA,92.79,483478802.6,129974.2827,55109,54002,TRUE,FALSE,FALSE
"280",83875,55109120601,"St. Croix County","WI",NA,51.13,265481510.3,82270.01533,55109,54002,TRUE,FALSE,FALSE
"281",83874,55109120402,"St. Croix County","WI",NA,37.11,192584870.5,61758.85743,55109,54002,TRUE,FALSE,FALSE
"282",83873,55109120401,"St. Croix County","WI",NA,48.74,253717576.9,85217.139,55109,54002,TRUE,FALSE,FALSE
"283",83583,55109121000,"St. Croix County","WI",7819,69.18,358271253.9,81824.82159,55109,54002,TRUE,FALSE,FALSE
"284",83582,55109120904,"St. Croix County","WI",4457,74.95,387098524.2,100173.0488,55109,54002,TRUE,FALSE,FALSE
"285",83581,55109120901,"St. Croix County","WI",4613,12.89,66511923.21,40846.62629,55109,54002,TRUE,FALSE,FALSE
"286",83580,55109120700,"St. Croix County","WI",4705,144.87,751323869.2,143296.6698,55109,54002,TRUE,FALSE,FALSE
"287",83579,55109120502,"St. Croix County","WI",5988,14.37,74781879.7,42314.93795,55109,54002,TRUE,FALSE,FALSE
"288",83578,55109120501,"St. Croix County","WI",6075,23.03,119755690.2,49614.56582,55109,54002,TRUE,FALSE,FALSE
"289",83577,55109120300,"St. Croix County","WI",5965,8.81,45629863.97,42467.61582,55109,54002,TRUE,FALSE,FALSE
"290",83576,55109120202,"St. Croix County","WI",5451,14.36,74350083.16,38854.71703,55109,54002,TRUE,FALSE,FALSE
"291",83575,55109120201,"St. Croix County","WI",6148,2.82,14620951.39,31928.62469,55109,54002,TRUE,FALSE,FALSE
"292",83574,55109120100,"St. Croix County","WI",2067,1.26,6498427.355,15483.31917,55109,54002,TRUE,FALSE,FALSE
"293",83904,55117011302,"Sheboygan County","WI",NA,30.15,148899000.2,51407.04478,55117,53001,TRUE,FALSE,FALSE
"294",83903,55117011301,"Sheboygan County","WI",NA,14.76,72919163.82,44946.6509,55117,53001,TRUE,FALSE,FALSE
"295",83902,55117010504,"Sheboygan County","WI",NA,14.89,73949904.01,44139.34093,55117,53001,TRUE,FALSE,FALSE
"296",83901,55117010503,"Sheboygan County","WI",NA,2.53,12562035.76,19421.33051,55117,53001,TRUE,FALSE,FALSE
"297",83630,55117011400,"Sheboygan County","WI",2586,0.57,2852412.004,11416.65947,55117,53001,TRUE,FALSE,FALSE
"298",83629,55117011200,"Sheboygan County","WI",3649,36.44,179946262.1,53601.32727,55117,53001,TRUE,FALSE,FALSE
"299",83628,55117011100,"Sheboygan County","WI",3200,72.7,359529578,80631.3883,55117,53001,TRUE,FALSE,FALSE
"300",83627,55117011000,"Sheboygan County","WI",2854,36.02,178403444.7,53407.8444,55117,53001,TRUE,FALSE,FALSE
"301",83626,55117010900,"Sheboygan County","WI",3308,36.52,180870476.6,54118.01241,55117,53001,TRUE,FALSE,FALSE
"302",83625,55117010800,"Sheboygan County","WI",3627,22.81,112945136.2,45417.77174,55117,53001,TRUE,FALSE,FALSE
"303",83624,55117010700,"Sheboygan County","WI",8809,15.03,74688149.72,46039.97755,55117,53001,TRUE,FALSE,FALSE
"304",83623,55117010602,"Sheboygan County","WI",4227,33.41,165941613.3,54828.13702,55117,53001,TRUE,FALSE,FALSE
"305",83622,55117010601,"Sheboygan County","WI",5566,2.76,13714528.59,18265.63735,55117,53001,TRUE,FALSE,FALSE
"306",83621,55117010502,"Sheboygan County","WI",3710,15.62,77596768.64,40449.36113,55117,53001,TRUE,FALSE,FALSE
"307",83620,55117010400,"Sheboygan County","WI",3533,74.9,372529366.9,89227.50483,55117,53001,TRUE,FALSE,FALSE
"308",83619,55117010300,"Sheboygan County","WI",3109,35.95,179091460,53560.02422,55117,53001,TRUE,FALSE,FALSE
"309",83618,55117010200,"Sheboygan County","WI",4614,18.19,90534672.13,40394.84238,55117,53001,TRUE,FALSE,FALSE
"310",83617,55117010100,"Sheboygan County","WI",1464,39.23,195477452.8,70437.50609,55117,53001,TRUE,FALSE,FALSE
"311",83616,55117001100,"Sheboygan County","WI",3578,1.48,7316140.801,12623.9286,55117,53001,TRUE,FALSE,FALSE
"312",83615,55117001000,"Sheboygan County","WI",7360,1.89,9393420.625,13307.59915,55117,53001,TRUE,FALSE,FALSE
"313",83614,55117000900,"Sheboygan County","WI",5193,3.45,17091850.96,20213.52104,55117,53001,TRUE,FALSE,FALSE
"314",83613,55117000800,"Sheboygan County","WI",5467,1.02,5066933.637,14303.4702,55117,53001,TRUE,FALSE,FALSE
"315",83612,55117000500,"Sheboygan County","WI",3670,0.5,2465194.602,8944.033534,55117,53001,TRUE,FALSE,FALSE
"316",83611,55117000400,"Sheboygan County","WI",4465,2.59,12881160.09,14740.23345,55117,53001,TRUE,FALSE,FALSE
"317",83610,55117000300,"Sheboygan County","WI",7062,2.34,11605883.54,16544.98727,55117,53001,TRUE,FALSE,FALSE
"318",83609,55117000202,"Sheboygan County","WI",4214,0.82,4093223.094,9994.401212,55117,53001,TRUE,FALSE,FALSE
"319",83608,55117000201,"Sheboygan County","WI",2942,0.29,1423007.012,4759.680588,55117,53001,TRUE,FALSE,FALSE
"320",83607,55117000100,"Sheboygan County","WI",3822,0.77,3843489.984,10809.86214,55117,53001,TRUE,FALSE,FALSE
"321",83606,55115101100,"Shawano County","WI",3961,140.27,717813951.7,136651.3423,55115,54414,FALSE,TRUE,FALSE
"322",83605,55115101000,"Shawano County","WI",3807,70.84,363591130.1,120002.0886,55115,54414,FALSE,TRUE,FALSE
"323",83604,55115100900,"Shawano County","WI",3871,107.16,549817981.6,123219.1079,55115,54414,FALSE,TRUE,FALSE
"324",83603,55115100800,"Shawano County","WI",4752,146.62,755574921.6,166515.9829,55115,54414,FALSE,TRUE,FALSE
"325",83602,55115100700,"Shawano County","WI",3410,143.45,739221368.1,183072.9107,55115,54414,FALSE,TRUE,FALSE
"326",83601,55115100600,"Shawano County","WI",4313,158.38,816283308.3,136079.1267,55115,54414,FALSE,TRUE,FALSE
"327",83600,55115100500,"Shawano County","WI",5107,5.16,26500356.21,24304.15683,55115,54414,FALSE,TRUE,FALSE
"328",83599,55115100400,"Shawano County","WI",4429,3.67,18878985.69,30216.684,55115,54414,FALSE,TRUE,FALSE
"329",83598,55115100300,"Shawano County","WI",3600,45.26,232972291.2,92681.31239,55115,54414,FALSE,TRUE,FALSE
"330",83597,55115100200,"Shawano County","WI",1725,22.7,116862693.6,69107.34776,55115,54414,FALSE,TRUE,FALSE
"331",83596,55115100100,"Shawano County","WI",2856,65.89,339036495.6,99301.2908,55115,54414,FALSE,TRUE,FALSE
"332",83900,55113940002,"Sawyer County","WI",NA,24.67,131943959.9,84490.4083,55113,54828,FALSE,FALSE,TRUE
"333",83899,55113940001,"Sawyer County","WI",NA,127.22,679990235.1,261297.2177,55113,54828,FALSE,FALSE,TRUE
"334",83898,55113100502,"Sawyer County","WI",NA,114.99,618933231.6,122375.5494,55113,54828,FALSE,FALSE,TRUE
"335",83897,55113100501,"Sawyer County","WI",NA,245.39,1319449025,213596.0375,55113,54828,FALSE,FALSE,TRUE
"336",83595,55113100800,"Sawyer County","WI",1678,466.89,2487315611,265009.9351,55113,54828,FALSE,FALSE,TRUE
"337",83594,55113100700,"Sawyer County","WI",1711,184.26,980506561.5,203793.8495,55113,54828,FALSE,FALSE,TRUE
"338",83593,55113100400,"Sawyer County","WI",2175,155.71,829411690.9,167215.7736,55113,54828,FALSE,FALSE,TRUE
"339",83592,55113100300,"Sawyer County","WI",4853,31.1,166950868.2,77348.08556,55113,54828,FALSE,FALSE,TRUE
"340",83896,55111001005,"Sauk County","WI",NA,0.82,4046941.773,14437.91724,55111,53561,TRUE,FALSE,FALSE
"341",83895,55111001004,"Sauk County","WI",NA,2.92,14404665.26,17517.55119,55111,53561,TRUE,FALSE,FALSE
"342",83894,55111001003,"Sauk County","WI",NA,4.31,21268690.13,22542.8171,55111,53561,TRUE,FALSE,FALSE
"343",83893,55111000903,"Sauk County","WI",NA,49.99,246984434.6,84483.5982,55111,53561,TRUE,FALSE,FALSE
"344",83892,55111000902,"Sauk County","WI",NA,24.05,118759680.1,76137.49089,55111,53561,TRUE,FALSE,FALSE
"345",83891,55111000901,"Sauk County","WI",NA,64.98,320009216.8,99047.42906,55111,53561,TRUE,FALSE,FALSE
"346",83890,55111000603,"Sauk County","WI",NA,5.7,27870998.79,22440.56185,55111,53561,TRUE,FALSE,FALSE
"347",83889,55111000602,"Sauk County","WI",NA,0.67,3256236.449,7810.548758,55111,53561,TRUE,FALSE,FALSE
"348",83888,55111000601,"Sauk County","WI",NA,77.41,379496304.3,110807.6115,55111,53561,TRUE,FALSE,FALSE
"349",83887,55111000303,"Sauk County","WI",NA,16,78732484.1,45626.65904,55111,53561,TRUE,FALSE,FALSE
"350",83886,55111000302,"Sauk County","WI",NA,0.42,2070581.039,6974.301572,55111,53561,TRUE,FALSE,FALSE
"351",83885,55111000301,"Sauk County","WI",NA,3.99,19619765.03,20864.30739,55111,53561,TRUE,FALSE,FALSE
"352",83884,55111000104,"Sauk County","WI",NA,5.07,25050356.07,24846.29448,55111,53561,TRUE,FALSE,FALSE
"353",83883,55111000103,"Sauk County","WI",NA,24.58,121255644,61171.51967,55111,53561,TRUE,FALSE,FALSE
"354",83882,55111000102,"Sauk County","WI",NA,6.66,32911673.83,27894.72397,55111,53561,TRUE,FALSE,FALSE
"355",83881,55111000101,"Sauk County","WI",NA,39.98,197056986.8,72789.42373,55111,53561,TRUE,FALSE,FALSE
"356",83591,55111001100,"Sauk County","WI",4464,185.14,907065825.2,147345.844,55111,53561,TRUE,FALSE,FALSE
"357",83590,55111001002,"Sauk County","WI",2804,6.58,32425762.05,30655.5986,55111,53561,TRUE,FALSE,FALSE
"358",83589,55111000800,"Sauk County","WI",4095,96.04,468563772.1,149035.1014,55111,53561,TRUE,FALSE,FALSE
"359",83588,55111000700,"Sauk County","WI",2727,8.46,41309635.71,36064.63767,55111,53561,TRUE,FALSE,FALSE
"360",83587,55111000500,"Sauk County","WI",3552,94.77,464923770.5,113877.1724,55111,53561,TRUE,FALSE,FALSE
"361",83586,55111000402,"Sauk County","WI",3433,18.96,93272767.98,54802.88818,55111,53561,TRUE,FALSE,FALSE
"362",83585,55111000401,"Sauk County","WI",5308,7.01,34508182.68,36289.93985,55111,53561,TRUE,FALSE,FALSE
"363",83584,55111000200,"Sauk County","WI",5046,104.69,516625643.9,138340.6071,55111,53561,TRUE,FALSE,FALSE
"364",83573,55107960500,"Rusk County","WI",3816,7.12,37474662.22,32317.02691,55107,54731,FALSE,FALSE,TRUE
"365",83572,55107960400,"Rusk County","WI",2975,168.96,887083889,148969.8727,55107,54731,FALSE,FALSE,TRUE
"366",83571,55107960300,"Rusk County","WI",2264,112.04,587863612.8,142442.5365,55107,54731,FALSE,FALSE,TRUE
"367",83570,55107960200,"Rusk County","WI",2044,262.21,1382316898,190399.6988,55107,54731,FALSE,FALSE,TRUE
"368",83569,55107960100,"Rusk County","WI",3909,380.53,2007932301,224804.7044,55107,54731,FALSE,FALSE,TRUE
"369",83872,55105003102,"Rock County","WI",NA,20.82,100227080.1,58033.58163,55105,53501,TRUE,FALSE,FALSE
"370",83871,55105003101,"Rock County","WI",NA,14.56,70059130.29,36434.2599,55105,53501,TRUE,FALSE,FALSE
"371",83870,55105002902,"Rock County","WI",NA,32.81,157797654,58337.85374,55105,53501,TRUE,FALSE,FALSE
"372",83869,55105002901,"Rock County","WI",NA,38.55,185462734.6,60718.33001,55105,53501,TRUE,FALSE,FALSE
"373",83868,55105001306,"Rock County","WI",NA,1.37,6565922.215,11379.87781,55105,53501,TRUE,FALSE,FALSE
"374",83867,55105001305,"Rock County","WI",NA,1.96,9406008.109,13619.82106,55105,53501,TRUE,FALSE,FALSE
"375",83568,55105003300,"Rock County","WI",3499,45.42,216856696.2,60113.69531,55105,53501,TRUE,FALSE,FALSE
"376",83567,55105003200,"Rock County","WI",2651,100.06,480464492.4,99731.89255,55105,53501,TRUE,FALSE,FALSE
"377",83566,55105003002,"Rock County","WI",5417,57.21,275383532.2,82957.63632,55105,53501,TRUE,FALSE,FALSE
"378",83565,55105003001,"Rock County","WI",5325,4.01,19347433.19,22606.0383,55105,53501,TRUE,FALSE,FALSE
"379",83564,55105002800,"Rock County","WI",5432,111.03,532143296.1,104026.7,55105,53501,TRUE,FALSE,FALSE
"380",83563,55105002700,"Rock County","WI",2549,83.36,398046639.9,83044.07507,55105,53501,TRUE,FALSE,FALSE
"381",83562,55105002602,"Rock County","WI",3991,30.94,147692322.1,56031.86717,55105,53501,TRUE,FALSE,FALSE
"382",83561,55105002601,"Rock County","WI",5539,5.51,26338261.82,32077.61067,55105,53501,TRUE,FALSE,FALSE
"383",83560,55105002500,"Rock County","WI",2696,0.62,2967275.375,8440.757395,55105,53501,TRUE,FALSE,FALSE
"384",83559,55105002400,"Rock County","WI",3688,3.9,18624634.4,19097.06204,55105,53501,TRUE,FALSE,FALSE
"385",83558,55105002300,"Rock County","WI",1798,1.09,5222482.672,9167.333281,55105,53501,TRUE,FALSE,FALSE
"386",83557,55105002200,"Rock County","WI",2392,23.02,109890263.3,52449.9526,55105,53501,TRUE,FALSE,FALSE
"387",83556,55105002100,"Rock County","WI",3795,2.43,11614277.5,17207.57951,55105,53501,TRUE,FALSE,FALSE
"388",83555,55105002000,"Rock County","WI",3846,1.08,5136709.457,10747.52437,55105,53501,TRUE,FALSE,FALSE
"389",83554,55105001900,"Rock County","WI",2755,0.68,3231805.926,8137.714373,55105,53501,TRUE,FALSE,FALSE
"390",83553,55105001800,"Rock County","WI",4078,1.04,4948698.125,9402.660438,55105,53501,TRUE,FALSE,FALSE
"391",83552,55105001700,"Rock County","WI",5316,1.26,5990773.723,10791.27217,55105,53501,TRUE,FALSE,FALSE
"392",83551,55105001600,"Rock County","WI",5005,0.64,3065663.617,7014.065172,55105,53501,TRUE,FALSE,FALSE
"393",83550,55105001500,"Rock County","WI",2290,0.86,4083852.406,12283.30887,55105,53501,TRUE,FALSE,FALSE
"394",83549,55105001400,"Rock County","WI",6049,18.68,89387905.8,42568.80799,55105,53501,TRUE,FALSE,FALSE
"395",83548,55105001303,"Rock County","WI",5002,17.48,83978164.85,42415.69548,55105,53501,TRUE,FALSE,FALSE
"396",83547,55105001302,"Rock County","WI",6570,36.23,173507502.8,54507.82515,55105,53501,TRUE,FALSE,FALSE
"397",83546,55105001202,"Rock County","WI",6064,25.37,121860938.4,51098.64467,55105,53501,TRUE,FALSE,FALSE
"398",83545,55105001201,"Rock County","WI",5731,30.63,146710622.3,60329.30117,55105,53501,TRUE,FALSE,FALSE
"399",83544,55105001100,"Rock County","WI",5530,1.61,7693378.074,12810.4291,55105,53501,TRUE,FALSE,FALSE
"400",83543,55105001000,"Rock County","WI",3220,2.44,11684837.55,18959.51129,55105,53501,TRUE,FALSE,FALSE
"401",83542,55105000900,"Rock County","WI",2894,1.25,5984828.703,10575.67149,55105,53501,TRUE,FALSE,FALSE
"402",83541,55105000800,"Rock County","WI",3862,0.87,4195910.563,10114.18373,55105,53501,TRUE,FALSE,FALSE
"403",83540,55105000700,"Rock County","WI",3999,1.39,6678087.262,11156.15631,55105,53501,TRUE,FALSE,FALSE
"404",83539,55105000600,"Rock County","WI",3370,1.25,6015167.129,10030.35025,55105,53501,TRUE,FALSE,FALSE
"405",83538,55105000500,"Rock County","WI",4171,1.94,9318844.266,13992.75189,55105,53501,TRUE,FALSE,FALSE
"406",83537,55105000400,"Rock County","WI",3847,1.39,6668858.832,10900.71269,55105,53501,TRUE,FALSE,FALSE
"407",83536,55105000300,"Rock County","WI",2823,0.55,2640407.586,6361.588803,55105,53501,TRUE,FALSE,FALSE
"408",83535,55105000200,"Rock County","WI",2838,0.6,2862579.137,7385.128603,55105,53501,TRUE,FALSE,FALSE
"409",83534,55105000100,"Rock County","WI",855,0.25,1190399.055,5156.315588,55105,53501,TRUE,FALSE,FALSE
"410",83533,55103970500,"Richland County","WI",4126,157.89,771010144.8,169120.1364,55103,53518,TRUE,FALSE,FALSE
"411",83532,55103970400,"Richland County","WI",3394,18.71,91599949.56,55510.68301,55103,53518,TRUE,FALSE,FALSE
"412",83531,55103970300,"Richland County","WI",2397,6.1,29899786.56,29463.61908,55103,53518,TRUE,FALSE,FALSE
"413",83530,55103970200,"Richland County","WI",4833,261.1,1280763477,230451.2901,55103,53518,TRUE,FALSE,FALSE
"414",83529,55103970100,"Richland County","WI",2928,145.51,716714351.2,148985.0787,55103,53518,TRUE,FALSE,FALSE
"415",83866,55101002900,"Racine County","WI",NA,0.74,3552210.445,13416.56219,55101,53105,TRUE,FALSE,FALSE
"416",83865,55101001507,"Racine County","WI",NA,3.02,14512146.08,19139.44577,55101,53105,TRUE,FALSE,FALSE
"417",83864,55101001506,"Racine County","WI",NA,2.11,10155076.64,14863.69208,55101,53105,TRUE,FALSE,FALSE
"418",83863,55101001402,"Racine County","WI",NA,0.73,3491582.223,7992.635844,55101,53105,TRUE,FALSE,FALSE
"419",83862,55101001401,"Racine County","WI",NA,0.6,2887381.102,7040.438288,55101,53105,TRUE,FALSE,FALSE
"420",83861,55101001102,"Racine County","WI",NA,0.9,4320792.785,10134.98776,55101,53105,TRUE,FALSE,FALSE
"421",83860,55101001101,"Racine County","WI",NA,0.55,2654719.672,8561.295655,55101,53105,TRUE,FALSE,FALSE
"422",83528,55101980000,"Racine County","WI",729,0.94,4499049.305,8442.96269,55101,53105,TRUE,FALSE,FALSE
"423",83527,55101002800,"Racine County","WI",6124,32.49,156422750.4,59467.71286,55101,53105,TRUE,FALSE,FALSE
"424",83526,55101002702,"Racine County","WI",6621,21.7,104244166.5,47903.81409,55101,53105,TRUE,FALSE,FALSE
"425",83525,55101002701,"Racine County","WI",4074,2.2,10592833.88,17443.10945,55101,53105,TRUE,FALSE,FALSE
"426",83524,55101002600,"Racine County","WI",5830,28.85,138203940.7,53998.20438,55101,53105,TRUE,FALSE,FALSE
"427",83523,55101002402,"Racine County","WI",5277,3.78,18142281.75,22158.64108,55101,53105,TRUE,FALSE,FALSE
"428",83522,55101002401,"Racine County","WI",6132,6.78,32541202.44,27280.06536,55101,53105,TRUE,FALSE,FALSE
"429",83521,55101002100,"Racine County","WI",3387,35.23,169100261.9,56996.64391,55101,53105,TRUE,FALSE,FALSE
"430",83520,55101002002,"Racine County","WI",5101,30.56,147070472.9,48741.676,55101,53105,TRUE,FALSE,FALSE
"431",83519,55101002001,"Racine County","WI",2934,5.12,24664140.31,26010.0953,55101,53105,TRUE,FALSE,FALSE
"432",83518,55101001900,"Racine County","WI",4042,35.79,172295850.7,52508.29727,55101,53105,TRUE,FALSE,FALSE
"433",83517,55101001802,"Racine County","WI",2955,30.34,145670278.1,55373.2906,55101,53105,TRUE,FALSE,FALSE
"434",83516,55101001801,"Racine County","WI",5246,5.83,27965476.83,21489.10692,55101,53105,TRUE,FALSE,FALSE
"435",83515,55101001706,"Racine County","WI",3816,2.13,10238375.77,12998.83695,55101,53105,TRUE,FALSE,FALSE
"436",83514,55101001705,"Racine County","WI",5566,2.76,13240519.58,15693.30104,55101,53105,TRUE,FALSE,FALSE
"437",83513,55101001703,"Racine County","WI",4399,16.76,80461118.95,43400.65135,55101,53105,TRUE,FALSE,FALSE
"438",83512,55101001702,"Racine County","WI",6958,5.99,28720973.93,23052.54843,55101,53105,TRUE,FALSE,FALSE
"439",83511,55101001701,"Racine County","WI",3548,4.71,22618808.64,21524.1827,55101,53105,TRUE,FALSE,FALSE
"440",83510,55101001602,"Racine County","WI",3196,4.28,20578677.79,18453.57895,55101,53105,TRUE,FALSE,FALSE
"441",83509,55101001601,"Racine County","WI",6411,30.67,147661400.6,50921.45925,55101,53105,TRUE,FALSE,FALSE
"442",83508,55101001505,"Racine County","WI",4491,1.86,8933092.18,12206.94148,55101,53105,TRUE,FALSE,FALSE
"443",83507,55101001504,"Racine County","WI",2942,1.29,6218745.109,13629.48658,55101,53105,TRUE,FALSE,FALSE
"444",83506,55101001501,"Racine County","WI",3761,3.36,16203925.02,21855.26875,55101,53105,TRUE,FALSE,FALSE
"445",83505,55101001302,"Racine County","WI",3933,0.59,2830296.695,8871.72614,55101,53105,TRUE,FALSE,FALSE
"446",83504,55101001301,"Racine County","WI",3627,0.42,2041832.723,5936.382125,55101,53105,TRUE,FALSE,FALSE
"447",83503,55101001202,"Racine County","WI",6491,2.03,9731959.492,19488.33905,55101,53105,TRUE,FALSE,FALSE
"448",83502,55101001201,"Racine County","WI",3657,2.36,11342126.93,16061.16169,55101,53105,TRUE,FALSE,FALSE
"449",83501,55101001003,"Racine County","WI",3762,0.4,1932469.531,5714.462307,55101,53105,TRUE,FALSE,FALSE
"450",83500,55101001002,"Racine County","WI",2615,0.43,2083081.973,5999.780542,55101,53105,TRUE,FALSE,FALSE
"451",83499,55101001001,"Racine County","WI",2854,0.57,2716188.012,7142.966779,55101,53105,TRUE,FALSE,FALSE
"452",83498,55101000904,"Racine County","WI",5434,2.24,10735869.07,14188.97401,55101,53105,TRUE,FALSE,FALSE
"453",83497,55101000903,"Racine County","WI",4049,1.81,8689406.23,12558.51225,55101,53105,TRUE,FALSE,FALSE
"454",83496,55101000901,"Racine County","WI",3755,1.34,6422754.852,11400.85914,55101,53105,TRUE,FALSE,FALSE
"455",83495,55101000800,"Racine County","WI",4438,2.27,10886093.03,17534.6405,55101,53105,TRUE,FALSE,FALSE
"456",83494,55101000700,"Racine County","WI",5730,0.91,4390230.34,9094.73607,55101,53105,TRUE,FALSE,FALSE
"457",83493,55101000600,"Racine County","WI",5485,0.91,4367065.121,12146.43533,55101,53105,TRUE,FALSE,FALSE
"458",83492,55101000500,"Racine County","WI",5300,0.7,3357788.082,18585.44088,55101,53105,TRUE,FALSE,FALSE
"459",83491,55101000400,"Racine County","WI",3875,0.68,3265935.676,9795.194668,55101,53105,TRUE,FALSE,FALSE
"460",83490,55101000200,"Racine County","WI",6016,0.63,3027068.949,8856.147472,55101,53105,TRUE,FALSE,FALSE
"461",83489,55099970700,"Price County","WI",2484,257.47,1356358005,181600.5401,55099,54459,FALSE,TRUE,FALSE
"462",83488,55099970600,"Price County","WI",2223,291.5,1538805247,232704.8889,55099,54459,FALSE,TRUE,FALSE
"463",83487,55099970500,"Price County","WI",2015,75.63,401627757.4,130178.6042,55099,54459,FALSE,TRUE,FALSE
"464",83486,55099970400,"Price County","WI",1760,200.55,1064987670,177292.1894,55099,54459,FALSE,TRUE,FALSE
"465",83485,55099970200,"Price County","WI",2583,17.94,96080207.63,59420.44318,55099,54459,FALSE,TRUE,FALSE
"466",83484,55099970100,"Price County","WI",2570,434.95,2322481799,333625.7081,55099,54459,FALSE,TRUE,FALSE
"467",83859,55097961102,"Portage County","WI",NA,4.53,23073342.05,23711.71374,55097,54406,FALSE,TRUE,FALSE
"468",83858,55097961101,"Portage County","WI",NA,35.28,179548475.2,69656.45128,55097,54406,FALSE,TRUE,FALSE
"469",83483,55097961300,"Portage County","WI",5143,175.37,887787020,125206.6523,55097,54406,FALSE,TRUE,FALSE
"470",83482,55097961200,"Portage County","WI",6381,141.83,718478317.2,108893.816,55097,54406,FALSE,TRUE,FALSE
"471",83481,55097961000,"Portage County","WI",2755,0.55,2786582.527,9238.827258,55097,54406,FALSE,TRUE,FALSE
"472",83480,55097960900,"Portage County","WI",3394,0.74,3760173.875,9258.121638,55097,54406,FALSE,TRUE,FALSE
"473",83479,55097960800,"Portage County","WI",5434,2.85,14523253.98,18771.31746,55097,54406,FALSE,TRUE,FALSE
"474",83478,55097960702,"Portage County","WI",3567,6.17,31400267.83,26195.1113,55097,54406,FALSE,TRUE,FALSE
"475",83477,55097960701,"Portage County","WI",5644,9.35,47531748.45,28675.77206,55097,54406,FALSE,TRUE,FALSE
"476",83476,55097960600,"Portage County","WI",5491,87.48,444856070.1,94180.65796,55097,54406,FALSE,TRUE,FALSE
"477",83475,55097960500,"Portage County","WI",7277,27.88,142222646.8,82744.83201,55097,54406,FALSE,TRUE,FALSE
"478",83474,55097960400,"Portage County","WI",6984,2.51,12802742.64,14350.99477,55097,54406,FALSE,TRUE,FALSE
"479",83473,55097960300,"Portage County","WI",3956,3.23,16481780.28,18866.10426,55097,54406,FALSE,TRUE,FALSE
"480",83472,55097960200,"Portage County","WI",4672,178.15,910479843.1,158504.5131,55097,54406,FALSE,TRUE,FALSE
"481",83471,55097960100,"Portage County","WI",4614,146.9,750498388.7,112837.6597,55097,54406,FALSE,TRUE,FALSE
"482",83857,55095960902,"Polk County","WI",NA,53.79,281084533.8,97902.58718,55095,54001,TRUE,FALSE,FALSE
"483",83470,55095961100,"Polk County","WI",3944,86.62,453430309.2,94346.62362,55095,54001,TRUE,FALSE,FALSE
"484",83469,55095961000,"Polk County","WI",4890,37.95,198404365.4,74726.97286,55095,54001,TRUE,FALSE,FALSE
"485",83468,55095960901,"Polk County","WI",NA,54.1,283536676.6,97522.56541,55095,54001,TRUE,FALSE,FALSE
"486",83467,55095960702,"Polk County","WI",NA,21.91,114990793.3,67316.57177,55095,54001,TRUE,FALSE,FALSE
"487",83466,55095960701,"Polk County","WI",NA,29.73,156363939.6,59589.43897,55095,54001,TRUE,FALSE,FALSE
"488",83465,55095960303,"Polk County","WI",NA,68.46,360962556.1,98465.35877,55095,54001,TRUE,FALSE,FALSE
"489",83464,55095960302,"Polk County","WI",NA,39.74,209627080.1,74862.70273,55095,54001,TRUE,FALSE,FALSE
"490",83463,55095960301,"Polk County","WI",NA,59.24,312462240.9,95563.25174,55095,54001,TRUE,FALSE,FALSE
"491",83416,55095960800,"Polk County","WI",6869,70.51,368844591,96229.56201,55095,54001,TRUE,FALSE,FALSE
"492",83415,55095960600,"Polk County","WI",2287,33.69,177253753.5,71685.33828,55095,54001,TRUE,FALSE,FALSE
"493",83414,55095960500,"Polk County","WI",2913,88.39,464324926.3,138212.0534,55095,54001,TRUE,FALSE,FALSE
"494",83413,55095960200,"Polk County","WI",3751,135.51,716887064.1,158475.6447,55095,54001,TRUE,FALSE,FALSE
"495",83412,55095960100,"Polk County","WI",3873,176.76,936712029,153812.027,55095,54001,TRUE,FALSE,FALSE
"496",83411,55093960800,"Pierce County","WI",3830,179.05,916235348,168858.2876,55093,54003,TRUE,FALSE,FALSE
"497",83410,55093960700,"Pierce County","WI",5042,44.74,229659065.7,80686.29749,55093,54003,TRUE,FALSE,FALSE
"498",83409,55093960600,"Pierce County","WI",5122,115.57,591567685,158535.8548,55093,54003,TRUE,FALSE,FALSE
"499",83408,55093960500,"Pierce County","WI",8535,59.66,306833025.5,91661.78981,55093,54003,TRUE,FALSE,FALSE
"500",83407,55093960400,"Pierce County","WI",5817,3.31,17070997.84,27304.86098,55093,54003,TRUE,FALSE,FALSE
"501",83406,55093960300,"Pierce County","WI",5835,2.87,14794468.64,21383.95117,55093,54003,TRUE,FALSE,FALSE
"502",83405,55093960200,"Pierce County","WI",6460,122.09,628288655.2,124869.6157,55093,54003,TRUE,FALSE,FALSE
"503",83404,55093960100,"Pierce County","WI",2918,65.43,336324126.4,76998.21397,55093,54003,TRUE,FALSE,FALSE
"504",83403,55091950200,"Pepin County","WI",3529,155.58,793549440.8,160034.2435,55091,54721,FALSE,FALSE,TRUE
"505",83402,55091950100,"Pepin County","WI",3970,93.12,476380764.8,102193.2689,55091,54721,FALSE,FALSE,TRUE
"506",83462,55089650104,"Ozaukee County","WI",NA,2.14,10485878.93,13252.86924,55089,53004,TRUE,FALSE,FALSE
"507",83461,55089650103,"Ozaukee County","WI",NA,0.89,4353414.859,9501.033006,55089,53004,TRUE,FALSE,FALSE
"508",83460,55089640202,"Ozaukee County","WI",NA,10.9,53358984.67,41077.65712,55089,53004,TRUE,FALSE,FALSE
"509",83459,55089640201,"Ozaukee County","WI",NA,10.72,52485963.17,35667.74836,55089,53004,TRUE,FALSE,FALSE
"510",83458,55089640102,"Ozaukee County","WI",NA,1.92,9409159.844,12666.99232,55089,53004,TRUE,FALSE,FALSE
"511",83457,55089640101,"Ozaukee County","WI",NA,0.93,4536891.145,9437.140218,55089,53004,TRUE,FALSE,FALSE
"512",83401,55089660304,"Ozaukee County","WI",3171,2.51,12219313.68,15026.56873,55089,53004,TRUE,FALSE,FALSE
"513",83400,55089660303,"Ozaukee County","WI",5114,5.19,25316491.94,20669.06864,55089,53004,TRUE,FALSE,FALSE
"514",83399,55089660301,"Ozaukee County","WI",5693,6.3,30732078.05,26691.36918,55089,53004,TRUE,FALSE,FALSE
"515",83398,55089660202,"Ozaukee County","WI",6606,14.99,73194820.77,54946.25711,55089,53004,TRUE,FALSE,FALSE
"516",83397,55089660201,"Ozaukee County","WI",4189,18.07,88213726.66,39696.08586,55089,53004,TRUE,FALSE,FALSE
"517",83396,55089660100,"Ozaukee County","WI",3353,1.07,5247017.613,10732.90058,55089,53004,TRUE,FALSE,FALSE
"518",83395,55089650300,"Ozaukee County","WI",6195,23.38,114469272.4,49070.66665,55089,53004,TRUE,FALSE,FALSE
"519",83394,55089650200,"Ozaukee County","WI",5147,2.15,10513176.36,15137.71781,55089,53004,TRUE,FALSE,FALSE
"520",83393,55089650102,"Ozaukee County","WI",2654,0.96,4682660.5,10732.97445,55089,53004,TRUE,FALSE,FALSE
"521",83392,55089630202,"Ozaukee County","WI",5709,5.05,24790789.71,21554.20102,55089,53004,TRUE,FALSE,FALSE
"522",83391,55089630201,"Ozaukee County","WI",4867,16.54,81276217.51,42073.34872,55089,53004,TRUE,FALSE,FALSE
"523",83390,55089630100,"Ozaukee County","WI",2726,0.93,4579376.223,14660.44241,55089,53004,TRUE,FALSE,FALSE
"524",83389,55089620100,"Ozaukee County","WI",6131,36.43,178886191.9,53549.13071,55089,53004,TRUE,FALSE,FALSE
"525",83388,55089610102,"Ozaukee County","WI",3893,37.72,185759737.8,54686.1845,55089,53004,TRUE,FALSE,FALSE
"526",83387,55089610101,"Ozaukee County","WI",4439,36.49,179658819.6,53619.45999,55089,53004,TRUE,FALSE,FALSE
"527",83456,55087012904,"Outagamie County","WI",NA,24.48,124064705,54203.22622,55087,54911,FALSE,TRUE,FALSE
"528",83455,55087012903,"Outagamie County","WI",NA,11.4,57817023.91,30104.94857,55087,54911,FALSE,TRUE,FALSE
"529",83454,55087012604,"Outagamie County","WI",NA,10.89,55037518.73,31922.45397,55087,54911,FALSE,TRUE,FALSE
"530",83453,55087012603,"Outagamie County","WI",NA,8.39,42437432.07,31469.33432,55087,54911,FALSE,TRUE,FALSE
"531",83452,55087012102,"Outagamie County","WI",NA,1.11,5583102.652,11134.47278,55087,54911,FALSE,TRUE,FALSE
"532",83451,55087012101,"Outagamie County","WI",NA,3.52,17752261.61,21250.65226,55087,54911,FALSE,TRUE,FALSE
"533",83450,55087011902,"Outagamie County","WI",NA,2.05,10354047.3,14370.16709,55087,54911,FALSE,TRUE,FALSE
"534",83449,55087011901,"Outagamie County","WI",NA,0.86,4364520.273,8592.229076,55087,54911,FALSE,TRUE,FALSE
"535",83448,55087011104,"Outagamie County","WI",NA,2.45,12403861.45,14763.93364,55087,54911,FALSE,TRUE,FALSE
"536",83447,55087011103,"Outagamie County","WI",NA,1.31,6601635.766,11743.21948,55087,54911,FALSE,TRUE,FALSE
"537",83446,55087011002,"Outagamie County","WI",NA,0.92,4633184.574,14106.37165,55087,54911,FALSE,TRUE,FALSE
"538",83445,55087011001,"Outagamie County","WI",NA,1.34,6759933.254,11039.29327,55087,54911,FALSE,TRUE,FALSE
"539",83444,55087010502,"Outagamie County","WI",NA,0.3,1520277.711,7462.983669,55087,54911,FALSE,TRUE,FALSE
"540",83443,55087010501,"Outagamie County","WI",NA,0.68,3450306.738,8222.827904,55087,54911,FALSE,TRUE,FALSE
"541",83386,55087940000,"Outagamie County","WI",4747,60.81,309375300.3,79926.66202,55087,54911,FALSE,TRUE,FALSE
"542",83385,55087013300,"Outagamie County","WI",8547,40.81,206505233.2,95510.74855,55087,54911,FALSE,TRUE,FALSE
"543",83384,55087013200,"Outagamie County","WI",3990,132.25,674117574.8,136941.8973,55087,54911,FALSE,TRUE,FALSE
"544",83383,55087013100,"Outagamie County","WI",5955,50,254747259.4,88973.20587,55087,54911,FALSE,TRUE,FALSE
"545",83382,55087012902,"Outagamie County","WI",3702,35.63,180652188.1,53782.48933,55087,54911,FALSE,TRUE,FALSE
"546",83381,55087012800,"Outagamie County","WI",7944,106.52,541124856.3,108155.2516,55087,54911,FALSE,TRUE,FALSE
"547",83380,55087012700,"Outagamie County","WI",6823,55.11,279549071.3,86326.19635,55087,54911,FALSE,TRUE,FALSE
"548",83379,55087012602,"Outagamie County","WI",5139,46.93,237168446.3,65726.49099,55087,54911,FALSE,TRUE,FALSE
"549",83378,55087012506,"Outagamie County","WI",4261,4.46,22505828.8,20229.19964,55087,54911,FALSE,TRUE,FALSE
"550",83377,55087012505,"Outagamie County","WI",4555,9.82,49683458.23,30565.48765,55087,54911,FALSE,TRUE,FALSE
"551",83376,55087012504,"Outagamie County","WI",3719,4.38,22137363.17,18881.70373,55087,54911,FALSE,TRUE,FALSE
"552",83375,55087012503,"Outagamie County","WI",4062,2.06,10404332.69,13899.74478,55087,54911,FALSE,TRUE,FALSE
"553",83374,55087012400,"Outagamie County","WI",2939,1.77,8950250.059,17678.78903,55087,54911,FALSE,TRUE,FALSE
"554",83373,55087012300,"Outagamie County","WI",1574,0.79,3991438.09,11045.29061,55087,54911,FALSE,TRUE,FALSE
"555",83372,55087012200,"Outagamie County","WI",2002,0.52,2652543.34,8145.475667,55087,54911,FALSE,TRUE,FALSE
"556",83371,55087012000,"Outagamie County","WI",6993,3.33,16796588.33,18542.00323,55087,54911,FALSE,TRUE,FALSE
"557",83370,55087011800,"Outagamie County","WI",1810,0.59,2963813.141,8833.124314,55087,54911,FALSE,TRUE,FALSE
"558",83369,55087011700,"Outagamie County","WI",2626,0.69,3468421.914,7637.86519,55087,54911,FALSE,TRUE,FALSE
"559",83368,55087011600,"Outagamie County","WI",7273,3,15155405.21,18561.18341,55087,54911,FALSE,TRUE,FALSE
"560",83367,55087011502,"Outagamie County","WI",4605,4.49,22698201.8,24377.36824,55087,54911,FALSE,TRUE,FALSE
"561",83366,55087011501,"Outagamie County","WI",3355,0.7,3548000.676,8513.409145,55087,54911,FALSE,TRUE,FALSE
"562",83365,55087011400,"Outagamie County","WI",5344,1.25,6296238.789,10217.5494,55087,54911,FALSE,TRUE,FALSE
"563",83364,55087011300,"Outagamie County","WI",3067,0.52,2613943.602,6866.911731,55087,54911,FALSE,TRUE,FALSE
"564",83363,55087011200,"Outagamie County","WI",3087,0.52,2616478.504,6869.914364,55087,54911,FALSE,TRUE,FALSE
"565",83362,55087011101,"Outagamie County","WI",5068,1.29,6497907.219,10325.06587,55087,54911,FALSE,TRUE,FALSE
"566",83361,55087010900,"Outagamie County","WI",2109,0.75,3763774.781,9864.296539,55087,54911,FALSE,TRUE,FALSE
"567",83360,55087010800,"Outagamie County","WI",1630,0.59,2993496.918,8035.154454,55087,54911,FALSE,TRUE,FALSE
"568",83359,55087010700,"Outagamie County","WI",4831,1.45,7334118.117,12562.27231,55087,54911,FALSE,TRUE,FALSE
"569",83358,55087010602,"Outagamie County","WI",4213,1.04,5263460.77,9862.2199,55087,54911,FALSE,TRUE,FALSE
"570",83357,55087010601,"Outagamie County","WI",3944,1.27,6396253.359,11772.35142,55087,54911,FALSE,TRUE,FALSE
"571",83356,55087010300,"Outagamie County","WI",2491,0.28,1420649.578,4710.664218,55087,54911,FALSE,TRUE,FALSE
"572",83355,55087010200,"Outagamie County","WI",4143,0.77,3902424.824,8028.307959,55087,54911,FALSE,TRUE,FALSE
"573",83354,55087010100,"Outagamie County","WI",2670,0.55,2791879.496,9336.777596,55087,54911,FALSE,TRUE,FALSE
"574",83442,55085970604,"Oneida County","WI",NA,121.6,648296266.5,129563.5021,55085,54463,FALSE,TRUE,FALSE
"575",83441,55085970603,"Oneida County","WI",NA,36.12,191816813.7,82242.58287,55085,54463,FALSE,TRUE,FALSE
"576",83440,55085970104,"Oneida County","WI",NA,199.04,1056805702,167346.6599,55085,54463,FALSE,TRUE,FALSE
"577",83439,55085970103,"Oneida County","WI",NA,145.89,769746143.2,142872.4602,55085,54463,FALSE,TRUE,FALSE
"578",83353,55085971500,"Oneida County","WI",4312,7.41,39268010.92,43132.9631,55085,54463,FALSE,TRUE,FALSE
"579",83352,55085971400,"Oneida County","WI",3605,3.79,20071901.12,30729.6306,55085,54463,FALSE,TRUE,FALSE
"580",83351,55085971300,"Oneida County","WI",1889,15.75,84095227.54,61808.67356,55085,54463,FALSE,TRUE,FALSE
"581",83350,55085971100,"Oneida County","WI",2032,68.44,362020608.7,90162.98633,55085,54463,FALSE,TRUE,FALSE
"582",83349,55085971002,"Oneida County","WI",2561,143.96,767583040.2,149181.994,55085,54463,FALSE,TRUE,FALSE
"583",83348,55085971001,"Oneida County","WI",1245,205.2,1087673051,195898.1174,55085,54463,FALSE,TRUE,FALSE
"584",83347,55085970900,"Oneida County","WI",2382,84.25,448392760.1,145061.6783,55085,54463,FALSE,TRUE,FALSE
"585",83346,55085970800,"Oneida County","WI",2513,39.53,211075830.9,80160.48101,55085,54463,FALSE,TRUE,FALSE
"586",83345,55085970601,"Oneida County","WI",1911,28.08,148981327.9,63965.77038,55085,54463,FALSE,TRUE,FALSE
"587",83344,55085970500,"Oneida County","WI",1752,33.31,176260232.4,63887.40507,55085,54463,FALSE,TRUE,FALSE
"588",83343,55085970400,"Oneida County","WI",2990,36.88,195142364.8,103047.5606,55085,54463,FALSE,TRUE,FALSE
"589",83342,55085970101,"Oneida County","WI",1453,67.33,358949557.9,84089.23397,55085,54463,FALSE,TRUE,FALSE
"590",83438,55083101302,"Oconto County","WI",NA,81.82,420395793.1,129999.4062,55083,54101,TRUE,FALSE,FALSE
"591",83437,55083101301,"Oconto County","WI",NA,28.09,143984442.2,56815.83581,55083,54101,TRUE,FALSE,FALSE
"592",83341,55083101200,"Oconto County","WI",3998,35,180639679.3,57731.98057,55083,54101,TRUE,FALSE,FALSE
"593",83340,55083101100,"Oconto County","WI",4721,98.73,508403404.7,138735.3614,55083,54101,TRUE,FALSE,FALSE
"594",83339,55083101000,"Oconto County","WI",3945,46.79,241410405.8,89926.51912,55083,54101,TRUE,FALSE,FALSE
"595",83338,55083100900,"Oconto County","WI",2938,47.45,245422417.4,96196.74979,55083,54101,TRUE,FALSE,FALSE
"596",83337,55083100800,"Oconto County","WI",2478,82.14,425253083.6,109370.2383,55083,54101,TRUE,FALSE,FALSE
"597",83336,55083100700,"Oconto County","WI",2981,65.2,336954834.9,94281.52815,55083,54101,TRUE,FALSE,FALSE
"598",83335,55083100600,"Oconto County","WI",2888,111.72,578432034.8,132694.5387,55083,54101,TRUE,FALSE,FALSE
"599",83334,55083100500,"Oconto County","WI",2249,177.29,922446623,198185.8275,55083,54101,TRUE,FALSE,FALSE
"600",83333,55083100300,"Oconto County","WI",2749,242.09,1266098393,168429.4263,55083,54101,TRUE,FALSE,FALSE
"601",83332,55081950900,"Monroe County","WI",5682,150.47,748753994.1,119489.0086,55081,54619,FALSE,FALSE,TRUE
"602",83331,55081950800,"Monroe County","WI",4504,159.76,795282369.2,145187.8125,55081,54619,FALSE,FALSE,TRUE
"603",83330,55081950700,"Monroe County","WI",4712,151.99,757907302.4,130027.9993,55081,54619,FALSE,FALSE,TRUE
"604",83329,55081950600,"Monroe County","WI",4353,6.32,31624467.41,26013.61764,55081,54619,FALSE,FALSE,TRUE
"605",83328,55081950500,"Monroe County","WI",6342,11.2,56055128.51,33414.59451,55081,54619,FALSE,FALSE,TRUE
"606",83327,55081950400,"Monroe County","WI",4742,5.3,26486429.81,32025.79753,55081,54619,FALSE,FALSE,TRUE
"607",83326,55081950300,"Monroe County","WI",6578,11.65,58232207.43,39442.89662,55081,54619,FALSE,FALSE,TRUE
"608",83325,55081950200,"Monroe County","WI",5162,264.75,1327527786,198721.9282,55081,54619,FALSE,FALSE,TRUE
"609",83324,55081950100,"Monroe County","WI",4814,146.64,736255652.4,120021.9414,55081,54619,FALSE,FALSE,TRUE
"610",83436,55079160302,"Milwaukee County","WI",NA,5.2,25083082.77,22919.8831,55079,53110,TRUE,FALSE,FALSE
"611",83435,55079160301,"Milwaukee County","WI",NA,6.8,32773606.35,28622.10974,55079,53110,TRUE,FALSE,FALSE
"612",83434,55079160206,"Milwaukee County","WI",NA,0.73,3510856.66,7597.81163,55079,53110,TRUE,FALSE,FALSE
"613",83433,55079160205,"Milwaukee County","WI",NA,1.24,6005568.801,9852.970839,55079,53110,TRUE,FALSE,FALSE
"614",83432,55079160102,"Milwaukee County","WI",NA,4.65,22442489.34,25033.3123,55079,53110,TRUE,FALSE,FALSE
"615",83431,55079160101,"Milwaukee County","WI",NA,1.9,9200255.121,15246.57901,55079,53110,TRUE,FALSE,FALSE
"616",83430,55079050104,"Milwaukee County","WI",NA,1.18,5726796.867,12444.77985,55079,53110,TRUE,FALSE,FALSE
"617",83429,55079050103,"Milwaukee County","WI",NA,1.33,6476891.125,12565.0445,55079,53110,TRUE,FALSE,FALSE
"618",83323,55079980000,"Milwaukee County","WI",0,0.8,3891948.176,29699.9264,55079,53110,TRUE,FALSE,FALSE
"619",83322,55079187400,"Milwaukee County","WI",3254,0.61,2957724.91,11624.19228,55079,53110,TRUE,FALSE,FALSE
"620",83321,55079187300,"Milwaukee County","WI",6507,3.01,14538159.97,15407.37855,55079,53110,TRUE,FALSE,FALSE
"621",83320,55079187200,"Milwaukee County","WI",5385,15.02,72435565.9,44036.04782,55079,53110,TRUE,FALSE,FALSE
"622",83319,55079187000,"Milwaukee County","WI",3558,0.14,673183.2578,6406.785098,55079,53110,TRUE,FALSE,FALSE
"623",83318,55079186900,"Milwaukee County","WI",2168,0.17,814919.1484,7793.998453,55079,53110,TRUE,FALSE,FALSE
"624",83317,55079186800,"Milwaukee County","WI",1739,2.2,10663733.48,19250.94996,55079,53110,TRUE,FALSE,FALSE
"625",83316,55079186600,"Milwaukee County","WI",2797,0.38,1861686.473,7568.134322,55079,53110,TRUE,FALSE,FALSE
"626",83315,55079186500,"Milwaukee County","WI",1993,0.47,2283987.145,6661.874961,55079,53110,TRUE,FALSE,FALSE
"627",83314,55079186400,"Milwaukee County","WI",1559,0.29,1428344.613,7628.518801,55079,53110,TRUE,FALSE,FALSE
"628",83313,55079186300,"Milwaukee County","WI",4144,0.46,2233596.785,6887.145317,55079,53110,TRUE,FALSE,FALSE
"629",83312,55079186200,"Milwaukee County","WI",1362,0.21,995343.2617,4061.8555,55079,53110,TRUE,FALSE,FALSE
"630",83311,55079186100,"Milwaukee County","WI",2175,0.19,945390.5469,3997.435447,55079,53110,TRUE,FALSE,FALSE
"631",83310,55079186000,"Milwaukee County","WI",1593,0.22,1091457.68,4596.195672,55079,53110,TRUE,FALSE,FALSE
"632",83309,55079185900,"Milwaukee County","WI",1165,0.19,903993.4414,4168.767286,55079,53110,TRUE,FALSE,FALSE
"633",83308,55079185800,"Milwaukee County","WI",1589,0.17,822900.2656,3811.822944,55079,53110,TRUE,FALSE,FALSE
"634",83307,55079185700,"Milwaukee County","WI",2100,0.26,1254429.77,4482.210799,55079,53110,TRUE,FALSE,FALSE
"635",83306,55079185600,"Milwaukee County","WI",1766,0.26,1267125.82,4426.974561,55079,53110,TRUE,FALSE,FALSE
"636",83305,55079185500,"Milwaukee County","WI",1625,0.34,1656420.457,5623.573165,55079,53110,TRUE,FALSE,FALSE
"637",83304,55079185400,"Milwaukee County","WI",1545,0.28,1336297.191,4719.935175,55079,53110,TRUE,FALSE,FALSE
"638",83303,55079185300,"Milwaukee County","WI",4595,2.82,13685172.16,17235.35331,55079,53110,TRUE,FALSE,FALSE
"639",83302,55079185200,"Milwaukee County","WI",4985,1.16,5628283.949,12885.42637,55079,53110,TRUE,FALSE,FALSE
"640",83301,55079185100,"Milwaukee County","WI",4217,1.4,6798907.551,12079.31031,55079,53110,TRUE,FALSE,FALSE
"641",83300,55079180500,"Milwaukee County","WI",4526,1.21,5827907.723,9698.983247,55079,53110,TRUE,FALSE,FALSE
"642",83299,55079180400,"Milwaukee County","WI",2640,0.64,3113937.238,7315.253298,55079,53110,TRUE,FALSE,FALSE
"643",83298,55079180300,"Milwaukee County","WI",3291,1.48,7162780.957,14262.38047,55079,53110,TRUE,FALSE,FALSE
"644",83297,55079180200,"Milwaukee County","WI",4602,0.44,2122730.984,6054.844789,55079,53110,TRUE,FALSE,FALSE
"645",83296,55079180100,"Milwaukee County","WI",3047,1,4860836.539,16136.37977,55079,53110,TRUE,FALSE,FALSE
"646",83295,55079170700,"Milwaukee County","WI",2725,0.54,2604837.965,10076.20059,55079,53110,TRUE,FALSE,FALSE
"647",83294,55079170600,"Milwaukee County","WI",3237,0.57,2771040.082,7998.007783,55079,53110,TRUE,FALSE,FALSE
"648",83293,55079170500,"Milwaukee County","WI",2282,0.34,1646378.906,6270.849717,55079,53110,TRUE,FALSE,FALSE
"649",83292,55079170400,"Milwaukee County","WI",3324,0.6,2910454.051,6985.106527,55079,53110,TRUE,FALSE,FALSE
"650",83291,55079170300,"Milwaukee County","WI",2613,0.5,2392635.625,6248.149688,55079,53110,TRUE,FALSE,FALSE
"651",83290,55079170200,"Milwaukee County","WI",3755,0.89,4287948.25,8337.248296,55079,53110,TRUE,FALSE,FALSE
"652",83289,55079170100,"Milwaukee County","WI",2673,1.4,6748883.637,11613.32953,55079,53110,TRUE,FALSE,FALSE
"653",83288,55079160203,"Milwaukee County","WI",6451,3.5,16882473.78,19684.459,55079,53110,TRUE,FALSE,FALSE
"654",83287,55079160202,"Milwaukee County","WI",7549,4.43,21384592.06,22313.62185,55079,53110,TRUE,FALSE,FALSE
"655",83286,55079150304,"Milwaukee County","WI",4318,2.73,13196241.14,18372.69566,55079,53110,TRUE,FALSE,FALSE
"656",83285,55079150303,"Milwaukee County","WI",4950,2.57,12396410.59,14823.52192,55079,53110,TRUE,FALSE,FALSE
"657",83284,55079150301,"Milwaukee County","WI",5887,6.18,29832806.47,26520.69354,55079,53110,TRUE,FALSE,FALSE
"658",83283,55079150100,"Milwaukee County","WI",9269,5.17,24987591.91,21884.21292,55079,53110,TRUE,FALSE,FALSE
"659",83282,55079140202,"Milwaukee County","WI",5677,1.59,7707756.625,13988.52104,55079,53110,TRUE,FALSE,FALSE
"660",83281,55079140201,"Milwaukee County","WI",5353,1.8,8693778.414,13323.80143,55079,53110,TRUE,FALSE,FALSE
"661",83280,55079140100,"Milwaukee County","WI",3156,2.18,10547593.43,16831.25873,55079,53110,TRUE,FALSE,FALSE
"662",83279,55079130200,"Milwaukee County","WI",2949,1.08,5202503.176,9135.420823,55079,53110,TRUE,FALSE,FALSE
"663",83278,55079130100,"Milwaukee County","WI",4762,2.12,10259692.46,17349.66973,55079,53110,TRUE,FALSE,FALSE
"664",83277,55079120502,"Milwaukee County","WI",5275,1.57,7584347.355,14178.33287,55079,53110,TRUE,FALSE,FALSE
"665",83276,55079120501,"Milwaukee County","WI",3984,1.01,4865463.297,16231.85785,55079,53110,TRUE,FALSE,FALSE
"666",83275,55079120400,"Milwaukee County","WI",6980,1.85,8958368.719,17216.73335,55079,53110,TRUE,FALSE,FALSE
"667",83274,55079120300,"Milwaukee County","WI",1997,0.34,1656813.309,9646.611532,55079,53110,TRUE,FALSE,FALSE
"668",83273,55079120203,"Milwaukee County","WI",3910,1.25,6043219.121,14983.21911,55079,53110,TRUE,FALSE,FALSE
"669",83272,55079120202,"Milwaukee County","WI",3155,0.69,3340922.418,9124.766775,55079,53110,TRUE,FALSE,FALSE
"670",83271,55079120201,"Milwaukee County","WI",3520,0.72,3474503.609,8046.14242,55079,53110,TRUE,FALSE,FALSE
"671",83270,55079120102,"Milwaukee County","WI",3872,2.02,9759372.121,15730.911,55079,53110,TRUE,FALSE,FALSE
"672",83269,55079120101,"Milwaukee County","WI",4540,2.07,10022946.64,14541.9061,55079,53110,TRUE,FALSE,FALSE
"673",83268,55079110100,"Milwaukee County","WI",4270,1.12,5421451.949,13644.12343,55079,53110,TRUE,FALSE,FALSE
"674",83267,55079101800,"Milwaukee County","WI",2612,0.59,2867809.25,7047.987455,55079,53110,TRUE,FALSE,FALSE
"675",83266,55079101700,"Milwaukee County","WI",3253,0.36,1744622.859,6420.308994,55079,53110,TRUE,FALSE,FALSE
"676",83265,55079101600,"Milwaukee County","WI",4459,0.56,2721523.449,7931.879996,55079,53110,TRUE,FALSE,FALSE
"677",83264,55079101500,"Milwaukee County","WI",4463,0.41,1966999.418,6386.357411,55079,53110,TRUE,FALSE,FALSE
"678",83263,55079101400,"Milwaukee County","WI",3596,0.52,2518333.102,6760.226894,55079,53110,TRUE,FALSE,FALSE
"679",83262,55079101300,"Milwaukee County","WI",3054,0.52,2536145.176,6806.938668,55079,53110,TRUE,FALSE,FALSE
"680",83261,55079101200,"Milwaukee County","WI",3084,0.52,2511296.215,6796.62185,55079,53110,TRUE,FALSE,FALSE
"681",83260,55079101100,"Milwaukee County","WI",1766,0.52,2520469.281,7469.963957,55079,53110,TRUE,FALSE,FALSE
"682",83259,55079101000,"Milwaukee County","WI",4961,1.61,7791069.566,11319.52117,55079,53110,TRUE,FALSE,FALSE
"683",83258,55079100900,"Milwaukee County","WI",3638,1.47,7122078.082,10925.27075,55079,53110,TRUE,FALSE,FALSE
"684",83257,55079100800,"Milwaukee County","WI",2918,1.02,4927327.629,8898.946656,55079,53110,TRUE,FALSE,FALSE
"685",83256,55079100700,"Milwaukee County","WI",2745,0.65,3164849.426,8514.403681,55079,53110,TRUE,FALSE,FALSE
"686",83255,55079100600,"Milwaukee County","WI",2025,0.27,1297133.441,4824.256534,55079,53110,TRUE,FALSE,FALSE
"687",83254,55079100500,"Milwaukee County","WI",3495,0.44,2109939.113,6277.423229,55079,53110,TRUE,FALSE,FALSE
"688",83253,55079100400,"Milwaukee County","WI",2834,0.54,2601225.859,6762.781589,55079,53110,TRUE,FALSE,FALSE
"689",83252,55079100300,"Milwaukee County","WI",2972,0.3,1459560.137,5910.046906,55079,53110,TRUE,FALSE,FALSE
"690",83251,55079100200,"Milwaukee County","WI",3870,0.76,3678422.824,11439.6005,55079,53110,TRUE,FALSE,FALSE
"691",83250,55079100100,"Milwaukee County","WI",3584,0.33,1609106.434,6034.377227,55079,53110,TRUE,FALSE,FALSE
"692",83249,55079091400,"Milwaukee County","WI",2106,0.31,1512405.523,7043.91654,55079,53110,TRUE,FALSE,FALSE
"693",83248,55079091300,"Milwaukee County","WI",3731,0.66,3222610.258,10747.13609,55079,53110,TRUE,FALSE,FALSE
"694",83247,55079091200,"Milwaukee County","WI",5496,0.91,4433698.43,11927.78861,55079,53110,TRUE,FALSE,FALSE
"695",83246,55079091100,"Milwaukee County","WI",4168,0.66,3226318.285,9590.696192,55079,53110,TRUE,FALSE,FALSE
"696",83245,55079091000,"Milwaukee County","WI",4294,0.43,2069473.063,7034.17129,55079,53110,TRUE,FALSE,FALSE
"697",83244,55079090900,"Milwaukee County","WI",3800,0.47,2302119.762,9575.908515,55079,53110,TRUE,FALSE,FALSE
"698",83243,55079090800,"Milwaukee County","WI",2383,0.3,1475031.703,4906.269425,55079,53110,TRUE,FALSE,FALSE
"699",83242,55079090700,"Milwaukee County","WI",3126,0.7,3380935.309,10449.75598,55079,53110,TRUE,FALSE,FALSE
"700",83241,55079090600,"Milwaukee County","WI",4551,1.19,5749436.828,12273.2344,55079,53110,TRUE,FALSE,FALSE
"701",83240,55079090300,"Milwaukee County","WI",3279,1.55,7526322.973,11984.85589,55079,53110,TRUE,FALSE,FALSE
"702",83239,55079090200,"Milwaukee County","WI",2131,1.48,7185621.473,12730.0748,55079,53110,TRUE,FALSE,FALSE
"703",83238,55079090100,"Milwaukee County","WI",4220,1.74,8456810.105,18749.49332,55079,53110,TRUE,FALSE,FALSE
"704",83237,55079080400,"Milwaukee County","WI",3441,0.29,1402445.863,5241.85931,55079,53110,TRUE,FALSE,FALSE
"705",83236,55079080300,"Milwaukee County","WI",3780,0.58,2797720.125,7716.018207,55079,53110,TRUE,FALSE,FALSE
"706",83235,55079080200,"Milwaukee County","WI",3694,0.34,1654510.531,5568.535081,55079,53110,TRUE,FALSE,FALSE
"707",83234,55079080100,"Milwaukee County","WI",2658,0.38,1869049.68,6254.057624,55079,53110,TRUE,FALSE,FALSE
"708",83233,55079070300,"Milwaukee County","WI",4449,0.49,2403770.434,6563.291764,55079,53110,TRUE,FALSE,FALSE
"709",83232,55079070200,"Milwaukee County","WI",5111,1,4846626.832,14713.41271,55079,53110,TRUE,FALSE,FALSE
"710",83231,55079070100,"Milwaukee County","WI",4544,0.62,3034846.84,10058.19085,55079,53110,TRUE,FALSE,FALSE
"711",83230,55079060200,"Milwaukee County","WI",5749,3.1,15074370.79,30967.44245,55079,53110,TRUE,FALSE,FALSE
"712",83229,55079060102,"Milwaukee County","WI",2993,1.17,5681597.176,11332.88346,55079,53110,TRUE,FALSE,FALSE
"713",83228,55079060101,"Milwaukee County","WI",4351,1.69,8203841.234,19651.19977,55079,53110,TRUE,FALSE,FALSE
"714",83227,55079050101,"Milwaukee County","WI",6058,1.89,9210284.645,13412.35283,55079,53110,TRUE,FALSE,FALSE
"715",83226,55079040100,"Milwaukee County","WI",1477,5.33,25967423.29,24929.51155,55079,53110,TRUE,FALSE,FALSE
"716",83225,55079035200,"Milwaukee County","WI",4388,1.49,7266271.234,15729.47966,55079,53110,TRUE,FALSE,FALSE
"717",83224,55079035100,"Milwaukee County","WI",2224,1.37,6660147.082,15313.84382,55079,53110,TRUE,FALSE,FALSE
"718",83223,55079030100,"Milwaukee County","WI",4332,2.3,11205863.8,14958.92624,55079,53110,TRUE,FALSE,FALSE
"719",83222,55079021800,"Milwaukee County","WI",2126,0.34,1629469.906,6193.564868,55079,53110,TRUE,FALSE,FALSE
"720",83221,55079021700,"Milwaukee County","WI",6133,4.94,23876337.77,27661.37607,55079,53110,TRUE,FALSE,FALSE
"721",83220,55079021600,"Milwaukee County","WI",4546,1.43,6916439.313,10581.8821,55079,53110,TRUE,FALSE,FALSE
"722",83219,55079021500,"Milwaukee County","WI",2901,0.5,2410978.316,6610.216773,55079,53110,TRUE,FALSE,FALSE
"723",83218,55079021400,"Milwaukee County","WI",3152,0.5,2397332.617,6547.847417,55079,53110,TRUE,FALSE,FALSE
"724",83217,55079021300,"Milwaukee County","WI",1579,0.49,2389711.082,6537.166711,55079,53110,TRUE,FALSE,FALSE
"725",83216,55079021200,"Milwaukee County","WI",2057,0.75,3613005.98,8765.997703,55079,53110,TRUE,FALSE,FALSE
"726",83215,55079021100,"Milwaukee County","WI",1328,0.25,1201331.875,4399.240922,55079,53110,TRUE,FALSE,FALSE
"727",83214,55079021000,"Milwaukee County","WI",2120,0.49,2378332.957,6607.041167,55079,53110,TRUE,FALSE,FALSE
"728",83213,55079020900,"Milwaukee County","WI",2465,0.39,1890492.32,5885.801056,55079,53110,TRUE,FALSE,FALSE
"729",83212,55079020800,"Milwaukee County","WI",2848,0.35,1681437.285,6112.992248,55079,53110,TRUE,FALSE,FALSE
"730",83211,55079020700,"Milwaukee County","WI",4223,0.69,3323074.242,9948.888359,55079,53110,TRUE,FALSE,FALSE
"731",83210,55079020600,"Milwaukee County","WI",3340,0.51,2479496.641,6651.997082,55079,53110,TRUE,FALSE,FALSE
"732",83209,55079020500,"Milwaukee County","WI",2967,0.18,893140.3711,3827.303443,55079,53110,TRUE,FALSE,FALSE
"733",83208,55079020400,"Milwaukee County","WI",3283,0.19,914559.9805,3866.759895,55079,53110,TRUE,FALSE,FALSE
"734",83207,55079020300,"Milwaukee County","WI",3768,0.56,2712131.145,6590.529806,55079,53110,TRUE,FALSE,FALSE
"735",83206,55079020200,"Milwaukee County","WI",3028,0.37,1775258.547,5415.324698,55079,53110,TRUE,FALSE,FALSE
"736",83205,55079020100,"Milwaukee County","WI",3635,0.73,3555120.082,7661.441918,55079,53110,TRUE,FALSE,FALSE
"737",83204,55079020000,"Milwaukee County","WI",3508,0.54,2630210.707,9337.403717,55079,53110,TRUE,FALSE,FALSE
"738",83203,55079019900,"Milwaukee County","WI",3359,0.6,2914129.758,12086.32538,55079,53110,TRUE,FALSE,FALSE
"739",83202,55079019800,"Milwaukee County","WI",4868,0.8,3855151.867,9040.163818,55079,53110,TRUE,FALSE,FALSE
"740",83201,55079019700,"Milwaukee County","WI",5298,0.73,3518898.984,7781.193901,55079,53110,TRUE,FALSE,FALSE
"741",83200,55079019600,"Milwaukee County","WI",3537,0.5,2436348.836,6621.552917,55079,53110,TRUE,FALSE,FALSE
"742",83199,55079019500,"Milwaukee County","WI",3273,0.5,2444039.895,6690.478245,55079,53110,TRUE,FALSE,FALSE
"743",83198,55079019400,"Milwaukee County","WI",3714,0.5,2434827.988,6701.17957,55079,53110,TRUE,FALSE,FALSE
"744",83197,55079019300,"Milwaukee County","WI",2513,0.34,1651390.816,5442.353283,55079,53110,TRUE,FALSE,FALSE
"745",83196,55079019200,"Milwaukee County","WI",3176,0.55,2662569.582,8232.007356,55079,53110,TRUE,FALSE,FALSE
"746",83195,55079019100,"Milwaukee County","WI",3433,0.6,2925701.52,12041.96055,55079,53110,TRUE,FALSE,FALSE
"747",83194,55079019000,"Milwaukee County","WI",4481,0.97,4674368.832,9857.235298,55079,53110,TRUE,FALSE,FALSE
"748",83193,55079018900,"Milwaukee County","WI",1737,0.24,1162718.621,5476.898972,55079,53110,TRUE,FALSE,FALSE
"749",83192,55079018800,"Milwaukee County","WI",2037,0.36,1744465.219,5266.540395,55079,53110,TRUE,FALSE,FALSE
"750",83191,55079018700,"Milwaukee County","WI",3314,0.19,915743.8164,3869.23145,55079,53110,TRUE,FALSE,FALSE
"751",83190,55079018600,"Milwaukee County","WI",2577,0.18,894599.8281,3823.57198,55079,53110,TRUE,FALSE,FALSE
"752",83189,55079018500,"Milwaukee County","WI",1689,0.72,3507245.746,9016.872071,55079,53110,TRUE,FALSE,FALSE
"753",83188,55079018400,"Milwaukee County","WI",1317,0.28,1366977.078,5211.029154,55079,53110,TRUE,FALSE,FALSE
"754",83187,55079018300,"Milwaukee County","WI",2261,0.26,1259552.32,5470.128344,55079,53110,TRUE,FALSE,FALSE
"755",83186,55079018200,"Milwaukee County","WI",1588,0.21,1039535.094,5122.703331,55079,53110,TRUE,FALSE,FALSE
"756",83185,55079018100,"Milwaukee County","WI",1581,0.22,1071382.336,4554.912682,55079,53110,TRUE,FALSE,FALSE
"757",83184,55079018000,"Milwaukee County","WI",2930,1.09,5304747.262,17233.4203,55079,53110,TRUE,FALSE,FALSE
"758",83183,55079017900,"Milwaukee County","WI",3048,0.24,1144441.328,4967.047311,55079,53110,TRUE,FALSE,FALSE
"759",83182,55079017600,"Milwaukee County","WI",3150,0.18,882208.5273,3830.232836,55079,53110,TRUE,FALSE,FALSE
"760",83181,55079017500,"Milwaukee County","WI",3757,0.19,913995.4414,3893.314456,55079,53110,TRUE,FALSE,FALSE
"761",83180,55079017400,"Milwaukee County","WI",2849,0.13,610873.6992,3410.189717,55079,53110,TRUE,FALSE,FALSE
"762",83179,55079017300,"Milwaukee County","WI",3980,0.2,953025.7109,4147.895475,55079,53110,TRUE,FALSE,FALSE
"763",83178,55079017200,"Milwaukee County","WI",2599,0.19,908349.0234,4786.37508,55079,53110,TRUE,FALSE,FALSE
"764",83177,55079017100,"Milwaukee County","WI",2898,0.26,1264324.477,5350.496706,55079,53110,TRUE,FALSE,FALSE
"765",83176,55079017000,"Milwaukee County","WI",5827,0.27,1320331.594,4683.277362,55079,53110,TRUE,FALSE,FALSE
"766",83175,55079016900,"Milwaukee County","WI",3325,0.18,893676.1094,3879.232604,55079,53110,TRUE,FALSE,FALSE
"767",83174,55079016800,"Milwaukee County","WI",2927,0.2,984523.4609,4016.364567,55079,53110,TRUE,FALSE,FALSE
"768",83173,55079016700,"Milwaukee County","WI",3115,0.19,909690.0586,3903.55734,55079,53110,TRUE,FALSE,FALSE
"769",83172,55079016600,"Milwaukee County","WI",1966,0.23,1129882.887,6117.80904,55079,53110,TRUE,FALSE,FALSE
"770",83171,55079016500,"Milwaukee County","WI",2842,0.41,1989801.965,8210.766397,55079,53110,TRUE,FALSE,FALSE
"771",83170,55079016400,"Milwaukee County","WI",4500,0.18,866903.5391,3839.957821,55079,53110,TRUE,FALSE,FALSE
"772",83169,55079016300,"Milwaukee County","WI",4469,0.22,1054021.336,4113.41077,55079,53110,TRUE,FALSE,FALSE
"773",83168,55079016200,"Milwaukee County","WI",3356,0.18,868139.1836,3815.49161,55079,53110,TRUE,FALSE,FALSE
"774",83167,55079016100,"Milwaukee County","WI",3427,0.23,1112337.641,5382.58443,55079,53110,TRUE,FALSE,FALSE
"775",83166,55079016000,"Milwaukee County","WI",3049,0.15,740041.293,3584.371832,55079,53110,TRUE,FALSE,FALSE
"776",83165,55079015900,"Milwaukee County","WI",3697,0.18,882545.1641,3817.442465,55079,53110,TRUE,FALSE,FALSE
"777",83164,55079015800,"Milwaukee County","WI",2803,0.17,802118.1328,3606.65726,55079,53110,TRUE,FALSE,FALSE
"778",83163,55079015700,"Milwaukee County","WI",2878,0.19,910999.9492,3903.097063,55079,53110,TRUE,FALSE,FALSE
"779",83162,55079014900,"Milwaukee County","WI",1420,0.14,667980.6484,4001.889182,55079,53110,TRUE,FALSE,FALSE
"780",83161,55079014800,"Milwaukee County","WI",2750,0.13,642063.7461,3583.403304,55079,53110,TRUE,FALSE,FALSE
"781",83160,55079014700,"Milwaukee County","WI",3224,0.1,503709.1914,3196.389128,55079,53110,TRUE,FALSE,FALSE
"782",83159,55079014600,"Milwaukee County","WI",3889,0.16,757548.6797,3623.755699,55079,53110,TRUE,FALSE,FALSE
"783",83158,55079014400,"Milwaukee County","WI",3127,0.22,1047941.586,4052.912811,55079,53110,TRUE,FALSE,FALSE
"784",83157,55079014300,"Milwaukee County","WI",2428,0.1,470476.9141,3111.563043,55079,53110,TRUE,FALSE,FALSE
"785",83156,55079014100,"Milwaukee County","WI",2115,0.26,1245919.973,5067.012168,55079,53110,TRUE,FALSE,FALSE
"786",83155,55079013700,"Milwaukee County","WI",1543,0.12,590863.9063,3270.95193,55079,53110,TRUE,FALSE,FALSE
"787",83154,55079013600,"Milwaukee County","WI",2482,0.15,732177.3477,3785.507357,55079,53110,TRUE,FALSE,FALSE
"788",83153,55079013500,"Milwaukee County","WI",1998,0.1,474485.6797,3398.639726,55079,53110,TRUE,FALSE,FALSE
"789",83152,55079013400,"Milwaukee County","WI",2375,0.22,1051868.148,4367.503453,55079,53110,TRUE,FALSE,FALSE
"790",83151,55079013300,"Milwaukee County","WI",1113,0.23,1116645.289,4170.051569,55079,53110,TRUE,FALSE,FALSE
"791",83150,55079013000,"Milwaukee County","WI",1765,0.25,1204369.906,5039.616752,55079,53110,TRUE,FALSE,FALSE
"792",83149,55079012900,"Milwaukee County","WI",2849,0.41,1979537.957,5759.563337,55079,53110,TRUE,FALSE,FALSE
"793",83148,55079012800,"Milwaukee County","WI",2835,1.05,5109582.09,11257.96369,55079,53110,TRUE,FALSE,FALSE
"794",83147,55079012700,"Milwaukee County","WI",1185,0.39,1896856.871,5917.040892,55079,53110,TRUE,FALSE,FALSE
"795",83146,55079012600,"Milwaukee County","WI",2046,0.3,1474976.594,8712.070956,55079,53110,TRUE,FALSE,FALSE
"796",83145,55079012500,"Milwaukee County","WI",1995,0.7,3410152.094,8501.687809,55079,53110,TRUE,FALSE,FALSE
"797",83144,55079012400,"Milwaukee County","WI",2575,0.51,2471131,7619.941724,55079,53110,TRUE,FALSE,FALSE
"798",83143,55079012300,"Milwaukee County","WI",1070,0.3,1434897,4947.089769,55079,53110,TRUE,FALSE,FALSE
"799",83142,55079012200,"Milwaukee County","WI",2536,0.19,933946.832,3897.351047,55079,53110,TRUE,FALSE,FALSE
"800",83141,55079011400,"Milwaukee County","WI",1437,0.2,959656.2813,4867.39441,55079,53110,TRUE,FALSE,FALSE
"801",83140,55079011300,"Milwaukee County","WI",3011,0.17,812392.8398,4081.444876,55079,53110,TRUE,FALSE,FALSE
"802",83139,55079011200,"Milwaukee County","WI",2749,0.14,703306.1016,4384.516938,55079,53110,TRUE,FALSE,FALSE
"803",83138,55079011100,"Milwaukee County","WI",1475,0.1,464513.7266,3066.693782,55079,53110,TRUE,FALSE,FALSE
"804",83137,55079011000,"Milwaukee County","WI",3249,0.11,522621.8438,3438.561708,55079,53110,TRUE,FALSE,FALSE
"805",83136,55079010800,"Milwaukee County","WI",2775,0.13,606936.9336,3895.409225,55079,53110,TRUE,FALSE,FALSE
"806",83135,55079010700,"Milwaukee County","WI",2422,0.23,1100969.914,4866.460315,55079,53110,TRUE,FALSE,FALSE
"807",83134,55079010600,"Milwaukee County","WI",1149,0.11,544951.2969,3227.789042,55079,53110,TRUE,FALSE,FALSE
"808",83133,55079009900,"Milwaukee County","WI",1350,0.2,967468.8789,4340.828544,55079,53110,TRUE,FALSE,FALSE
"809",83132,55079009800,"Milwaukee County","WI",1559,0.17,824845.4375,4656.570434,55079,53110,TRUE,FALSE,FALSE
"810",83131,55079009700,"Milwaukee County","WI",2027,0.17,836124.0977,3724.629228,55079,53110,TRUE,FALSE,FALSE
"811",83130,55079009600,"Milwaukee County","WI",2324,0.4,1942794.395,5709.027189,55079,53110,TRUE,FALSE,FALSE
"812",83129,55079009500,"Milwaukee County","WI",2102,0.2,956099.9141,4005.191796,55079,53110,TRUE,FALSE,FALSE
"813",83128,55079009400,"Milwaukee County","WI",2455,0.23,1132027.98,4271.47825,55079,53110,TRUE,FALSE,FALSE
"814",83127,55079009300,"Milwaukee County","WI",2582,0.22,1069251.102,4154.635557,55079,53110,TRUE,FALSE,FALSE
"815",83126,55079009200,"Milwaukee County","WI",1837,0.16,764436.2656,3586.647027,55079,53110,TRUE,FALSE,FALSE
"816",83125,55079009100,"Milwaukee County","WI",2385,0.2,953484.7227,4080.025967,55079,53110,TRUE,FALSE,FALSE
"817",83124,55079009000,"Milwaukee County","WI",2704,0.19,942782.0859,3964.647148,55079,53110,TRUE,FALSE,FALSE
"818",83123,55079008900,"Milwaukee County","WI",1331,0.23,1118873.109,5036.985283,55079,53110,TRUE,FALSE,FALSE
"819",83122,55079008800,"Milwaukee County","WI",2138,0.19,919179.2188,4087.187182,55079,53110,TRUE,FALSE,FALSE
"820",83121,55079008700,"Milwaukee County","WI",1325,0.13,616967.4297,3327.487529,55079,53110,TRUE,FALSE,FALSE
"821",83120,55079008600,"Milwaukee County","WI",1472,0.12,566233.2266,3317.907305,55079,53110,TRUE,FALSE,FALSE
"822",83119,55079008500,"Milwaukee County","WI",1262,0.15,747657.5625,3649.495943,55079,53110,TRUE,FALSE,FALSE
"823",83118,55079008400,"Milwaukee County","WI",1294,0.18,855984.0781,3755.845765,55079,53110,TRUE,FALSE,FALSE
"824",83117,55079008100,"Milwaukee County","WI",1388,0.11,522735.9805,3160.325804,55079,53110,TRUE,FALSE,FALSE
"825",83116,55079008000,"Milwaukee County","WI",1944,0.13,611147.0117,3320.818814,55079,53110,TRUE,FALSE,FALSE
"826",83115,55079007900,"Milwaukee County","WI",2209,0.21,1002066.758,4980.439084,55079,53110,TRUE,FALSE,FALSE
"827",83114,55079007800,"Milwaukee County","WI",3556,0.25,1198414.391,4677.960387,55079,53110,TRUE,FALSE,FALSE
"828",83113,55079007700,"Milwaukee County","WI",4060,0.26,1272974.496,4701.048945,55079,53110,TRUE,FALSE,FALSE
"829",83112,55079007600,"Milwaukee County","WI",3162,0.22,1085241.066,4282.188941,55079,53110,TRUE,FALSE,FALSE
"830",83111,55079007500,"Milwaukee County","WI",2717,0.27,1295249.09,4522.945831,55079,53110,TRUE,FALSE,FALSE
"831",83110,55079007400,"Milwaukee County","WI",3950,0.35,1712459.594,5427.697426,55079,53110,TRUE,FALSE,FALSE
"832",83109,55079007300,"Milwaukee County","WI",2470,0.26,1240329.047,5437.886975,55079,53110,TRUE,FALSE,FALSE
"833",83108,55079007200,"Milwaukee County","WI",2772,0.31,1526481.188,6118.922727,55079,53110,TRUE,FALSE,FALSE
"834",83107,55079007100,"Milwaukee County","WI",1960,0.14,689265.082,3319.496764,55079,53110,TRUE,FALSE,FALSE
"835",83106,55079007000,"Milwaukee County","WI",2694,0.26,1244008.16,4568.178727,55079,53110,TRUE,FALSE,FALSE
"836",83105,55079006900,"Milwaukee County","WI",2537,0.19,943935.2266,4391.365185,55079,53110,TRUE,FALSE,FALSE
"837",83104,55079006800,"Milwaukee County","WI",2733,0.23,1121101.57,5091.234147,55079,53110,TRUE,FALSE,FALSE
"838",83103,55079006700,"Milwaukee County","WI",1428,0.16,757167.2852,3521.93982,55079,53110,TRUE,FALSE,FALSE
"839",83102,55079006600,"Milwaukee County","WI",2869,0.36,1770604.461,6166.880496,55079,53110,TRUE,FALSE,FALSE
"840",83101,55079006500,"Milwaukee County","WI",2542,0.19,941203.125,4107.433616,55079,53110,TRUE,FALSE,FALSE
"841",83100,55079006400,"Milwaukee County","WI",2401,0.19,915851.5352,3861.987257,55079,53110,TRUE,FALSE,FALSE
"842",83099,55079006300,"Milwaukee County","WI",2126,0.34,1627354.742,5149.531053,55079,53110,TRUE,FALSE,FALSE
"843",83098,55079006200,"Milwaukee County","WI",2763,0.18,881214.3516,3807.368061,55079,53110,TRUE,FALSE,FALSE
"844",83097,55079006100,"Milwaukee County","WI",2243,0.2,975670.2109,3980.009179,55079,53110,TRUE,FALSE,FALSE
"845",83096,55079006000,"Milwaukee County","WI",2511,0.16,776596.8438,3621.654118,55079,53110,TRUE,FALSE,FALSE
"846",83095,55079005900,"Milwaukee County","WI",3597,0.33,1594931.992,5862.744782,55079,53110,TRUE,FALSE,FALSE
"847",83094,55079005800,"Milwaukee County","WI",3500,0.39,1897378.016,6065.143104,55079,53110,TRUE,FALSE,FALSE
"848",83093,55079005700,"Milwaukee County","WI",2365,0.31,1494040.684,4892.207613,55079,53110,TRUE,FALSE,FALSE
"849",83092,55079005600,"Milwaukee County","WI",2159,0.48,2318226.813,6704.677619,55079,53110,TRUE,FALSE,FALSE
"850",83091,55079005500,"Milwaukee County","WI",3306,0.5,2413233.238,9476.185856,55079,53110,TRUE,FALSE,FALSE
"851",83090,55079005400,"Milwaukee County","WI",3566,0.52,2524472.285,6736.401343,55079,53110,TRUE,FALSE,FALSE
"852",83089,55079005300,"Milwaukee County","WI",1873,0.26,1257766.16,4486.343807,55079,53110,TRUE,FALSE,FALSE
"853",83088,55079005200,"Milwaukee County","WI",1617,0.26,1287216.602,4540.723576,55079,53110,TRUE,FALSE,FALSE
"854",83087,55079005100,"Milwaukee County","WI",3353,0.94,4556611.863,8666.380969,55079,53110,TRUE,FALSE,FALSE
"855",83086,55079005000,"Milwaukee County","WI",4665,0.44,2138993.813,6702.712631,55079,53110,TRUE,FALSE,FALSE
"856",83085,55079004900,"Milwaukee County","WI",4553,0.38,1852635.047,5560.738855,55079,53110,TRUE,FALSE,FALSE
"857",83084,55079004800,"Milwaukee County","WI",3925,0.39,1870393.586,5579.377357,55079,53110,TRUE,FALSE,FALSE
"858",83083,55079004700,"Milwaukee County","WI",3889,0.56,2698470.059,7320.916167,55079,53110,TRUE,FALSE,FALSE
"859",83082,55079004600,"Milwaukee County","WI",2994,0.26,1282167.242,4542.899783,55079,53110,TRUE,FALSE,FALSE
"860",83081,55079004500,"Milwaukee County","WI",2466,0.27,1288260.004,4495.795095,55079,53110,TRUE,FALSE,FALSE
"861",83080,55079004400,"Milwaukee County","WI",3206,0.86,4183994.266,14052.49175,55079,53110,TRUE,FALSE,FALSE
"862",83079,55079004300,"Milwaukee County","WI",5183,0.77,3729773.125,10291.1961,55079,53110,TRUE,FALSE,FALSE
"863",83078,55079004200,"Milwaukee County","WI",2971,0.27,1294147.852,5940.776278,55079,53110,TRUE,FALSE,FALSE
"864",83077,55079004100,"Milwaukee County","WI",2446,0.55,2685701.035,7938.370369,55079,53110,TRUE,FALSE,FALSE
"865",83076,55079004000,"Milwaukee County","WI",2562,0.25,1196744.262,4396.882016,55079,53110,TRUE,FALSE,FALSE
"866",83075,55079003900,"Milwaukee County","WI",2572,0.26,1255210.234,4473.705704,55079,53110,TRUE,FALSE,FALSE
"867",83074,55079003800,"Milwaukee County","WI",2081,0.26,1250555.48,4481.152479,55079,53110,TRUE,FALSE,FALSE
"868",83073,55079003700,"Milwaukee County","WI",2357,0.25,1191694.617,4507.463661,55079,53110,TRUE,FALSE,FALSE
"869",83072,55079003600,"Milwaukee County","WI",1772,0.39,1889290.598,5718.518461,55079,53110,TRUE,FALSE,FALSE
"870",83071,55079003500,"Milwaukee County","WI",3463,0.45,2173367.059,6148.753114,55079,53110,TRUE,FALSE,FALSE
"871",83070,55079003400,"Milwaukee County","WI",5520,0.79,3830307.719,17010.2,55079,53110,TRUE,FALSE,FALSE
"872",83069,55079003300,"Milwaukee County","WI",5413,0.57,2760832.137,7036.313997,55079,53110,TRUE,FALSE,FALSE
"873",83068,55079003200,"Milwaukee County","WI",2789,0.31,1525805.648,5229.622888,55079,53110,TRUE,FALSE,FALSE
"874",83067,55079003100,"Milwaukee County","WI",3508,0.48,2352592.09,6411.121165,55079,53110,TRUE,FALSE,FALSE
"875",83066,55079003000,"Milwaukee County","WI",3797,0.51,2463426.215,6745.165388,55079,53110,TRUE,FALSE,FALSE
"876",83065,55079002900,"Milwaukee County","WI",2225,0.25,1232324.527,4444.587179,55079,53110,TRUE,FALSE,FALSE
"877",83064,55079002800,"Milwaukee County","WI",2170,0.25,1234023.68,4457.738173,55079,53110,TRUE,FALSE,FALSE
"878",83063,55079002700,"Milwaukee County","WI",1894,0.26,1287442.242,4549.803061,55079,53110,TRUE,FALSE,FALSE
"879",83062,55079002600,"Milwaukee County","WI",2754,0.27,1309577.113,4856.900197,55079,53110,TRUE,FALSE,FALSE
"880",83061,55079002500,"Milwaukee County","WI",2153,0.21,1041761.496,4336.684832,55079,53110,TRUE,FALSE,FALSE
"881",83060,55079002400,"Milwaukee County","WI",2153,0.45,2178103.359,7483.20585,55079,53110,TRUE,FALSE,FALSE
"882",83059,55079002300,"Milwaukee County","WI",4284,0.71,3460991.094,8942.934698,55079,53110,TRUE,FALSE,FALSE
"883",83058,55079002200,"Milwaukee County","WI",1819,0.44,2144294.652,13116.4341,55079,53110,TRUE,FALSE,FALSE
"884",83057,55079002100,"Milwaukee County","WI",2323,0.35,1686244.973,5258.447161,55079,53110,TRUE,FALSE,FALSE
"885",83056,55079002000,"Milwaukee County","WI",2364,0.42,2021920.602,5854.978409,55079,53110,TRUE,FALSE,FALSE
"886",83055,55079001900,"Milwaukee County","WI",3405,0.38,1838664.465,5543.155277,55079,53110,TRUE,FALSE,FALSE
"887",83054,55079001800,"Milwaukee County","WI",2680,0.38,1849522.617,5607.632087,55079,53110,TRUE,FALSE,FALSE
"888",83053,55079001700,"Milwaukee County","WI",4368,0.51,2485604.816,6966.88395,55079,53110,TRUE,FALSE,FALSE
"889",83052,55079001600,"Milwaukee County","WI",2893,0.51,2474842.23,6688.970953,55079,53110,TRUE,FALSE,FALSE
"890",83051,55079001500,"Milwaukee County","WI",3069,0.57,2788450.297,7015.099758,55079,53110,TRUE,FALSE,FALSE
"891",83050,55079001400,"Milwaukee County","WI",2631,0.43,2087453.578,6374.664271,55079,53110,TRUE,FALSE,FALSE
"892",83049,55079001300,"Milwaukee County","WI",3686,0.76,3710306.465,7771.984497,55079,53110,TRUE,FALSE,FALSE
"893",83048,55079001200,"Milwaukee County","WI",2952,0.47,2301607.754,6328.926323,55079,53110,TRUE,FALSE,FALSE
"894",83047,55079001100,"Milwaukee County","WI",2685,1.23,5960773.547,11835.59552,55079,53110,TRUE,FALSE,FALSE
"895",83046,55079001000,"Milwaukee County","WI",3579,0.59,2892265.934,8921.875681,55079,53110,TRUE,FALSE,FALSE
"896",83045,55079000900,"Milwaukee County","WI",3517,1.35,6593498.09,13680.45684,55079,53110,TRUE,FALSE,FALSE
"897",83044,55079000800,"Milwaukee County","WI",5002,1.17,5707098.996,10447.52888,55079,53110,TRUE,FALSE,FALSE
"898",83043,55079000700,"Milwaukee County","WI",3532,1.51,7362778.82,11098.23273,55079,53110,TRUE,FALSE,FALSE
"899",83042,55079000600,"Milwaukee County","WI",6184,1.5,7299980.785,13680.06887,55079,53110,TRUE,FALSE,FALSE
"900",83041,55079000502,"Milwaukee County","WI",4721,0.69,3349107.816,8439.155179,55079,53110,TRUE,FALSE,FALSE
"901",83040,55079000501,"Milwaukee County","WI",3517,1.56,7600840.715,14956.67762,55079,53110,TRUE,FALSE,FALSE
"902",83039,55079000400,"Milwaukee County","WI",2380,0.93,4531812.043,8744.305755,55079,53110,TRUE,FALSE,FALSE
"903",83038,55079000304,"Milwaukee County","WI",3356,1.3,6311571.445,13452.18063,55079,53110,TRUE,FALSE,FALSE
"904",83037,55079000303,"Milwaukee County","WI",1813,0.62,2997261.988,7490.463217,55079,53110,TRUE,FALSE,FALSE
"905",83036,55079000302,"Milwaukee County","WI",2932,0.71,3451273.402,8013.798,55079,53110,TRUE,FALSE,FALSE
"906",83035,55079000301,"Milwaukee County","WI",1446,0.77,3733230.398,9141.564858,55079,53110,TRUE,FALSE,FALSE
"907",83034,55079000202,"Milwaukee County","WI",6201,3.04,14805911.88,17741.50895,55079,53110,TRUE,FALSE,FALSE
"908",83033,55079000201,"Milwaukee County","WI",5101,3.05,14883185.88,17849.88271,55079,53110,TRUE,FALSE,FALSE
"909",83032,55079000102,"Milwaukee County","WI",3530,2.51,12244908.17,15500.19077,55079,53110,TRUE,FALSE,FALSE
"910",83031,55079000101,"Milwaukee County","WI",4680,1.54,7500563.941,11159.55543,55079,53110,TRUE,FALSE,FALSE
"911",83428,55078940104,"Menominee County","WI",NA,17.39,89725001.11,48663.64884,55078,54135,TRUE,FALSE,FALSE
"912",83427,55078940103,"Menominee County","WI",NA,324.47,1681905802,188175.3752,55078,54135,TRUE,FALSE,FALSE
"913",83030,55078940101,"Menominee County","WI",1486,23.1,119160795.1,64887.77346,55078,54135,TRUE,FALSE,FALSE
"914",83029,55077960500,"Marquette County","WI",3806,68.69,341749076.2,92265.05074,55077,53920,TRUE,FALSE,FALSE
"915",83028,55077960400,"Marquette County","WI",2746,77.44,383853100.4,102057.4498,55077,53920,TRUE,FALSE,FALSE
"916",83027,55077960300,"Marquette County","WI",3871,86.19,427645217.1,119118.8807,55077,53920,TRUE,FALSE,FALSE
"917",83026,55077960200,"Marquette County","WI",2546,104.56,520687377.5,153004.4574,55077,53920,TRUE,FALSE,FALSE
"918",83025,55077960100,"Marquette County","WI",2967,127.59,637477112.6,138634.5307,55077,53920,TRUE,FALSE,FALSE
"919",83024,55075961500,"Marinette County","WI",3788,2.35,12183213.25,40185.44051,55075,54102,TRUE,FALSE,FALSE
"920",83023,55075961400,"Marinette County","WI",4357,5.01,26032959.83,22266.42426,55075,54102,TRUE,FALSE,FALSE
"921",83022,55075961300,"Marinette County","WI",2911,6.52,33874096.78,32560.57469,55075,54102,TRUE,FALSE,FALSE
"922",83021,55075961200,"Marinette County","WI",2805,48.85,253286550,124181.3684,55075,54102,TRUE,FALSE,FALSE
"923",83020,55075961100,"Marinette County","WI",5168,61.25,317805948,88052.36263,55075,54102,TRUE,FALSE,FALSE
"924",83019,55075961000,"Marinette County","WI",3937,132.85,690842601.8,138817.3824,55075,54102,TRUE,FALSE,FALSE
"925",83018,55075960900,"Marinette County","WI",2737,117.46,613506507.2,149354.6484,55075,54102,TRUE,FALSE,FALSE
"926",83017,55075960800,"Marinette County","WI",2527,63.3,330694664.9,103954.2776,55075,54102,TRUE,FALSE,FALSE
"927",83016,55075960700,"Marinette County","WI",2879,190.16,994363083.6,163329.0332,55075,54102,TRUE,FALSE,FALSE
"928",83015,55075960600,"Marinette County","WI",2489,135.59,711177904.7,149572.563,55075,54102,TRUE,FALSE,FALSE
"929",83014,55075960200,"Marinette County","WI",4076,543.85,2872199113,279660.842,55075,54102,TRUE,FALSE,FALSE
"930",83013,55075960100,"Marinette County","WI",2889,122.07,647502670.3,144504.0436,55075,54102,TRUE,FALSE,FALSE
"931",83426,55073002302,"Marathon County","WI",NA,135.13,700765315.6,136287.198,55073,54401,FALSE,TRUE,FALSE
"932",83425,55073002301,"Marathon County","WI",NA,109.23,566741784.3,109673.0776,55073,54401,FALSE,TRUE,FALSE
"933",83424,55073002102,"Marathon County","WI",NA,38.05,195261966.7,58633.40384,55073,54401,FALSE,TRUE,FALSE
"934",83423,55073002101,"Marathon County","WI",NA,66.67,342671438,81197.62666,55073,54401,FALSE,TRUE,FALSE
"935",83422,55073001402,"Marathon County","WI",NA,34.02,176117411.9,85602.52565,55073,54401,FALSE,TRUE,FALSE
"936",83421,55073001401,"Marathon County","WI",NA,7.36,38117027.43,42453.87908,55073,54401,FALSE,TRUE,FALSE
"937",83420,55073001204,"Marathon County","WI",NA,55.1,283580811.5,86852.30481,55073,54401,FALSE,TRUE,FALSE
"938",83419,55073001203,"Marathon County","WI",NA,3.86,19886409.68,18697.64022,55073,54401,FALSE,TRUE,FALSE
"939",83418,55073001106,"Marathon County","WI",NA,22.93,118342169.9,76937.6906,55073,54401,FALSE,TRUE,FALSE
"940",83417,55073001105,"Marathon County","WI",NA,32.43,167922751.7,77293.61674,55073,54401,FALSE,TRUE,FALSE
"941",83012,55073002200,"Marathon County","WI",3661,104.78,541472184.4,107684.6504,55073,54401,FALSE,TRUE,FALSE
"942",83011,55073002000,"Marathon County","WI",3799,69.06,355472240.8,79425.15396,55073,54401,FALSE,TRUE,FALSE
"943",83010,55073001900,"Marathon County","WI",5927,102.36,528441135.4,105494.8005,55073,54401,FALSE,TRUE,FALSE
"944",83009,55073001800,"Marathon County","WI",5414,213.32,1095314634,189402.4574,55073,54401,FALSE,TRUE,FALSE
"945",83008,55073001700,"Marathon County","WI",3669,157.79,810909655.8,113836.0238,55073,54401,FALSE,TRUE,FALSE
"946",83007,55073001600,"Marathon County","WI",5994,237.43,1229387173,141915.2483,55073,54401,FALSE,TRUE,FALSE
"947",83006,55073001500,"Marathon County","WI",4099,88.81,461020423.5,100272.7235,55073,54401,FALSE,TRUE,FALSE
"948",83005,55073001300,"Marathon County","WI",6921,25.57,131982186.8,47899.91672,55073,54401,FALSE,TRUE,FALSE
"949",83004,55073001202,"Marathon County","WI",5338,40.26,207269991.3,66518.65562,55073,54401,FALSE,TRUE,FALSE
"950",83003,55073001104,"Marathon County","WI",6158,4.23,21845853.15,21637.57314,55073,54401,FALSE,TRUE,FALSE
"951",83002,55073001103,"Marathon County","WI",5301,3.92,20255856.82,32118.75865,55073,54401,FALSE,TRUE,FALSE
"952",83001,55073001000,"Marathon County","WI",3538,2.94,15158993.38,21918.25259,55073,54401,FALSE,TRUE,FALSE
"953",83000,55073000900,"Marathon County","WI",2282,2.75,14198164.99,20573.72235,55073,54401,FALSE,TRUE,FALSE
"954",82999,55073000800,"Marathon County","WI",3366,2.08,10742720.61,15732.14288,55073,54401,FALSE,TRUE,FALSE
"955",82998,55073000700,"Marathon County","WI",5450,3.33,17223769.65,24578.55487,55073,54401,FALSE,TRUE,FALSE
"956",82997,55073000602,"Marathon County","WI",3917,1.38,7123955.438,13182.98753,55073,54401,FALSE,TRUE,FALSE
"957",82996,55073000601,"Marathon County","WI",2057,1.07,5526064.586,10578.38101,55073,54401,FALSE,TRUE,FALSE
"958",82995,55073000500,"Marathon County","WI",2802,0.76,3925146.207,9903.404628,55073,54401,FALSE,TRUE,FALSE
"959",82994,55073000400,"Marathon County","WI",6278,2.61,13522740.03,15015.74152,55073,54401,FALSE,TRUE,FALSE
"960",82993,55073000300,"Marathon County","WI",5259,5.16,26736350.1,24790.70694,55073,54401,FALSE,TRUE,FALSE
"961",82992,55073000200,"Marathon County","WI",3014,1.18,6129930.02,12761.17443,55073,54401,FALSE,TRUE,FALSE
"962",82991,55073000100,"Marathon County","WI",3077,0.73,3782135.934,10425.25315,55073,54401,FALSE,TRUE,FALSE
"963",82990,55071010700,"Manitowoc County","WI",4158,9.28,46331029.69,29276.77488,55071,53015,TRUE,FALSE,FALSE
"964",82989,55071010600,"Manitowoc County","WI",4998,88.77,443507734.6,103214.5112,55071,53015,TRUE,FALSE,FALSE
"965",82988,55071010500,"Manitowoc County","WI",3567,53.58,268751162.8,88792.2417,55071,53015,TRUE,FALSE,FALSE
"966",82987,55071010400,"Manitowoc County","WI",6128,108.62,544734688.7,107754.6815,55071,53015,TRUE,FALSE,FALSE
"967",82986,55071010300,"Manitowoc County","WI",4549,108.34,545459214.4,107972.5372,55071,53015,TRUE,FALSE,FALSE
"968",82985,55071010200,"Manitowoc County","WI",5806,111.64,563715871.3,112790.5741,55071,53015,TRUE,FALSE,FALSE
"969",82984,55071010100,"Manitowoc County","WI",4413,70.23,354498449.4,106752.9981,55071,53015,TRUE,FALSE,FALSE
"970",82983,55071005400,"Manitowoc County","WI",3004,4.62,23241639.2,25320.56505,55071,53015,TRUE,FALSE,FALSE
"971",82982,55071005300,"Manitowoc County","WI",2052,0.44,2210925.102,7474.036784,55071,53015,TRUE,FALSE,FALSE
"972",82981,55071005200,"Manitowoc County","WI",4348,3.96,19919826.08,36040.76365,55071,53015,TRUE,FALSE,FALSE
"973",82980,55071005100,"Manitowoc County","WI",2380,2.93,14733410.52,22092.97986,55071,53015,TRUE,FALSE,FALSE
"974",82979,55071000800,"Manitowoc County","WI",3912,1.59,7964747.25,22750.57415,55071,53015,TRUE,FALSE,FALSE
"975",82978,55071000700,"Manitowoc County","WI",5944,3.27,16392788.42,23087.95106,55071,53015,TRUE,FALSE,FALSE
"976",82977,55071000600,"Manitowoc County","WI",5262,6.91,34682284.1,29698.47874,55071,53015,TRUE,FALSE,FALSE
"977",82976,55071000500,"Manitowoc County","WI",2656,0.7,3539404.605,9862.5962,55071,53015,TRUE,FALSE,FALSE
"978",82975,55071000400,"Manitowoc County","WI",4078,1.07,5387050.305,16017.05799,55071,53015,TRUE,FALSE,FALSE
"979",82974,55071000300,"Manitowoc County","WI",5560,8.39,42164396.55,58143.41556,55071,53015,TRUE,FALSE,FALSE
"980",82973,55071000200,"Manitowoc County","WI",2316,2.74,13782090.5,20136.43807,55071,53015,TRUE,FALSE,FALSE
"981",82972,55071000100,"Manitowoc County","WI",5362,7.55,37982088.95,25002.00651,55071,53015,TRUE,FALSE,FALSE
"982",82971,55069961000,"Lincoln County","WI",3556,5.45,28380847.24,29174.12492,55069,54435,FALSE,TRUE,FALSE
"983",82970,55069960900,"Lincoln County","WI",2819,1,5202879.262,11948.51412,55069,54435,FALSE,TRUE,FALSE
"984",82969,55069960800,"Lincoln County","WI",3472,6.12,31886596.1,40012.33173,55069,54435,FALSE,TRUE,FALSE
"985",82968,55069960700,"Lincoln County","WI",3775,113.27,592444293.9,100110.8916,55069,54435,FALSE,TRUE,FALSE
"986",82875,55069960600,"Lincoln County","WI",4326,152.1,793424153.1,172761.6032,55069,54435,FALSE,TRUE,FALSE
"987",82874,55069960500,"Lincoln County","WI",1798,96.14,504967131.6,122955.9096,55069,54435,FALSE,TRUE,FALSE
"988",82873,55069960400,"Lincoln County","WI",1948,309.64,1620628820,191269.1469,55069,54435,FALSE,TRUE,FALSE
"989",82872,55069960300,"Lincoln County","WI",1787,107.49,566737281.7,121320.3993,55069,54435,FALSE,TRUE,FALSE
"990",82871,55069960200,"Lincoln County","WI",2530,7.68,40460804.36,34436.73898,55069,54435,FALSE,TRUE,FALSE
"991",82870,55069960100,"Lincoln County","WI",2171,107.9,568733298.8,120771.2521,55069,54435,FALSE,TRUE,FALSE
"992",82967,55067960102,"Langlade County","WI",NA,164.77,864885000.1,128349.0824,55067,54409,FALSE,TRUE,FALSE
"993",82966,55067960101,"Langlade County","WI",NA,112.76,592124605.2,138974.7354,55067,54409,FALSE,TRUE,FALSE
"994",82869,55067960700,"Langlade County","WI",4234,5.87,30549436.68,31266.89712,55067,54409,FALSE,TRUE,FALSE
"995",82868,55067960600,"Langlade County","WI",4764,4.63,24128827.42,26716.80289,55067,54409,FALSE,TRUE,FALSE
"996",82867,55067960500,"Langlade County","WI",1945,261.58,1367190482,199680.5872,55067,54409,FALSE,TRUE,FALSE
"997",82866,55067960400,"Langlade County","WI",4068,135.39,704051728.7,164486.7167,55067,54409,FALSE,TRUE,FALSE
"998",82865,55067960300,"Langlade County","WI",2592,202.79,1058129451,177819.4017,55067,54409,FALSE,TRUE,FALSE
"999",82864,55065970500,"Lafayette County","WI",3256,201.59,963835185.8,153128.5588,55065,53504,TRUE,FALSE,FALSE
"1000",82863,55065970400,"Lafayette County","WI",3171,76.06,363269483,108364.2882,55065,53504,TRUE,FALSE,FALSE
"1001",82862,55065970300,"Lafayette County","WI",3599,141.6,679134434.1,137523.8151,55065,53504,TRUE,FALSE,FALSE
"1002",82861,55065970200,"Lafayette County","WI",3821,99.42,477773004.3,106900.3389,55065,53504,TRUE,FALSE,FALSE
"1003",82860,55065970100,"Lafayette County","WI",3005,115.89,556839742.2,116230.3111,55065,53504,TRUE,FALSE,FALSE
"1004",82965,55063010404,"La Crosse County","WI",NA,1.82,9088993.738,18129.5834,55063,54601,FALSE,FALSE,TRUE
"1005",82964,55063010403,"La Crosse County","WI",NA,1.28,6395823.676,12738.27187,55063,54601,FALSE,FALSE,TRUE
"1006",82963,55063010205,"La Crosse County","WI",NA,64.78,324425329.7,100412.0829,55063,54601,FALSE,FALSE,TRUE
"1007",82962,55063010204,"La Crosse County","WI",NA,2.1,10471212.98,24338.99825,55063,54601,FALSE,FALSE,TRUE
"1008",82961,55063000402,"La Crosse County","WI",NA,0.38,1876726.355,8437.034738,55063,54601,FALSE,FALSE,TRUE
"1009",82960,55063000401,"La Crosse County","WI",NA,0.28,1414817.801,6654.827258,55063,54601,FALSE,FALSE,TRUE
"1010",82859,55063010800,"La Crosse County","WI",3584,112.5,559610288.5,106176.2114,55063,54601,FALSE,FALSE,TRUE
"1011",82858,55063010700,"La Crosse County","WI",5750,30.14,149684790.1,70758.73514,55063,54601,FALSE,FALSE,TRUE
"1012",82857,55063010600,"La Crosse County","WI",3713,24.24,120696689.5,55589.19456,55063,54601,FALSE,FALSE,TRUE
"1013",82856,55063010500,"La Crosse County","WI",5948,4.69,23381336.78,32297.73314,55063,54601,FALSE,FALSE,TRUE
"1014",82855,55063010401,"La Crosse County","WI",5569,21.86,109075867.7,44855.6231,55063,54601,FALSE,FALSE,TRUE
"1015",82854,55063010300,"La Crosse County","WI",4511,5.14,25631459.43,35946.49206,55063,54601,FALSE,FALSE,TRUE
"1016",82853,55063010203,"La Crosse County","WI",1982,4.59,22921688.78,37445.1144,55063,54601,FALSE,FALSE,TRUE
"1017",82852,55063010202,"La Crosse County","WI",7566,49.21,246017068,145859.0809,55063,54601,FALSE,FALSE,TRUE
"1018",82851,55063010102,"La Crosse County","WI",4916,4.11,20514436.16,21912.23618,55063,54601,FALSE,FALSE,TRUE
"1019",82850,55063010101,"La Crosse County","WI",5913,132.58,663435459.4,110988.8743,55063,54601,FALSE,FALSE,TRUE
"1020",82849,55063001200,"La Crosse County","WI",4217,0.92,4587887.973,13065.67436,55063,54601,FALSE,FALSE,TRUE
"1021",82848,55063001102,"La Crosse County","WI",3861,1.11,5510989.625,10461.08487,55063,54601,FALSE,FALSE,TRUE
"1022",82847,55063001101,"La Crosse County","WI",2070,0.62,3065061.25,8512.881968,55063,54601,FALSE,FALSE,TRUE
"1023",82846,55063001000,"La Crosse County","WI",3748,0.6,2985993.465,9812.707665,55063,54601,FALSE,FALSE,TRUE
"1024",82845,55063000900,"La Crosse County","WI",3789,2.1,10439687.46,16938.46312,55063,54601,FALSE,FALSE,TRUE
"1025",82844,55063000800,"La Crosse County","WI",2970,0.43,2162123.836,6033.704607,55063,54601,FALSE,FALSE,TRUE
"1026",82843,55063000700,"La Crosse County","WI",4442,2.58,12850967.74,16013.4067,55063,54601,FALSE,FALSE,TRUE
"1027",82842,55063000600,"La Crosse County","WI",2140,1.82,9057715.254,16044.96369,55063,54601,FALSE,FALSE,TRUE
"1028",82841,55063000500,"La Crosse County","WI",5289,1.25,6201218.125,10811.53969,55063,54601,FALSE,FALSE,TRUE
"1029",82840,55063000300,"La Crosse County","WI",2457,3.69,18346186.94,35969.08998,55063,54601,FALSE,FALSE,TRUE
"1030",82839,55063000200,"La Crosse County","WI",5174,2.51,12477466.16,21669.97401,55063,54601,FALSE,FALSE,TRUE
"1031",82838,55063000100,"La Crosse County","WI",4734,2.72,13576317.6,17119.03467,55063,54601,FALSE,FALSE,TRUE
"1032",82959,55061960402,"Kewaunee County","WI",NA,67.32,343952301.8,95634.4222,55061,54201,TRUE,FALSE,FALSE
"1033",82958,55061960401,"Kewaunee County","WI",NA,83.05,422870326,103299.5699,55061,54201,TRUE,FALSE,FALSE
"1034",82837,55061960500,"Kewaunee County","WI",6209,107.2,543841156.6,109107.9875,55061,54201,TRUE,FALSE,FALSE
"1035",82836,55061960200,"Kewaunee County","WI",2562,83.29,425804808.4,135481.0721,55061,54201,TRUE,FALSE,FALSE
"1036",82835,55061960100,"Kewaunee County","WI",3122,3.09,15814412.95,25010.50722,55061,54201,TRUE,FALSE,FALSE
"1037",82957,55059002802,"Kenosha County","WI",NA,71.6,342741871.9,79542.12483,55059,53104,TRUE,FALSE,FALSE
"1038",82956,55059002801,"Kenosha County","WI",NA,24.45,116854204.3,44516.29814,55059,53104,TRUE,FALSE,FALSE
"1039",82955,55059002606,"Kenosha County","WI",NA,5.61,26751666.88,21343.15033,55059,53104,TRUE,FALSE,FALSE
"1040",82954,55059002605,"Kenosha County","WI",NA,15.88,75779915.41,36575.87038,55059,53104,TRUE,FALSE,FALSE
"1041",82953,55059002604,"Kenosha County","WI",NA,2.04,9750207.363,13369.76926,55059,53104,TRUE,FALSE,FALSE
"1042",82952,55059002603,"Kenosha County","WI",NA,1.47,7048638.023,11287.57202,55059,53104,TRUE,FALSE,FALSE
"1043",82951,55059001402,"Kenosha County","WI",NA,0.93,4424220.438,9625.305841,55059,53104,TRUE,FALSE,FALSE
"1044",82950,55059001401,"Kenosha County","WI",NA,0.51,2433864.191,8116.056977,55059,53104,TRUE,FALSE,FALSE
"1045",82949,55059000604,"Kenosha County","WI",NA,1.4,6687219.18,12148.66308,55059,53104,TRUE,FALSE,FALSE
"1046",82948,55059000603,"Kenosha County","WI",NA,1.67,7990515.398,13775.68136,55059,53104,TRUE,FALSE,FALSE
"1047",82947,55059000502,"Kenosha County","WI",NA,0.68,3254061.777,8162.852828,55059,53104,TRUE,FALSE,FALSE
"1048",82946,55059000501,"Kenosha County","WI",NA,0.48,2295254.086,7542.715729,55059,53104,TRUE,FALSE,FALSE
"1049",82945,55059000102,"Kenosha County","WI",NA,3.87,18522698.14,19421.81692,55059,53104,TRUE,FALSE,FALSE
"1050",82944,55059000101,"Kenosha County","WI",NA,0.8,3823043.203,15409.2474,55059,53104,TRUE,FALSE,FALSE
"1051",82834,55059003002,"Kenosha County","WI",5011,15.22,72596803.79,37459.08951,55059,53104,TRUE,FALSE,FALSE
"1052",82833,55059003001,"Kenosha County","WI",4458,8.83,42120123.26,28869.9672,55059,53104,TRUE,FALSE,FALSE
"1053",82832,55059002906,"Kenosha County","WI",5146,8.57,40901654.2,29888.66016,55059,53104,TRUE,FALSE,FALSE
"1054",82831,55059002905,"Kenosha County","WI",3940,4.35,20807406.66,18477.89913,55059,53104,TRUE,FALSE,FALSE
"1055",82830,55059002904,"Kenosha County","WI",5818,14.57,69500466.6,37569.27927,55059,53104,TRUE,FALSE,FALSE
"1056",82829,55059002903,"Kenosha County","WI",3360,8.77,41900202.21,26984.74147,55059,53104,TRUE,FALSE,FALSE
"1057",82828,55059002700,"Kenosha County","WI",6497,36.19,172738628.4,52746.96793,55059,53104,TRUE,FALSE,FALSE
"1058",82827,55059002500,"Kenosha County","WI",3515,2.22,10596406.29,13564.94837,55059,53104,TRUE,FALSE,FALSE
"1059",82826,55059002400,"Kenosha County","WI",4697,1.5,7181750.664,11991.67411,55059,53104,TRUE,FALSE,FALSE
"1060",82825,55059002300,"Kenosha County","WI",5862,1.77,8431625.422,12969.32888,55059,53104,TRUE,FALSE,FALSE
"1061",82824,55059002200,"Kenosha County","WI",3494,0.58,2750088.621,7204.977308,55059,53104,TRUE,FALSE,FALSE
"1062",82823,55059002100,"Kenosha County","WI",5285,0.91,4368465.082,8656.96941,55059,53104,TRUE,FALSE,FALSE
"1063",82822,55059002000,"Kenosha County","WI",6078,7.54,35980175.84,31243.3428,55059,53104,TRUE,FALSE,FALSE
"1064",82821,55059001900,"Kenosha County","WI",2335,0.57,2711568.824,10416.97173,55059,53104,TRUE,FALSE,FALSE
"1065",82820,55059001800,"Kenosha County","WI",2268,0.39,1884796.848,7814.376825,55059,53104,TRUE,FALSE,FALSE
"1066",82819,55059001700,"Kenosha County","WI",2558,0.42,2015736.758,7681.940549,55059,53104,TRUE,FALSE,FALSE
"1067",82818,55059001600,"Kenosha County","WI",3397,0.37,1747899.195,6735.05417,55059,53104,TRUE,FALSE,FALSE
"1068",82817,55059001500,"Kenosha County","WI",3742,0.54,2594167.832,7995.995934,55059,53104,TRUE,FALSE,FALSE
"1069",82816,55059001300,"Kenosha County","WI",4235,0.71,3391674.809,8410.59799,55059,53104,TRUE,FALSE,FALSE
"1070",82815,55059001200,"Kenosha County","WI",4075,0.69,3300334.328,7886.390138,55059,53104,TRUE,FALSE,FALSE
"1071",82814,55059001100,"Kenosha County","WI",3129,0.34,1606775.801,5742.949245,55059,53104,TRUE,FALSE,FALSE
"1072",82813,55059001000,"Kenosha County","WI",2461,0.48,2303910.41,9776.896811,55059,53104,TRUE,FALSE,FALSE
"1073",82812,55059000900,"Kenosha County","WI",4293,0.53,2538258.129,7325.269146,55059,53104,TRUE,FALSE,FALSE
"1074",82811,55059000800,"Kenosha County","WI",2641,0.5,2393075.391,6472.838783,55059,53104,TRUE,FALSE,FALSE
"1075",82810,55059000700,"Kenosha County","WI",5557,1.81,8666688.645,12258.82209,55059,53104,TRUE,FALSE,FALSE
"1076",82809,55059000601,"Kenosha County","WI",6937,26.81,128340773.4,49767.08798,55059,53104,TRUE,FALSE,FALSE
"1077",82808,55059000400,"Kenosha County","WI",3558,0.83,3963020.48,8652.276235,55059,53104,TRUE,FALSE,FALSE
"1078",82807,55059000300,"Kenosha County","WI",4957,1.04,4958377.316,17390.12214,55059,53104,TRUE,FALSE,FALSE
"1079",82943,55057100302,"Juneau County","WI",NA,39,194909349.6,88507.6279,55057,53929,TRUE,FALSE,FALSE
"1080",82942,55057100301,"Juneau County","WI",NA,38.63,193231700.3,77093.34477,55057,53929,TRUE,FALSE,FALSE
"1081",82806,55057100700,"Juneau County","WI",4179,152.19,754456434.5,138337.4107,55057,53929,TRUE,FALSE,FALSE
"1082",82805,55057100600,"Juneau County","WI",3362,59.31,293993283.2,83776.24273,55057,53929,TRUE,FALSE,FALSE
"1083",82804,55057100500,"Juneau County","WI",4267,8.32,41338786.09,34901.99196,55057,53929,TRUE,FALSE,FALSE
"1084",82803,55057100400,"Juneau County","WI",5190,79.18,394304081.7,141801.7663,55057,53929,TRUE,FALSE,FALSE
"1085",82802,55057100200,"Juneau County","WI",3761,143.27,714041308.9,166873.7865,55057,53929,TRUE,FALSE,FALSE
"1086",82801,55057100100,"Juneau County","WI",2877,285.27,1434740836,201547.4432,55057,53929,TRUE,FALSE,FALSE
"1087",82941,55055100302,"Jefferson County","WI",NA,1.32,6420917.043,13284.31723,55055,53036,TRUE,FALSE,FALSE
"1088",82940,55055100301,"Jefferson County","WI",NA,4.12,20053117.21,23412.76516,55055,53036,TRUE,FALSE,FALSE
"1089",82800,55055101702,"Jefferson County","WI",5267,38.92,189495131.6,63123.04426,55055,53036,TRUE,FALSE,FALSE
"1090",82799,55055101701,"Jefferson County","WI",1449,31.02,150872442.7,65414.49375,55055,53036,TRUE,FALSE,FALSE
"1091",82798,55055101600,"Jefferson County","WI",6617,61.29,295791831.6,91178.36504,55055,53036,TRUE,FALSE,FALSE
"1092",82797,55055101500,"Jefferson County","WI",4014,3.07,14831459.93,30524.33403,55055,53036,TRUE,FALSE,FALSE
"1093",82796,55055101400,"Jefferson County","WI",3499,2.63,12721505.34,17510.66873,55055,53036,TRUE,FALSE,FALSE
"1094",82795,55055101300,"Jefferson County","WI",5797,6.9,33382255.63,32930.50594,55055,53036,TRUE,FALSE,FALSE
"1095",82794,55055101202,"Jefferson County","WI",1606,16.57,79982138.96,46155.3353,55055,53036,TRUE,FALSE,FALSE
"1096",82793,55055101201,"Jefferson County","WI",2290,54.42,262726801.2,71088.59981,55055,53036,TRUE,FALSE,FALSE
"1097",82792,55055101100,"Jefferson County","WI",4517,4.98,24121187.74,24609.80654,55055,53036,TRUE,FALSE,FALSE
"1098",82791,55055101000,"Jefferson County","WI",3981,6.16,29840056.02,28139.382,55055,53036,TRUE,FALSE,FALSE
"1099",82790,55055100900,"Jefferson County","WI",3901,78.51,379839736.7,128328.3023,55055,53036,TRUE,FALSE,FALSE
"1100",82789,55055100800,"Jefferson County","WI",4074,56.85,275805248.1,84530.1437,55055,53036,TRUE,FALSE,FALSE
"1101",82788,55055100700,"Jefferson County","WI",4985,46.22,224303320.5,82781.36412,55055,53036,TRUE,FALSE,FALSE
"1102",82787,55055100602,"Jefferson County","WI",3416,43.37,209988323.1,62582.34335,55055,53036,TRUE,FALSE,FALSE
"1103",82786,55055100601,"Jefferson County","WI",1621,26.97,130922992.3,57591.40882,55055,53036,TRUE,FALSE,FALSE
"1104",82785,55055100500,"Jefferson County","WI",6835,10.39,50454619.73,36629.53191,55055,53036,TRUE,FALSE,FALSE
"1105",82784,55055100400,"Jefferson County","WI",5848,81.59,397140882.3,83750.14624,55055,53036,TRUE,FALSE,FALSE
"1106",82783,55055100200,"Jefferson County","WI",3610,0.62,3023489.027,8679.681499,55055,53036,TRUE,FALSE,FALSE
"1107",82782,55055100100,"Jefferson County","WI",5847,6.84,33307332.68,38278.88011,55055,53036,TRUE,FALSE,FALSE
"1108",82781,55053960500,"Jackson County","WI",4605,11.46,57961701.62,53888.96063,55053,54611,FALSE,FALSE,TRUE
"1109",82780,55053960400,"Jackson County","WI",4189,202.58,1021270397,178335.209,55053,54611,FALSE,FALSE,TRUE
"1110",82779,55053960300,"Jackson County","WI",4037,222.14,1129441877,157763.378,55053,54611,FALSE,FALSE,TRUE
"1111",82778,55053960200,"Jackson County","WI",3325,102.84,522072717.3,124915.3837,55053,54611,FALSE,FALSE,TRUE
"1112",82777,55053960100,"Jackson County","WI",4101,461.45,2332319039,235920.4774,55053,54611,FALSE,FALSE,TRUE
"1113",82776,55051180300,"Iron County","WI",1976,372.72,2010155835,227397.8409,55051,54525,FALSE,TRUE,FALSE
"1114",82775,55051180200,"Iron County","WI",1380,416.59,2265260319,267835.4909,55051,54525,FALSE,TRUE,FALSE
"1115",82774,55051180100,"Iron County","WI",2335,13.31,72549510.72,55603.04204,55051,54525,FALSE,TRUE,FALSE
"1116",82773,55049950600,"Iowa County","WI",3491,60.78,293152124.5,81061.72197,55049,53503,TRUE,FALSE,FALSE
"1117",82772,55049950500,"Iowa County","WI",4795,174.55,843507618.4,139063.9355,55049,53503,TRUE,FALSE,FALSE
"1118",82771,55049950400,"Iowa County","WI",5344,26,125768024.7,50134.2435,55049,53503,TRUE,FALSE,FALSE
"1119",82770,55049950300,"Iowa County","WI",3489,151.81,733606494.1,137553.3142,55049,53503,TRUE,FALSE,FALSE
"1120",82769,55049950200,"Iowa County","WI",3300,166.36,808714968.4,137989.9798,55049,53503,TRUE,FALSE,FALSE
"1121",82768,55049950100,"Iowa County","WI",3888,188.55,916192805.4,182295.568,55049,53503,TRUE,FALSE,FALSE
"1122",82767,55047100600,"Green Lake County","WI",3991,108.74,539116879.3,115896.3378,55047,53926,TRUE,FALSE,FALSE
"1123",82766,55047100500,"Green Lake County","WI",3143,98.07,486729303.5,136456.6871,55047,53926,TRUE,FALSE,FALSE
"1124",82765,55047100400,"Green Lake County","WI",2713,46.13,229633914.3,81957.05985,55047,53926,TRUE,FALSE,FALSE
"1125",82764,55047100300,"Green Lake County","WI",3208,109.89,548445418.9,129541.6152,55047,53926,TRUE,FALSE,FALSE
"1126",82763,55047100200,"Green Lake County","WI",3025,4.69,23478559.49,28360.26044,55047,53926,TRUE,FALSE,FALSE
"1127",82762,55047100100,"Green Lake County","WI",3216,12.62,63079539.89,46869.35804,55047,53926,TRUE,FALSE,FALSE
"1128",82761,55045960800,"Green County","WI",4179,25.94,123944312.7,58117.25805,55045,53502,TRUE,FALSE,FALSE
"1129",82760,55045960700,"Green County","WI",3970,164.86,787740862.1,167239.2083,55045,53502,TRUE,FALSE,FALSE
"1130",82759,55045960600,"Green County","WI",3210,4.38,20954444.48,22834.09959,55045,53502,TRUE,FALSE,FALSE
"1131",82758,55045960500,"Green County","WI",3865,5.27,25198303.25,23919.80973,55045,53502,TRUE,FALSE,FALSE
"1132",82757,55045960400,"Green County","WI",4312,6.25,29908544.79,34027.60253,55045,53502,TRUE,FALSE,FALSE
"1133",82756,55045960300,"Green County","WI",4993,123.04,589558941.8,130056.964,55045,53502,TRUE,FALSE,FALSE
"1134",82755,55045960200,"Green County","WI",6113,140.42,675290937.9,124264.3482,55045,53502,TRUE,FALSE,FALSE
"1135",82754,55045960100,"Green County","WI",6592,114.38,550320375.3,108724.9907,55045,53502,TRUE,FALSE,FALSE
"1136",82753,55043961200,"Grant County","WI",4371,64.74,309123017.8,76347.68912,55043,53554,TRUE,FALSE,FALSE
"1137",82752,55043961100,"Grant County","WI",4542,76.77,367549484.6,110688.9039,55043,53554,TRUE,FALSE,FALSE
"1138",82751,55043961000,"Grant County","WI",8369,6.85,32895610.39,36049.69554,55043,53554,TRUE,FALSE,FALSE
"1139",82750,55043960900,"Grant County","WI",4516,11.66,56011345.82,38335.39622,55043,53554,TRUE,FALSE,FALSE
"1140",82749,55043960800,"Grant County","WI",3014,103.93,498788233.6,179660.8072,55043,53554,TRUE,FALSE,FALSE
"1141",82748,55043960700,"Grant County","WI",4121,8.59,41430782.14,40474.31495,55043,53554,TRUE,FALSE,FALSE
"1142",82747,55043960600,"Grant County","WI",3756,191.51,923214507,178734.7426,55043,53554,TRUE,FALSE,FALSE
"1143",82746,55043960500,"Grant County","WI",4023,231.76,1115807527,221588.5921,55043,53554,TRUE,FALSE,FALSE
"1144",82745,55043960400,"Grant County","WI",3541,208.94,1010863745,167067.6436,55043,53554,TRUE,FALSE,FALSE
"1145",82744,55043960300,"Grant County","WI",4169,97.61,473240343.6,124441.6636,55043,53554,TRUE,FALSE,FALSE
"1146",82743,55043960200,"Grant County","WI",4461,38.77,188710728.4,90044.64018,55043,53554,TRUE,FALSE,FALSE
"1147",82742,55043960100,"Grant County","WI",3683,142.26,690895897.8,147913.8053,55043,53554,TRUE,FALSE,FALSE
"1148",82741,55041950400,"Forest County","WI",2643,117.93,621776138.6,138398.0898,55041,54511,FALSE,TRUE,FALSE
"1149",82740,55041950300,"Forest County","WI",2461,123.81,654144344.9,123516.0845,55041,54511,FALSE,TRUE,FALSE
"1150",82739,55041950200,"Forest County","WI",2713,289.72,1527833162,204204.4057,55041,54511,FALSE,TRUE,FALSE
"1151",82738,55041950100,"Forest County","WI",1233,515.05,2745775915,282953.8606,55041,54511,FALSE,TRUE,FALSE
"1152",82939,55039042002,"Fond du Lac County","WI",NA,37.01,184275055.7,57317.08125,55039,53010,TRUE,FALSE,FALSE
"1153",82938,55039042001,"Fond du Lac County","WI",NA,29.42,146090028.8,50438.48789,55039,53010,TRUE,FALSE,FALSE
"1154",82937,55039041902,"Fond du Lac County","WI",NA,60.03,297347773.2,77155.65071,55039,53010,TRUE,FALSE,FALSE
"1155",82936,55039041901,"Fond du Lac County","WI",NA,86.1,426396511.5,97227.34309,55039,53010,TRUE,FALSE,FALSE
"1156",82935,55039041102,"Fond du Lac County","WI",NA,3.98,19806153.14,24001.61977,55039,53010,TRUE,FALSE,FALSE
"1157",82934,55039041101,"Fond du Lac County","WI",NA,5.79,28753207.34,24562.67088,55039,53010,TRUE,FALSE,FALSE
"1158",82737,55039042200,"Fond du Lac County","WI",6292,72.86,359787296.3,80420.84487,55039,53010,TRUE,FALSE,FALSE
"1159",82736,55039042100,"Fond du Lac County","WI",5193,116.54,580431131.4,121778.1996,55039,53010,TRUE,FALSE,FALSE
"1160",82735,55039041800,"Fond du Lac County","WI",5011,36.41,180334816.5,53756.09911,55039,53010,TRUE,FALSE,FALSE
"1161",82734,55039041700,"Fond du Lac County","WI",4085,109.09,541338903,107585.1917,55039,53010,TRUE,FALSE,FALSE
"1162",82733,55039041600,"Fond du Lac County","WI",6042,15.35,76477719.3,38563.89826,55039,53010,TRUE,FALSE,FALSE
"1163",82732,55039041500,"Fond du Lac County","WI",3418,20.83,103748467,43258.88358,55039,53010,TRUE,FALSE,FALSE
"1164",82731,55039041400,"Fond du Lac County","WI",6171,133.31,663608089.2,134712.661,55039,53010,TRUE,FALSE,FALSE
"1165",82730,55039041300,"Fond du Lac County","WI",6754,12.93,64335094.89,38858.25932,55039,53010,TRUE,FALSE,FALSE
"1166",82729,55039041000,"Fond du Lac County","WI",2853,0.98,4866064.488,11291.96304,55039,53010,TRUE,FALSE,FALSE
"1167",82728,55039040900,"Fond du Lac County","WI",3162,0.69,3430154.004,9004.589483,55039,53010,TRUE,FALSE,FALSE
"1168",82727,55039040800,"Fond du Lac County","WI",4434,0.56,2791084.105,6767.106226,55039,53010,TRUE,FALSE,FALSE
"1169",82726,55039040700,"Fond du Lac County","WI",5061,18.53,92031313.15,45898.82857,55039,53010,TRUE,FALSE,FALSE
"1170",82725,55039040500,"Fond du Lac County","WI",4142,0.69,3408364.102,8729.57183,55039,53010,TRUE,FALSE,FALSE
"1171",82724,55039040400,"Fond du Lac County","WI",2816,0.77,3829899.508,9370.896669,55039,53010,TRUE,FALSE,FALSE
"1172",82723,55039040300,"Fond du Lac County","WI",5556,1.54,7638862.27,13141.80037,55039,53010,TRUE,FALSE,FALSE
"1173",82722,55039040200,"Fond du Lac County","WI",3061,1.07,5313504.68,10446.37847,55039,53010,TRUE,FALSE,FALSE
"1174",82721,55039040100,"Fond du Lac County","WI",4302,1.37,6820802.602,12418.51883,55039,53010,TRUE,FALSE,FALSE
"1175",82933,55037190102,"Florence County","WI",NA,71.47,381876170,132186.6404,55037,54120,TRUE,FALSE,FALSE
"1176",82932,55037190101,"Florence County","WI",NA,137.4,735827396.7,194157.885,55037,54120,TRUE,FALSE,FALSE
"1177",82720,55037190200,"Florence County","WI",1665,288.56,1537133610,228871.0735,55037,54120,TRUE,FALSE,FALSE
"1178",82931,55035001402,"Eau Claire County","WI",NA,1.15,5901481.273,12362.69767,55035,54701,FALSE,FALSE,TRUE
"1179",82930,55035001401,"Eau Claire County","WI",NA,1.5,7746437.801,14490.48521,55035,54701,FALSE,FALSE,TRUE
"1180",82929,55035000402,"Eau Claire County","WI",NA,2.91,14983971.08,24382.65077,55035,54701,FALSE,FALSE,TRUE
"1181",82928,55035000401,"Eau Claire County","WI",NA,3.5,17993740.88,28447.11641,55035,54701,FALSE,FALSE,TRUE
"1182",82719,55035001700,"Eau Claire County","WI",5873,1.05,5376081.484,13116.62052,55035,54701,FALSE,FALSE,TRUE
"1183",82718,55035001600,"Eau Claire County","WI",5970,127.39,652532623.4,116652.3806,55035,54701,FALSE,FALSE,TRUE
"1184",82717,55035001500,"Eau Claire County","WI",3803,28.6,147198041.3,77110.49187,55035,54701,FALSE,FALSE,TRUE
"1185",82716,55035001300,"Eau Claire County","WI",5649,5.27,27107795.88,29887.94408,55035,54701,FALSE,FALSE,TRUE
"1186",82715,55035001200,"Eau Claire County","WI",5653,1.75,8989792.305,14599.03104,55035,54701,FALSE,FALSE,TRUE
"1187",82714,55035001101,"Eau Claire County","WI",2178,0.44,2253769.59,8556.198056,55035,54701,FALSE,FALSE,TRUE
"1188",82713,55035000900,"Eau Claire County","WI",5128,2.83,14549241.17,15866.51657,55035,54701,FALSE,FALSE,TRUE
"1189",82712,55035000803,"Eau Claire County","WI",6025,2.51,12902942.21,16617.88564,55035,54701,FALSE,FALSE,TRUE
"1190",82711,55035000802,"Eau Claire County","WI",3886,1.89,9718380.398,16359.67044,55035,54701,FALSE,FALSE,TRUE
"1191",82710,55035000801,"Eau Claire County","WI",3691,1.05,5392348.055,10868.12164,55035,54701,FALSE,FALSE,TRUE
"1192",82709,55035000700,"Eau Claire County","WI",5266,1.44,7411315.426,17140.33462,55035,54701,FALSE,FALSE,TRUE
"1193",82708,55035000600,"Eau Claire County","WI",5328,2.36,12135821.93,19186.8544,55035,54701,FALSE,FALSE,TRUE
"1194",82707,55035000502,"Eau Claire County","WI",5000,3.29,16966757.93,19837.01349,55035,54701,FALSE,FALSE,TRUE
"1195",82706,55035000501,"Eau Claire County","WI",5063,2.93,15099122.07,18038.82275,55035,54701,FALSE,FALSE,TRUE
"1196",82705,55035000302,"Eau Claire County","WI",8044,54.27,278714179.8,102676.7983,55035,54701,FALSE,FALSE,TRUE
"1197",82704,55035000301,"Eau Claire County","WI",3976,30.81,158686781.5,73273.53406,55035,54701,FALSE,FALSE,TRUE
"1198",82703,55035000200,"Eau Claire County","WI",5093,180.24,924664081.1,162707.4356,55035,54701,FALSE,FALSE,TRUE
"1199",82702,55035000100,"Eau Claire County","WI",5286,188.03,964482109.5,140189.6993,55035,54701,FALSE,FALSE,TRUE
"1200",82927,55033970802,"Dunn County","WI",NA,3.77,19440941.82,24604.67422,55033,54725,FALSE,FALSE,TRUE
"1201",82926,55033970801,"Dunn County","WI",NA,0.33,1697941.395,7138.611254,55033,54725,FALSE,FALSE,TRUE
"1202",82701,55033970700,"Dunn County","WI",6798,14.82,76365867.18,48843.33258,55033,54725,FALSE,FALSE,TRUE
"1203",82700,55033970600,"Dunn County","WI",4075,179.47,923171804.4,145278.9936,55033,54725,FALSE,FALSE,TRUE
"1204",82699,55033970500,"Dunn County","WI",6919,17.69,91341268.53,41909.77392,55033,54725,FALSE,FALSE,TRUE
"1205",82698,55033970400,"Dunn County","WI",6524,185.49,954212787.3,142381.977,55033,54725,FALSE,FALSE,TRUE
"1206",82697,55033970300,"Dunn County","WI",5895,87.96,455261894.2,110926.248,55033,54725,FALSE,FALSE,TRUE
"1207",82696,55033970200,"Dunn County","WI",4979,124.85,646990864.7,133718.1492,55033,54725,FALSE,FALSE,TRUE
"1208",82695,55033970100,"Dunn County","WI",4062,249.52,1298310513,180055.1359,55033,54725,FALSE,FALSE,TRUE
"1209",82925,55031030302,"Douglas County","WI",NA,259.11,1406253491,173464.3975,55031,54820,FALSE,FALSE,TRUE
"1210",82924,55031030301,"Douglas County","WI",NA,540.73,2936083428,285393.9526,55031,54820,FALSE,FALSE,TRUE
"1211",82923,55031030102,"Douglas County","WI",NA,103.38,566688182.3,108289.7479,55031,54820,FALSE,FALSE,TRUE
"1212",82922,55031030101,"Douglas County","WI",NA,180.69,991263121.2,243908.0071,55031,54820,FALSE,FALSE,TRUE
"1213",82694,55031030200,"Douglas County","WI",5099,201.68,1104500468,173769.8591,55031,54820,FALSE,FALSE,TRUE
"1214",82693,55031021100,"Douglas County","WI",2343,2.84,15676871.5,41563.0789,55031,54820,FALSE,FALSE,TRUE
"1215",82692,55031021000,"Douglas County","WI",1908,17.23,94701408.11,82130.14278,55031,54820,FALSE,FALSE,TRUE
"1216",82691,55031020900,"Douglas County","WI",2281,2.1,11546508.75,23723.04463,55031,54820,FALSE,FALSE,TRUE
"1217",82690,55031020800,"Douglas County","WI",3629,9.42,51798722.08,42546.80418,55031,54820,FALSE,FALSE,TRUE
"1218",82689,55031020700,"Douglas County","WI",4108,11.03,60671120.13,124132.1463,55031,54820,FALSE,FALSE,TRUE
"1219",82688,55031020600,"Douglas County","WI",4454,0.87,4803961.621,11044.50481,55031,54820,FALSE,FALSE,TRUE
"1220",82687,55031020500,"Douglas County","WI",2979,0.75,4132847.965,8214.307907,55031,54820,FALSE,FALSE,TRUE
"1221",82686,55031020400,"Douglas County","WI",3224,1.37,7561747.922,18480.45095,55031,54820,FALSE,FALSE,TRUE
"1222",82685,55031020300,"Douglas County","WI",2797,0.9,4980934.691,11900.15543,55031,54820,FALSE,FALSE,TRUE
"1223",82684,55029101000,"Door County","WI",2289,54.38,279483891.4,123755.6368,55029,54202,TRUE,FALSE,FALSE
"1224",82683,55029100900,"Door County","WI",1874,39.97,205723849.3,99033.79331,55029,54202,TRUE,FALSE,FALSE
"1225",82682,55029100800,"Door County","WI",5313,18,92661632.73,85418.60899,55029,54202,TRUE,FALSE,FALSE
"1226",82681,55029100700,"Door County","WI",4867,7.11,36641080.78,39051.64103,55029,54202,TRUE,FALSE,FALSE
"1227",82680,55029100600,"Door County","WI",3355,95.7,491029971.1,115935.6176,55029,54202,TRUE,FALSE,FALSE
"1228",82679,55029100500,"Door County","WI",3497,80.61,416523329,125120.6757,55029,54202,TRUE,FALSE,FALSE
"1229",82678,55029100400,"Door County","WI",2591,71.8,372343785.5,176411.6007,55029,54202,TRUE,FALSE,FALSE
"1230",82677,55029100300,"Door County","WI",2295,44.91,233714823.7,126785.658,55029,54202,TRUE,FALSE,FALSE
"1231",82676,55029100100,"Door County","WI",2325,75.08,392618855.1,255151.7455,55029,54202,TRUE,FALSE,FALSE
"1232",82675,55027962000,"Dodge County","WI",2440,0.6,2948912.426,10059.50297,55027,53003,TRUE,FALSE,FALSE
"1233",82674,55027961900,"Dodge County","WI",5909,3.66,17833625.15,25814.98941,55027,53003,TRUE,FALSE,FALSE
"1234",82673,55027961800,"Dodge County","WI",4465,132.27,647222574.9,121145.7992,55027,53003,TRUE,FALSE,FALSE
"1235",82672,55027961700,"Dodge County","WI",3220,81.34,397432127.8,103541.8832,55027,53003,TRUE,FALSE,FALSE
"1236",82671,55027961600,"Dodge County","WI",4521,71.03,347255409,98026.84124,55027,53003,TRUE,FALSE,FALSE
"1237",82670,55027961500,"Dodge County","WI",5186,72.45,354229938.8,97045.79418,55027,53003,TRUE,FALSE,FALSE
"1238",82669,55027961400,"Dodge County","WI",4120,86.42,424526337,113868.2011,55027,53003,TRUE,FALSE,FALSE
"1239",82668,55027961300,"Dodge County","WI",5430,6.1,30048062.54,32919.65296,55027,53003,TRUE,FALSE,FALSE
"1240",82667,55027961200,"Dodge County","WI",3392,10.26,50446446.1,49138.34285,55027,53003,TRUE,FALSE,FALSE
"1241",82666,55027961100,"Dodge County","WI",4600,48.34,237231846.9,78509.9171,55027,53003,TRUE,FALSE,FALSE
"1242",82665,55027961000,"Dodge County","WI",4592,1.67,8193602.242,16563.9387,55027,53003,TRUE,FALSE,FALSE
"1243",82664,55027960900,"Dodge County","WI",4195,1.63,7994896.18,12546.43062,55027,53003,TRUE,FALSE,FALSE
"1244",82663,55027960800,"Dodge County","WI",3562,1,4925518.613,11951.91324,55027,53003,TRUE,FALSE,FALSE
"1245",82662,55027960700,"Dodge County","WI",4673,3.72,18303170.84,21950.90643,55027,53003,TRUE,FALSE,FALSE
"1246",82661,55027960600,"Dodge County","WI",4041,72.94,358708484.3,90506.47747,55027,53003,TRUE,FALSE,FALSE
"1247",82660,55027960500,"Dodge County","WI",3892,39.65,195849808.6,72420.95641,55027,53003,TRUE,FALSE,FALSE
"1248",82659,55027960400,"Dodge County","WI",4668,83.59,411858627.1,140958.0166,55027,53003,TRUE,FALSE,FALSE
"1249",82658,55027960300,"Dodge County","WI",7987,5.2,25727209.88,27513.48547,55027,53003,TRUE,FALSE,FALSE
"1250",82657,55027960200,"Dodge County","WI",3217,127.12,627000969.7,149669.438,55027,53003,TRUE,FALSE,FALSE
"1251",82656,55027960100,"Dodge County","WI",6187,58.11,286742594,73130.72498,55027,53003,TRUE,FALSE,FALSE
"1252",82921,55025013202,"Dane County","WI",NA,24.52,119692567,71785.62151,55025,53508,TRUE,FALSE,FALSE
"1253",82920,55025013201,"Dane County","WI",NA,68.85,336289185.3,85561.89625,55025,53508,TRUE,FALSE,FALSE
"1254",82919,55025012004,"Dane County","WI",NA,4.78,23247296.11,22147.0522,55025,53508,TRUE,FALSE,FALSE
"1255",82918,55025012003,"Dane County","WI",NA,4.17,20243536.42,21289.45826,55025,53508,TRUE,FALSE,FALSE
"1256",82917,55025011508,"Dane County","WI",NA,3.45,16819491.86,21000.61083,55025,53508,TRUE,FALSE,FALSE
"1257",82916,55025011507,"Dane County","WI",NA,2.19,10690833.85,14121.20368,55025,53508,TRUE,FALSE,FALSE
"1258",82915,55025011407,"Dane County","WI",NA,6.01,29192046.68,25677.18795,55025,53508,TRUE,FALSE,FALSE
"1259",82914,55025011406,"Dane County","WI",NA,1.26,6098773.492,9875.947672,55025,53508,TRUE,FALSE,FALSE
"1260",82913,55025011405,"Dane County","WI",NA,9.92,48274634.8,33675.14354,55025,53508,TRUE,FALSE,FALSE
"1261",82912,55025011404,"Dane County","WI",NA,6.48,31572999.41,24728.18558,55025,53508,TRUE,FALSE,FALSE
"1262",82911,55025011403,"Dane County","WI",NA,1.25,6058966.195,9931.544854,55025,53508,TRUE,FALSE,FALSE
"1263",82910,55025011202,"Dane County","WI",NA,23.89,116355903.9,67614.50266,55025,53508,TRUE,FALSE,FALSE
"1264",82909,55025011201,"Dane County","WI",NA,16.82,81955985.24,41594.0381,55025,53508,TRUE,FALSE,FALSE
"1265",82908,55025011104,"Dane County","WI",NA,3.53,17149550.02,20198.75824,55025,53508,TRUE,FALSE,FALSE
"1266",82907,55025011103,"Dane County","WI",NA,4.35,21181875.57,26943.59214,55025,53508,TRUE,FALSE,FALSE
"1267",82906,55025010908,"Dane County","WI",NA,25.85,125799964.7,48448.98004,55025,53508,TRUE,FALSE,FALSE
"1268",82905,55025010907,"Dane County","WI",NA,18.7,90675663.01,76448.68382,55025,53508,TRUE,FALSE,FALSE
"1269",82904,55025010906,"Dane County","WI",NA,2.74,13301947.55,15363.7828,55025,53508,TRUE,FALSE,FALSE
"1270",82903,55025010905,"Dane County","WI",NA,3.68,17877435.29,23951.47132,55025,53508,TRUE,FALSE,FALSE
"1271",82902,55025010802,"Dane County","WI",NA,3.98,19260471.09,17368.87172,55025,53508,TRUE,FALSE,FALSE
"1272",82901,55025010801,"Dane County","WI",NA,2.58,12499058.8,14328.74153,55025,53508,TRUE,FALSE,FALSE
"1273",82900,55025010504,"Dane County","WI",NA,1.13,5457147.531,10809.53705,55025,53508,TRUE,FALSE,FALSE
"1274",82899,55025010503,"Dane County","WI",NA,5.93,28755019.04,25999.30631,55025,53508,TRUE,FALSE,FALSE
"1275",82898,55025001902,"Dane County","WI",NA,0.27,1303069.313,5272.175525,55025,53508,TRUE,FALSE,FALSE
"1276",82897,55025001901,"Dane County","WI",NA,0.56,2699834.742,7363.974136,55025,53508,TRUE,FALSE,FALSE
"1277",82896,55025001707,"Dane County","WI",NA,0.07,342394.2188,2522.601675,55025,53508,TRUE,FALSE,FALSE
"1278",82895,55025001706,"Dane County","WI",NA,0.2,962441.7695,6924.914185,55025,53508,TRUE,FALSE,FALSE
"1279",82894,55025001405,"Dane County","WI",NA,3.14,15225022.05,17754.55976,55025,53508,TRUE,FALSE,FALSE
"1280",82893,55025001404,"Dane County","WI",NA,1.18,5700184.293,11707.66778,55025,53508,TRUE,FALSE,FALSE
"1281",82892,55025000506,"Dane County","WI",NA,0.65,3143773.402,9055.232863,55025,53508,TRUE,FALSE,FALSE
"1282",82891,55025000505,"Dane County","WI",NA,0.66,3181563.426,8556.073005,55025,53508,TRUE,FALSE,FALSE
"1283",82890,55025000410,"Dane County","WI",NA,0.56,2724103.02,6979.088806,55025,53508,TRUE,FALSE,FALSE
"1284",82889,55025000409,"Dane County","WI",NA,1.12,5453805.133,10764.70177,55025,53508,TRUE,FALSE,FALSE
"1285",82888,55025000302,"Dane County","WI",NA,0.55,2681371.012,6744.961915,55025,53508,TRUE,FALSE,FALSE
"1286",82887,55025000301,"Dane County","WI",NA,0.36,1740563.629,5958.902455,55025,53508,TRUE,FALSE,FALSE
"1287",82655,55025991703,"Dane County","WI",0,5.29,25667355.45,29648.20526,55025,53508,TRUE,FALSE,FALSE
"1288",82654,55025991702,"Dane County","WI",0,15.45,75100509.11,56829.65608,55025,53508,TRUE,FALSE,FALSE
"1289",82653,55025013700,"Dane County","WI",6009,7.45,36079286.57,26110.70766,55025,53508,TRUE,FALSE,FALSE
"1290",82652,55025013302,"Dane County","WI",5989,3.2,15609776.27,21622.46959,55025,53508,TRUE,FALSE,FALSE
"1291",82651,55025013301,"Dane County","WI",5076,6.31,30800250.93,23984.60404,55025,53508,TRUE,FALSE,FALSE
"1292",82650,55025013100,"Dane County","WI",5057,49.65,241920742.3,68945.17963,55025,53508,TRUE,FALSE,FALSE
"1293",82649,55025013000,"Dane County","WI",4810,13.91,67643721.41,39874.63791,55025,53508,TRUE,FALSE,FALSE
"1294",82648,55025012900,"Dane County","WI",4149,94.48,460190875.8,135678.2377,55025,53508,TRUE,FALSE,FALSE
"1295",82647,55025012800,"Dane County","WI",8577,18.44,89333731.53,43852.45313,55025,53508,TRUE,FALSE,FALSE
"1296",82646,55025012700,"Dane County","WI",4264,89.37,433247289.9,141049.2608,55025,53508,TRUE,FALSE,FALSE
"1297",82645,55025012600,"Dane County","WI",4619,107.53,519256227.2,105106.146,55025,53508,TRUE,FALSE,FALSE
"1298",82644,55025012502,"Dane County","WI",6378,11.49,55566764.21,34789.89157,55025,53508,TRUE,FALSE,FALSE
"1299",82643,55025012501,"Dane County","WI",7071,10.14,49011989.91,32655.41284,55025,53508,TRUE,FALSE,FALSE
"1300",82642,55025012400,"Dane County","WI",5170,57.27,276459738.7,93969.06465,55025,53508,TRUE,FALSE,FALSE
"1301",82641,55025012300,"Dane County","WI",5854,8.79,42444826.2,32587.79276,55025,53508,TRUE,FALSE,FALSE
"1302",82640,55025012202,"Dane County","WI",7101,2.03,9796207.148,12578.10157,55025,53508,TRUE,FALSE,FALSE
"1303",82639,55025012201,"Dane County","WI",2255,4.15,20059135.91,19277.33627,55025,53508,TRUE,FALSE,FALSE
"1304",82638,55025012100,"Dane County","WI",2823,59.35,286493151.9,85332.00139,55025,53508,TRUE,FALSE,FALSE
"1305",82637,55025012002,"Dane County","WI",5314,61.04,295821802.8,92080.43406,55025,53508,TRUE,FALSE,FALSE
"1306",82636,55025011900,"Dane County","WI",7306,72.31,350533643.7,79645.03042,55025,53508,TRUE,FALSE,FALSE
"1307",82635,55025011800,"Dane County","WI",6195,71.38,348002122.6,79394.97497,55025,53508,TRUE,FALSE,FALSE
"1308",82634,55025011700,"Dane County","WI",4413,55.83,272173368,98872.01131,55025,53508,TRUE,FALSE,FALSE
"1309",82633,55025011600,"Dane County","WI",7176,9.25,45093084.09,37835.15182,55025,53508,TRUE,FALSE,FALSE
"1310",82632,55025011506,"Dane County","WI",5747,2.42,11764794.29,18280.53537,55025,53508,TRUE,FALSE,FALSE
"1311",82631,55025011505,"Dane County","WI",4747,0.99,4813010.211,11795.65031,55025,53508,TRUE,FALSE,FALSE
"1312",82630,55025011504,"Dane County","WI",5225,1.98,9644503.836,16367.73875,55025,53508,TRUE,FALSE,FALSE
"1313",82629,55025011302,"Dane County","WI",3234,2.59,12617344.84,16186.05334,55025,53508,TRUE,FALSE,FALSE
"1314",82628,55025011301,"Dane County","WI",7361,7.99,38980305.95,33588.95456,55025,53508,TRUE,FALSE,FALSE
"1315",82627,55025011101,"Dane County","WI",5093,1.19,5800730.645,12597.02091,55025,53508,TRUE,FALSE,FALSE
"1316",82626,55025011000,"Dane County","WI",4561,1.13,5508489.406,13890.26171,55025,53508,TRUE,FALSE,FALSE
"1317",82625,55025010903,"Dane County","WI",4180,3.78,18308551.36,18734.5762,55025,53508,TRUE,FALSE,FALSE
"1318",82624,55025010702,"Dane County","WI",8374,23.52,113847413.6,70700.02543,55025,53508,TRUE,FALSE,FALSE
"1319",82623,55025010701,"Dane County","WI",6453,3.95,19155599.02,18265.9063,55025,53508,TRUE,FALSE,FALSE
"1320",82622,55025010600,"Dane County","WI",5529,33.85,163848554.8,64271.88807,55025,53508,TRUE,FALSE,FALSE
"1321",82621,55025010501,"Dane County","WI",4069,3.46,16773742.23,28387.69659,55025,53508,TRUE,FALSE,FALSE
"1322",82620,55025010400,"Dane County","WI",3461,0.82,3992794.57,10367.24931,55025,53508,TRUE,FALSE,FALSE
"1323",82619,55025010300,"Dane County","WI",3689,0.87,4245799.727,13777.43859,55025,53508,TRUE,FALSE,FALSE
"1324",82618,55025010200,"Dane County","WI",1322,0.7,3406317.973,11341.57928,55025,53508,TRUE,FALSE,FALSE
"1325",82617,55025010100,"Dane County","WI",1893,0.73,3568864.27,9861.677582,55025,53508,TRUE,FALSE,FALSE
"1326",82616,55025003200,"Dane County","WI",2734,0.94,4544345.297,13004.31486,55025,53508,TRUE,FALSE,FALSE
"1327",82615,55025003100,"Dane County","WI",6788,3.98,19301257.14,18231.20936,55025,53508,TRUE,FALSE,FALSE
"1328",82614,55025003002,"Dane County","WI",3997,0.74,3578129.809,8951.090055,55025,53508,TRUE,FALSE,FALSE
"1329",82613,55025003001,"Dane County","WI",5301,1.46,7073934.695,10986.18837,55025,53508,TRUE,FALSE,FALSE
"1330",82612,55025002900,"Dane County","WI",3491,1.3,6300587.195,10677.49442,55025,53508,TRUE,FALSE,FALSE
"1331",82611,55025002800,"Dane County","WI",2350,0.69,3371271.633,7675.828379,55025,53508,TRUE,FALSE,FALSE
"1332",82610,55025002700,"Dane County","WI",3419,1.23,5957564.777,10993.14934,55025,53508,TRUE,FALSE,FALSE
"1333",82609,55025002603,"Dane County","WI",5673,2.45,11911493.38,15641.96668,55025,53508,TRUE,FALSE,FALSE
"1334",82608,55025002602,"Dane County","WI",6410,2.32,11308963.05,15052.84081,55025,53508,TRUE,FALSE,FALSE
"1335",82607,55025002601,"Dane County","WI",2081,0.6,2908784.719,8100.450557,55025,53508,TRUE,FALSE,FALSE
"1336",82606,55025002500,"Dane County","WI",2135,4.3,20899702.31,19551.60717,55025,53508,TRUE,FALSE,FALSE
"1337",82605,55025002402,"Dane County","WI",3914,0.87,4217783.293,10540.83289,55025,53508,TRUE,FALSE,FALSE
"1338",82604,55025002401,"Dane County","WI",3580,0.71,3460046.109,9204.883878,55025,53508,TRUE,FALSE,FALSE
"1339",82603,55025002302,"Dane County","WI",1972,1.26,6114518.621,14471.43648,55025,53508,TRUE,FALSE,FALSE
"1340",82602,55025002301,"Dane County","WI",3010,0.95,4609206.344,13502.88741,55025,53508,TRUE,FALSE,FALSE
"1341",82601,55025002200,"Dane County","WI",4399,0.73,3535808.73,10020.04346,55025,53508,TRUE,FALSE,FALSE
"1342",82600,55025002100,"Dane County","WI",5243,1.21,5863646.676,10693.66238,55025,53508,TRUE,FALSE,FALSE
"1343",82599,55025002000,"Dane County","WI",6581,1.02,4956075.203,10758.66493,55025,53508,TRUE,FALSE,FALSE
"1344",82598,55025001804,"Dane County","WI",4062,0.33,1588552.887,8792.97278,55025,53508,TRUE,FALSE,FALSE
"1345",82597,55025001802,"Dane County","WI",3550,0.29,1431461.035,7673.677539,55025,53508,TRUE,FALSE,FALSE
"1346",82596,55025001704,"Dane County","WI",4123,0.16,791468.6797,3850.69365,55025,53508,TRUE,FALSE,FALSE
"1347",82595,55025001606,"Dane County","WI",7077,0.16,790438.0977,3854.141261,55025,53508,TRUE,FALSE,FALSE
"1348",82594,55025001605,"Dane County","WI",3089,0.14,662722.4609,3450.06121,55025,53508,TRUE,FALSE,FALSE
"1349",82593,55025001604,"Dane County","WI",5589,0.11,515240.543,3026.76198,55025,53508,TRUE,FALSE,FALSE
"1350",82592,55025001603,"Dane County","WI",4341,0.07,329500.207,2987.841928,55025,53508,TRUE,FALSE,FALSE
"1351",82591,55025001502,"Dane County","WI",6138,4.17,20229688.94,28633.98422,55025,53508,TRUE,FALSE,FALSE
"1352",82590,55025001501,"Dane County","WI",2103,0.43,2064793.434,9807.335621,55025,53508,TRUE,FALSE,FALSE
"1353",82589,55025001402,"Dane County","WI",5915,3.74,18134236.39,20532.16007,55025,53508,TRUE,FALSE,FALSE
"1354",82588,55025001401,"Dane County","WI",6553,1.61,7822915.082,13218.62184,55025,53508,TRUE,FALSE,FALSE
"1355",82587,55025001300,"Dane County","WI",2660,0.57,2774343.391,8181.435484,55025,53508,TRUE,FALSE,FALSE
"1356",82586,55025001200,"Dane County","WI",6610,0.72,3489296.805,8962.749012,55025,53508,TRUE,FALSE,FALSE
"1357",82585,55025001102,"Dane County","WI",3155,0.41,2011678.027,7901.234252,55025,53508,TRUE,FALSE,FALSE
"1358",82584,55025001101,"Dane County","WI",5270,0.26,1253509.629,4697.2303,55025,53508,TRUE,FALSE,FALSE
"1359",82583,55025001000,"Dane County","WI",2529,0.61,2938097.5,9960.22986,55025,53508,TRUE,FALSE,FALSE
"1360",82582,55025000902,"Dane County","WI",5920,0.52,2546242.594,8333.503833,55025,53508,TRUE,FALSE,FALSE
"1361",82581,55025000901,"Dane County","WI",2181,0.25,1214116.375,5373.9109,55025,53508,TRUE,FALSE,FALSE
"1362",82580,55025000800,"Dane County","WI",3738,0.74,3610353.148,7499.594565,55025,53508,TRUE,FALSE,FALSE
"1363",82579,55025000700,"Dane County","WI",3332,0.9,4350283.613,10155.21161,55025,53508,TRUE,FALSE,FALSE
"1364",82578,55025000600,"Dane County","WI",6290,1.26,6124754.902,11205.78014,55025,53508,TRUE,FALSE,FALSE
"1365",82577,55025000504,"Dane County","WI",7532,1.92,9301679.078,13334.97178,55025,53508,TRUE,FALSE,FALSE
"1366",82576,55025000501,"Dane County","WI",4831,1.3,6283634.035,10561.86151,55025,53508,TRUE,FALSE,FALSE
"1367",82575,55025000408,"Dane County","WI",1708,1.52,7371350.195,11242.84315,55025,53508,TRUE,FALSE,FALSE
"1368",82574,55025000407,"Dane County","WI",5838,1.07,5175743.488,10528.93335,55025,53508,TRUE,FALSE,FALSE
"1369",82573,55025000406,"Dane County","WI",3705,1.24,6004065.949,11374.80501,55025,53508,TRUE,FALSE,FALSE
"1370",82572,55025000402,"Dane County","WI",2773,1.11,5393152.805,9755.576056,55025,53508,TRUE,FALSE,FALSE
"1371",82571,55025000401,"Dane County","WI",3535,0.7,3402929.008,7770.308265,55025,53508,TRUE,FALSE,FALSE
"1372",82570,55025000205,"Dane County","WI",5400,1.59,7711739.973,15651.65872,55025,53508,TRUE,FALSE,FALSE
"1373",82569,55025000204,"Dane County","WI",5278,1.02,4943831.254,9046.295493,55025,53508,TRUE,FALSE,FALSE
"1374",82568,55025000202,"Dane County","WI",3207,0.94,4548969.723,9021.75437,55025,53508,TRUE,FALSE,FALSE
"1375",82567,55025000201,"Dane County","WI",2198,0.71,3448065.355,8095.023906,55025,53508,TRUE,FALSE,FALSE
"1376",82566,55025000100,"Dane County","WI",2845,0.8,3873349.246,11250.47205,55025,53508,TRUE,FALSE,FALSE
"1377",82565,55023960600,"Crawford County","WI",3788,11.29,54766765.78,45328.73237,55023,54626,FALSE,FALSE,TRUE
"1378",82564,55023960500,"Crawford County","WI",1887,0.93,4496292.441,12844.71609,55023,54626,FALSE,FALSE,TRUE
"1379",82563,55023960400,"Crawford County","WI",3167,90.86,441231538.6,143263.5449,55023,54626,FALSE,FALSE,TRUE
"1380",82562,55023960300,"Crawford County","WI",2521,205.37,1000853286,189198.1831,55023,54626,FALSE,FALSE,TRUE
"1381",82561,55023960200,"Crawford County","WI",2409,153.08,749577949.5,131387.164,55023,54626,FALSE,FALSE,TRUE
"1382",82560,55023960100,"Crawford County","WI",2793,137.68,674633922.9,111013.8512,55023,54626,FALSE,FALSE,TRUE
"1383",82886,55021970402,"Columbia County","WI",NA,6.68,32916542.75,43934.44422,55021,53555,TRUE,FALSE,FALSE
"1384",82885,55021970401,"Columbia County","WI",NA,9.76,48189032.51,33182.16589,55021,53555,TRUE,FALSE,FALSE
"1385",82559,55021971200,"Columbia County","WI",5465,16.23,79442803.39,44323.95371,55021,53555,TRUE,FALSE,FALSE
"1386",82558,55021971100,"Columbia County","WI",3850,93.73,459455811,118252.4607,55021,53555,TRUE,FALSE,FALSE
"1387",82557,55021971000,"Columbia County","WI",4097,109.86,539010540.5,115341.0439,55021,53555,TRUE,FALSE,FALSE
"1388",82556,55021970900,"Columbia County","WI",4677,55.23,270622344,90695.16522,55021,53555,TRUE,FALSE,FALSE
"1389",82555,55021970800,"Columbia County","WI",5761,49.59,242768595.3,84664.07298,55021,53555,TRUE,FALSE,FALSE
"1390",82554,55021970700,"Columbia County","WI",4384,42.67,209593062.9,80197.5009,55021,53555,TRUE,FALSE,FALSE
"1391",82553,55021970600,"Columbia County","WI",4779,113.04,556879414.4,189648.5566,55021,53555,TRUE,FALSE,FALSE
"1392",82552,55021970500,"Columbia County","WI",4622,5.71,28155460.78,34363.30581,55021,53555,TRUE,FALSE,FALSE
"1393",82551,55021970300,"Columbia County","WI",4045,75.17,371430843.1,117580.1588,55021,53555,TRUE,FALSE,FALSE
"1394",82550,55021970200,"Columbia County","WI",5921,75.01,370009914,119471.4858,55021,53555,TRUE,FALSE,FALSE
"1395",82549,55021970100,"Columbia County","WI",4180,143.3,706799847.5,120238.414,55021,53555,TRUE,FALSE,FALSE
"1396",82548,55019950800,"Clark County","WI",3083,309.8,1581718109,221559.0423,55019,54405,FALSE,TRUE,FALSE
"1397",82547,55019950700,"Clark County","WI",3551,40.76,208240345.6,69356.99522,55019,54405,FALSE,TRUE,FALSE
"1398",82546,55019950600,"Clark County","WI",4839,212.7,1085366459,163441.5676,55019,54405,FALSE,TRUE,FALSE
"1399",82545,55019950500,"Clark County","WI",5703,159.23,818842989.3,124042.1642,55019,54405,FALSE,TRUE,FALSE
"1400",82544,55019950400,"Clark County","WI",4030,219.98,1132234075,152809.0238,55019,54405,FALSE,TRUE,FALSE
"1401",82543,55019950300,"Clark County","WI",4236,113.15,585532586.4,112418.1927,55019,54405,FALSE,TRUE,FALSE
"1402",82542,55019950200,"Clark County","WI",4451,122.3,632468141.1,125519.9584,55019,54405,FALSE,TRUE,FALSE
"1403",82541,55019950100,"Clark County","WI",5453,40.75,210940788,71508.27236,55019,54405,FALSE,TRUE,FALSE
"1404",82884,55017011002,"Chippewa County","WI",NA,102.48,532093589.9,121191.7482,55017,54724,FALSE,FALSE,TRUE
"1405",82883,55017011001,"Chippewa County","WI",NA,105.41,548092053,131715.4753,55017,54724,FALSE,FALSE,TRUE
"1406",82540,55017011200,"Chippewa County","WI",6909,113.61,589873189.1,106450.267,55017,54724,FALSE,FALSE,TRUE
"1407",82539,55017011100,"Chippewa County","WI",4275,208.62,1088719217,172918.1188,55017,54724,FALSE,FALSE,TRUE
"1408",82538,55017010900,"Chippewa County","WI",5038,201.78,1049932585,149631.2916,55017,54724,FALSE,FALSE,TRUE
"1409",82537,55017010800,"Chippewa County","WI",7399,129.74,670038078,116299.2046,55017,54724,FALSE,FALSE,TRUE
"1410",82536,55017010700,"Chippewa County","WI",7494,39.92,206157303.3,77018.83617,55017,54724,FALSE,FALSE,TRUE
"1411",82535,55017010500,"Chippewa County","WI",5657,10.49,54238842.87,38555.39797,55017,54724,FALSE,FALSE,TRUE
"1412",82534,55017010400,"Chippewa County","WI",5237,106.96,552877818.6,105788.8862,55017,54724,FALSE,FALSE,TRUE
"1413",82533,55017010300,"Chippewa County","WI",5726,2.18,11268694.51,14394.15996,55017,54724,FALSE,FALSE,TRUE
"1414",82532,55017010200,"Chippewa County","WI",7300,13.78,71107079.09,39574.59276,55017,54724,FALSE,FALSE,TRUE
"1415",82531,55017010100,"Chippewa County","WI",3168,6.29,32452151.47,25883.78248,55017,54724,FALSE,FALSE,TRUE
"1416",82530,55015020800,"Calumet County","WI",6265,3.19,16110534.23,20173.14917,55015,53014,TRUE,FALSE,FALSE
"1417",82529,55015020700,"Calumet County","WI",4437,1.51,7615581.398,11304.43045,55015,53014,TRUE,FALSE,FALSE
"1418",82528,55015020600,"Calumet County","WI",5206,34.58,172732411.7,53760.52552,55015,53014,TRUE,FALSE,FALSE
"1419",82527,55015020500,"Calumet County","WI",5389,37.57,188480230.9,58363.61335,55015,53014,TRUE,FALSE,FALSE
"1420",82526,55015020400,"Calumet County","WI",3507,124.81,625322538.6,113577.3762,55015,53014,TRUE,FALSE,FALSE
"1421",82525,55015020308,"Calumet County","WI",3853,8.55,43093930.84,27394.12369,55015,53014,TRUE,FALSE,FALSE
"1422",82524,55015020306,"Calumet County","WI",7131,51.59,259803599,73320.64659,55015,53014,TRUE,FALSE,FALSE
"1423",82523,55015020304,"Calumet County","WI",3860,0.73,3672479,8535.095002,55015,53014,TRUE,FALSE,FALSE
"1424",82522,55015020303,"Calumet County","WI",3943,0.78,3932948.402,7977.722402,55015,53014,TRUE,FALSE,FALSE
"1425",82521,55015020200,"Calumet County","WI",4140,97.82,491520984.8,127956.7903,55015,53014,TRUE,FALSE,FALSE
"1426",82520,55015020100,"Calumet County","WI",4906,35.94,181149042.6,53827.64997,55015,53014,TRUE,FALSE,FALSE
"1427",82519,55013971000,"Burnett County","WI",1870,129,684875917.5,140123.2049,55013,54830,FALSE,FALSE,TRUE
"1428",82518,55013970900,"Burnett County","WI",3100,118.79,633811986.2,124519.762,55013,54830,FALSE,FALSE,TRUE
"1429",82517,55013970800,"Burnett County","WI",2320,84.85,451976580.6,108256.2485,55013,54830,FALSE,FALSE,TRUE
"1430",82516,55013970700,"Burnett County","WI",2462,118.69,634181207.5,189778.6499,55013,54830,FALSE,FALSE,TRUE
"1431",82515,55013970600,"Burnett County","WI",1894,160.8,856444840.1,180547.675,55013,54830,FALSE,FALSE,TRUE
"1432",82514,55013970400,"Burnett County","WI",3863,268.09,1438955274,234103.0436,55013,54830,FALSE,FALSE,TRUE
"1433",82513,55011960500,"Buffalo County","WI",3245,185.13,933289795.3,201196.4471,55011,54610,FALSE,FALSE,TRUE
"1434",82512,55011960400,"Buffalo County","WI",2509,134.67,681917152.8,179350.1364,55011,54610,FALSE,FALSE,TRUE
"1435",82511,55011960300,"Buffalo County","WI",2085,145.76,741163274.4,168194.6505,55011,54610,FALSE,FALSE,TRUE
"1436",82510,55011960200,"Buffalo County","WI",2900,11.55,58959576.89,39767.51269,55011,54610,FALSE,FALSE,TRUE
"1437",82509,55011960100,"Buffalo County","WI",2795,232.48,1183077797,217835.8718,55011,54610,FALSE,FALSE,TRUE
"1438",82882,55009980000,"Brown County","WI",NA,0.08,425441.6133,2855.762489,55009,54115,TRUE,FALSE,FALSE
"1439",82881,55009940008,"Brown County","WI",NA,9.97,50690196.06,36604.77446,55009,54115,TRUE,FALSE,FALSE
"1440",82880,55009940007,"Brown County","WI",NA,4.55,23111049.27,28226.53332,55009,54115,TRUE,FALSE,FALSE
"1441",82879,55009940006,"Brown County","WI",NA,24.73,125648437.2,84583.57329,55009,54115,TRUE,FALSE,FALSE
"1442",82878,55009940005,"Brown County","WI",NA,14.23,72533870.41,50851.52355,55009,54115,TRUE,FALSE,FALSE
"1443",82877,55009020506,"Brown County","WI",NA,1.21,6186708.73,12333.81142,55009,54115,TRUE,FALSE,FALSE
"1444",82876,55009020505,"Brown County","WI",NA,2.28,11641899.31,15276.23681,55009,54115,TRUE,FALSE,FALSE
"1445",82508,55009940004,"Brown County","WI",2699,1.46,7433198.676,12609.39982,55009,54115,TRUE,FALSE,FALSE
"1446",82507,55009940003,"Brown County","WI",3484,1.58,8049854.176,17072.50842,55009,54115,TRUE,FALSE,FALSE
"1447",82506,55009940002,"Brown County","WI",4861,4.45,22683758.75,26115.79231,55009,54115,TRUE,FALSE,FALSE
"1448",82505,55009021600,"Brown County","WI",6559,34.34,175645643.8,57422.35529,55009,54115,TRUE,FALSE,FALSE
"1449",82504,55009021500,"Brown County","WI",3268,72.41,365940741.6,94674.2146,55009,54115,TRUE,FALSE,FALSE
"1450",82503,55009021400,"Brown County","WI",7811,57.97,293623118.3,77454.15412,55009,54115,TRUE,FALSE,FALSE
"1451",82502,55009021304,"Brown County","WI",2175,1.65,8382508.949,15739.63125,55009,54115,TRUE,FALSE,FALSE
"1452",82501,55009021303,"Brown County","WI",3965,3.42,17398617.54,31423.29653,55009,54115,TRUE,FALSE,FALSE
"1453",82500,55009021302,"Brown County","WI",6274,2.8,14251191.06,28426.40802,55009,54115,TRUE,FALSE,FALSE
"1454",82499,55009021301,"Brown County","WI",3215,1,5097384.77,9790.350605,55009,54115,TRUE,FALSE,FALSE
"1455",82498,55009021200,"Brown County","WI",5150,1.59,8060679.426,17221.97458,55009,54115,TRUE,FALSE,FALSE
"1456",82497,55009021000,"Brown County","WI",2733,1.14,5774794.395,14195.26425,55009,54115,TRUE,FALSE,FALSE
"1457",82496,55009020900,"Brown County","WI",2869,0.77,3932477.676,10458.48294,55009,54115,TRUE,FALSE,FALSE
"1458",82495,55009020800,"Brown County","WI",2294,1.01,5140869.133,12546.61739,55009,54115,TRUE,FALSE,FALSE
"1459",82494,55009020704,"Brown County","WI",8499,7.49,38097783.55,41963.08103,55009,54115,TRUE,FALSE,FALSE
"1460",82493,55009020703,"Brown County","WI",7525,6.89,35028176,27938.68057,55009,54115,TRUE,FALSE,FALSE
"1461",82492,55009020702,"Brown County","WI",6950,45.68,231710636.1,85283.363,55009,54115,TRUE,FALSE,FALSE
"1462",82491,55009020600,"Brown County","WI",5469,60.66,307835134,72454.41636,55009,54115,TRUE,FALSE,FALSE
"1463",82490,55009020504,"Brown County","WI",5881,6.78,34623421.59,28747.76141,55009,54115,TRUE,FALSE,FALSE
"1464",82489,55009020502,"Brown County","WI",5549,8.25,42124372.25,38999.68381,55009,54115,TRUE,FALSE,FALSE
"1465",82488,55009020204,"Brown County","WI",5577,16.94,86660670.65,41310.82937,55009,54115,TRUE,FALSE,FALSE
"1466",82487,55009020203,"Brown County","WI",7279,19.2,98235153.34,62271.06093,55009,54115,TRUE,FALSE,FALSE
"1467",82486,55009020100,"Brown County","WI",5876,63.76,325194977.3,89756.72222,55009,54115,TRUE,FALSE,FALSE
"1468",82485,55009010300,"Brown County","WI",7256,7.44,37766494.8,40585.29048,55009,54115,TRUE,FALSE,FALSE
"1469",82484,55009010202,"Brown County","WI",5399,2.53,12857087.74,17775.30971,55009,54115,TRUE,FALSE,FALSE
"1470",82483,55009010201,"Brown County","WI",4585,1.52,7727331.469,24233.86388,55009,54115,TRUE,FALSE,FALSE
"1471",82482,55009010100,"Brown County","WI",6441,1.85,9417882.324,19369.84094,55009,54115,TRUE,FALSE,FALSE
"1472",82481,55009002003,"Brown County","WI",3826,5.24,26690623.76,22031.61019,55009,54115,TRUE,FALSE,FALSE
"1473",82480,55009002002,"Brown County","WI",5328,1.4,7137100.363,12574.45446,55009,54115,TRUE,FALSE,FALSE
"1474",82479,55009002001,"Brown County","WI",8530,2.7,13740021.09,15506.9167,55009,54115,TRUE,FALSE,FALSE
"1475",82478,55009001802,"Brown County","WI",5995,7.78,39647449.92,51194.0973,55009,54115,TRUE,FALSE,FALSE
"1476",82477,55009001801,"Brown County","WI",5553,4.54,23107248.11,26797.69004,55009,54115,TRUE,FALSE,FALSE
"1477",82476,55009001702,"Brown County","WI",3678,1.1,5599133.668,15138.7741,55009,54115,TRUE,FALSE,FALSE
"1478",82475,55009001701,"Brown County","WI",3699,0.71,3618090.234,8411.638527,55009,54115,TRUE,FALSE,FALSE
"1479",82474,55009001600,"Brown County","WI",6785,1.37,6953138.887,17556.62253,55009,54115,TRUE,FALSE,FALSE
"1480",82473,55009001400,"Brown County","WI",3979,0.83,4250911.043,14506.7582,55009,54115,TRUE,FALSE,FALSE
"1481",82472,55009001300,"Brown County","WI",3036,0.53,2710364.516,7214.6278,55009,54115,TRUE,FALSE,FALSE
"1482",82471,55009001200,"Brown County","WI",2431,0.28,1425841.602,6866.210876,55009,54115,TRUE,FALSE,FALSE
"1483",82470,55009001100,"Brown County","WI",2167,0.4,2032588.805,8160.596655,55009,54115,TRUE,FALSE,FALSE
"1484",82469,55009001000,"Brown County","WI",1838,0.57,2921396.629,11186.92491,55009,54115,TRUE,FALSE,FALSE
"1485",82468,55009000900,"Brown County","WI",4002,1.2,6118397.996,10601.76735,55009,54115,TRUE,FALSE,FALSE
"1486",82467,55009000800,"Brown County","WI",1817,1.12,5682996.75,17209.4029,55009,54115,TRUE,FALSE,FALSE
"1487",82371,55009000700,"Brown County","WI",5054,1.07,5456224.379,12074.72159,55009,54115,TRUE,FALSE,FALSE
"1488",82370,55009000600,"Brown County","WI",4106,0.83,4239191.941,10109.72474,55009,54115,TRUE,FALSE,FALSE
"1489",82369,55009000500,"Brown County","WI",3036,0.45,2294589.75,6355.165205,55009,54115,TRUE,FALSE,FALSE
"1490",82368,55009000402,"Brown County","WI",2342,0.7,3548909.922,7761.95702,55009,54115,TRUE,FALSE,FALSE
"1491",82367,55009000401,"Brown County","WI",4884,0.94,4785178.426,8892.622145,55009,54115,TRUE,FALSE,FALSE
"1492",82366,55009000303,"Brown County","WI",2754,0.73,3699653.25,7736.36638,55009,54115,TRUE,FALSE,FALSE
"1493",82365,55009000302,"Brown County","WI",4611,1.08,5509183.492,11610.28516,55009,54115,TRUE,FALSE,FALSE
"1494",82364,55009000200,"Brown County","WI",6201,1.18,6040677.859,11693.7811,55009,54115,TRUE,FALSE,FALSE
"1495",82363,55009000100,"Brown County","WI",2771,2.84,14464084.87,21103.66275,55009,54115,TRUE,FALSE,FALSE
"1496",82466,55007960402,"Bayfield County","WI",NA,323.32,1763837514,211008.9045,55007,54814,FALSE,FALSE,TRUE
"1497",82465,55007960401,"Bayfield County","WI",NA,192.59,1050570237,153888.1227,55007,54814,FALSE,FALSE,TRUE
"1498",82362,55007960600,"Bayfield County","WI",1970,359.43,1945805187,229356.3194,55007,54814,FALSE,FALSE,TRUE
"1499",82361,55007960300,"Bayfield County","WI",3853,134.21,738099549.7,136957.186,55007,54814,FALSE,FALSE,TRUE
"1500",82360,55007960200,"Bayfield County","WI",1666,325.75,1792916584,240144.834,55007,54814,FALSE,FALSE,TRUE
"1501",82359,55007960100,"Bayfield County","WI",2977,176.04,974431849,202966.9801,55007,54814,FALSE,FALSE,TRUE
"1502",82464,55005001004,"Barron County","WI",NA,64.08,335680483.5,124484.8448,55005,54728,FALSE,FALSE,TRUE
"1503",82463,55005001003,"Barron County","WI",NA,6.16,32276128.4,31381.95734,55005,54728,FALSE,FALSE,TRUE
"1504",82462,55005000602,"Barron County","WI",NA,5.4,28490924.2,23740.04968,55005,54728,FALSE,FALSE,TRUE
"1505",82461,55005000601,"Barron County","WI",NA,3.52,18529546.62,23066.29593,55005,54728,FALSE,FALSE,TRUE
"1506",82358,55005001001,"Barron County","WI",1858,78.52,410714193.4,95046.69821,55005,54728,FALSE,FALSE,TRUE
"1507",82357,55005000900,"Barron County","WI",5035,217.97,1140762805,156614.2326,55005,54728,FALSE,FALSE,TRUE
"1508",82356,55005000800,"Barron County","WI",5494,105.72,556648277.1,124006.1785,55005,54728,FALSE,FALSE,TRUE
"1509",82355,55005000500,"Barron County","WI",4320,7.95,41915525.68,36651.40603,55005,54728,FALSE,FALSE,TRUE
"1510",82354,55005000400,"Barron County","WI",5370,84,442282949.7,102199.813,55005,54728,FALSE,FALSE,TRUE
"1511",82353,55005000300,"Barron County","WI",4202,101.59,534568872.2,116060.2792,55005,54728,FALSE,FALSE,TRUE
"1512",82352,55005000200,"Barron County","WI",4072,75.69,399892442.9,94225.15915,55005,54728,FALSE,FALSE,TRUE
"1513",82351,55005000100,"Barron County","WI",3970,139.16,736014846.1,144079.6456,55005,54728,FALSE,FALSE,TRUE
"1514",82350,55003950800,"Ashland County","WI",3166,86.35,478657310.3,420306.2355,55003,54806,FALSE,FALSE,TRUE
"1515",82349,55003950700,"Ashland County","WI",2193,407.36,2192494728,230684.7785,55003,54806,FALSE,FALSE,TRUE
"1516",82348,55003950600,"Ashland County","WI",1463,204.53,1107617295,173151.7876,55003,54806,FALSE,FALSE,TRUE
"1517",82347,55003950500,"Ashland County","WI",2230,130.4,709785258.6,163343.9952,55003,54806,FALSE,FALSE,TRUE
"1518",82346,55003950400,"Ashland County","WI",2236,3.3,18058249.16,20784.47696,55003,54806,FALSE,FALSE,TRUE
"1519",82345,55003950300,"Ashland County","WI",2562,2.17,11879391.37,21895.47616,55003,54806,FALSE,FALSE,TRUE
"1520",82344,55003940000,"Ashland County","WI",1758,220.04,1202973272,228573.4633,55003,54806,FALSE,FALSE,TRUE
"1521",82460,55001950204,"Adams County","WI",NA,155.48,780334988.1,189915.7388,55001,53910,TRUE,FALSE,FALSE
"1522",82459,55001950203,"Adams County","WI",NA,44.68,224588932.4,91676.0991,55001,53910,TRUE,FALSE,FALSE
"1523",82343,55001950700,"Adams County","WI",3444,104.09,516360586.9,107994.4699,55001,53910,TRUE,FALSE,FALSE
"1524",82342,55001950502,"Adams County","WI",3910,97.57,485578209,118324.6651,55001,53910,TRUE,FALSE,FALSE
"1525",82341,55001950501,"Adams County","WI",1514,51.65,257564345.3,77485.20391,55001,53910,TRUE,FALSE,FALSE
"1526",82340,55001950400,"Adams County","WI",5054,91.68,458063203.7,125135.2271,55001,53910,TRUE,FALSE,FALSE
"1527",82339,55001950201,"Adams County","WI",1475,45.22,226471144.2,100301.6171,55001,53910,TRUE,FALSE,FALSE
"1528",82338,55001950100,"Adams County","WI",3122,97.1,489471413.8,108089.5889,55001,53910,TRUE,FALSE,FALSE
